<?xml version="1.0" encoding="UTF-8"?>
<kml xmlns="http://www.opengis.net/kml/2.2">
<Document>
  <name>GPS Track - 2025-05-06 17:46</name>
  <description>GPS track with 719 points</description>
  <Style id="routeStyle">
    <LineStyle>
      <color>ff00ffff</color>
      <width>4</width>
    </LineStyle>
  </Style>
  <Style id="stopStyle">
    <IconStyle>
      <color>ff0000ff</color>
      <scale>1.3</scale>
      <Icon>
        <href>http://maps.google.com/mapfiles/kml/paddle/red-circle.png</href>
      </Icon>
    </IconStyle>
  </Style>
  <Style id="leftTurnStyle">
    <IconStyle>
      <color>ff00ffff</color>
      <scale>1.1</scale>
      <Icon>
        <href>http://maps.google.com/mapfiles/kml/paddle/ylw-blank.png</href>
      </Icon>
    </IconStyle>
  </Style>
  <Style id="startStyle">
    <IconStyle>
      <color>ff00ff00</color>
      <scale>1.5</scale>
      <Icon>
        <href>http://maps.google.com/mapfiles/kml/paddle/go.png</href>
      </Icon>
    </IconStyle>
  </Style>
  <Style id="endStyle">
    <IconStyle>
      <color>ff0000ff</color>
      <scale>1.5</scale>
      <Icon>
        <href>http://maps.google.com/mapfiles/kml/paddle/stop.png</href>
      </Icon>
    </IconStyle>
  </Style>
  <Placemark>
    <name>Route</name>
    <styleUrl>#routeStyle</styleUrl>
    <LineString>
      <tessellate>1</tessellate>
      <altitudeMode>clampToGround</altitudeMode>
      <coordinates>
        -77.676137,43.087347,3.0
        -77.675910,43.087352,3.0
        -77.675770,43.087360,3.0
        -77.675635,43.087367,3.0
        -77.675510,43.087373,3.0
        -77.675287,43.087388,3.0
        -77.675053,43.087407,3.0
        -77.674827,43.087425,3.0
        -77.674625,43.087433,3.0
        -77.674530,43.087422,3.0
        -77.674318,43.087418,3.0
        -77.674222,43.087422,3.0
        -77.674122,43.087437,3.0
        -77.673908,43.087478,3.0
        -77.673785,43.087475,3.0
        -77.673645,43.087480,3.0
        -77.673498,43.087480,3.0
        -77.673348,43.087485,3.0
        -77.673202,43.087490,3.0
        -77.673062,43.087490,3.0
        -77.672933,43.087488,3.0
        -77.672802,43.087490,3.0
        -77.672662,43.087490,3.0
        -77.672512,43.087492,3.0
        -77.672353,43.087492,3.0
        -77.672188,43.087497,3.0
        -77.672022,43.087505,3.0
        -77.671852,43.087518,3.0
        -77.671678,43.087543,3.0
        -77.671503,43.087573,3.0
        -77.671317,43.087603,3.0
        -77.671128,43.087642,3.0
        -77.670933,43.087697,3.0
        -77.670732,43.087783,3.0
        -77.670520,43.087893,3.0
        -77.670302,43.088013,3.0
        -77.670080,43.088128,3.0
        -77.669868,43.088227,3.0
        -77.669663,43.088322,3.0
        -77.669463,43.088407,3.0
        -77.669267,43.088493,3.0
        -77.669075,43.088583,3.0
        -77.668905,43.088723,3.0
        -77.668732,43.088803,3.0
        -77.668563,43.088868,3.0
        -77.668398,43.088917,3.0
        -77.668252,43.088960,3.0
        -77.668160,43.088962,3.0
        -77.668052,43.088928,3.0
        -77.667987,43.088917,3.0
        -77.667920,43.088917,3.0
        -77.667838,43.088930,3.0
        -77.667760,43.088960,3.0
        -77.667688,43.089075,3.0
        -77.667622,43.089162,3.0
        -77.667563,43.089263,3.0
        -77.667502,43.089375,3.0
        -77.667438,43.089492,3.0
        -77.667377,43.089617,3.0
        -77.667313,43.089737,3.0
        -77.667248,43.089852,3.0
        -77.667187,43.089967,3.0
        -77.667123,43.090083,3.0
        -77.667060,43.090200,3.0
        -77.666993,43.090310,3.0
        -77.666928,43.090422,3.0
        -77.666867,43.090533,3.0
        -77.666812,43.090635,3.0
        -77.666762,43.090733,3.0
        -77.666710,43.090828,3.0
        -77.666655,43.090930,3.0
        -77.666602,43.091028,3.0
        -77.666553,43.091120,3.0
        -77.666507,43.091207,3.0
        -77.666467,43.091287,3.0
        -77.666425,43.091352,3.0
        -77.666377,43.091403,3.0
        -77.666303,43.091440,3.0
        -77.666222,43.091463,3.0
        -77.666137,43.091460,3.0
        -77.666038,43.091445,3.0
        -77.665948,43.091422,3.0
        -77.665845,43.091417,3.0
        -77.665738,43.091420,3.0
        -77.665663,43.091443,3.0
        -77.665565,43.091507,3.0
        -77.665397,43.091615,3.0
        -77.665317,43.091667,3.0
        -77.665235,43.091710,3.0
        -77.665040,43.091773,3.0
        -77.664933,43.091803,3.0
        -77.664725,43.091838,3.0
        -77.664630,43.091848,3.0
        -77.664443,43.091860,3.0
        -77.664280,43.091878,3.0
        -77.664215,43.091905,3.0
        -77.664143,43.091913,3.0
        -77.664080,43.091925,3.0
        -77.664017,43.091932,3.0
        -77.663960,43.091932,3.0
        -77.663917,43.091938,3.0
        -77.663848,43.091965,3.0
        -77.663857,43.091995,3.0
        -77.663862,43.092027,3.0
        -77.663897,43.092065,3.0
        -77.663917,43.092047,3.0
        -77.663868,43.092007,3.0
        -77.663813,43.092000,3.0
        -77.663658,43.092005,3.0
        -77.663497,43.091988,3.0
        -77.663335,43.091982,3.0
        -77.663240,43.091955,3.0
        -77.663085,43.091927,3.0
        -77.663010,43.091918,3.0
        -77.662872,43.091932,3.0
        -77.662798,43.091963,3.0
        -77.662735,43.092017,3.0
        -77.662710,43.092075,3.0
        -77.662717,43.092170,3.0
        -77.662722,43.092320,3.0
        -77.662737,43.092448,3.0
        -77.662742,43.092508,3.0
        -77.662737,43.092608,3.0
        -77.662732,43.092625,3.0
        -77.662690,43.092670,3.0
        -77.662618,43.092685,3.0
        -77.662335,43.092690,3.0
        -77.662158,43.092697,3.0
        -77.661953,43.092710,3.0
        -77.661713,43.092723,3.0
        -77.661453,43.092737,3.0
        -77.661152,43.092755,3.0
        -77.660835,43.092772,3.0
        -77.660515,43.092787,3.0
        -77.660198,43.092797,3.0
        -77.659892,43.092808,3.0
        -77.659595,43.092825,3.0
        -77.659312,43.092837,3.0
        -77.659035,43.092848,3.0
        -77.658765,43.092858,3.0
        -77.658500,43.092868,3.0
        -77.658238,43.092875,3.0
        -77.657975,43.092883,3.0
        -77.657708,43.092890,3.0
        -77.657438,43.092900,3.0
        -77.657168,43.092912,3.0
        -77.656898,43.092922,3.0
        -77.656630,43.092932,3.0
        -77.656365,43.092940,3.0
        -77.656100,43.092943,3.0
        -77.655838,43.092948,3.0
        -77.655585,43.092948,3.0
        -77.655335,43.092950,3.0
        -77.655087,43.092947,3.0
        -77.654860,43.092938,3.0
        -77.654660,43.092922,3.0
        -77.654492,43.092907,3.0
        -77.654350,43.092888,3.0
        -77.654220,43.092872,3.0
        -77.654093,43.092852,3.0
        -77.653958,43.092833,3.0
        -77.653813,43.092815,3.0
        -77.653660,43.092795,3.0
        -77.653495,43.092773,3.0
        -77.653320,43.092747,3.0
        -77.653133,43.092717,3.0
        -77.652942,43.092682,3.0
        -77.652757,43.092645,3.0
        -77.652572,43.092605,3.0
        -77.652382,43.092562,3.0
        -77.652188,43.092512,3.0
        -77.651995,43.092455,3.0
        -77.651798,43.092400,3.0
        -77.651597,43.092340,3.0
        -77.651392,43.092275,3.0
        -77.651185,43.092208,3.0
        -77.650972,43.092142,3.0
        -77.650757,43.092073,3.0
        -77.650540,43.092007,3.0
        -77.650327,43.091937,3.0
        -77.650118,43.091870,3.0
        -77.649907,43.091802,3.0
        -77.649690,43.091738,3.0
        -77.649473,43.091675,3.0
        -77.649260,43.091613,3.0
        -77.649048,43.091553,3.0
        -77.648837,43.091490,3.0
        -77.648623,43.091425,3.0
        -77.648410,43.091360,3.0
        -77.648198,43.091297,3.0
        -77.647987,43.091233,3.0
        -77.647773,43.091170,3.0
        -77.647567,43.091107,3.0
        -77.647365,43.091045,3.0
        -77.647165,43.090982,3.0
        -77.646962,43.090917,3.0
        -77.646755,43.090852,3.0
        -77.646548,43.090787,3.0
        -77.646337,43.090723,3.0
        -77.646123,43.090662,3.0
        -77.645907,43.090595,3.0
        -77.645693,43.090528,3.0
        -77.645483,43.090465,3.0
        -77.645278,43.090403,3.0
        -77.645077,43.090342,3.0
        -77.644878,43.090280,3.0
        -77.644683,43.090225,3.0
        -77.644493,43.090172,3.0
        -77.644308,43.090120,3.0
        -77.644127,43.090068,3.0
        -77.643950,43.090017,3.0
        -77.643775,43.089967,3.0
        -77.643602,43.089917,3.0
        -77.643422,43.089865,3.0
        -77.643233,43.089810,3.0
        -77.643035,43.089750,3.0
        -77.642830,43.089683,3.0
        -77.642625,43.089617,3.0
        -77.642417,43.089550,3.0
        -77.642203,43.089483,3.0
        -77.641980,43.089428,3.0
        -77.641755,43.089375,3.0
        -77.641527,43.089320,3.0
        -77.641298,43.089265,3.0
        -77.641070,43.089212,3.0
        -77.640843,43.089155,3.0
        -77.640617,43.089100,3.0
        -77.640382,43.089050,3.0
        -77.640145,43.088995,3.0
        -77.639903,43.088938,3.0
        -77.639660,43.088883,3.0
        -77.639413,43.088825,3.0
        -77.639165,43.088768,3.0
        -77.638917,43.088710,3.0
        -77.638668,43.088653,3.0
        -77.638425,43.088593,3.0
        -77.638183,43.088533,3.0
        -77.637947,43.088473,3.0
        -77.637712,43.088418,3.0
        -77.637475,43.088362,3.0
        -77.637242,43.088307,3.0
        -77.637017,43.088252,3.0
        -77.636797,43.088200,3.0
        -77.636583,43.088147,3.0
        -77.636370,43.088093,3.0
        -77.636158,43.088043,3.0
        -77.635952,43.087993,3.0
        -77.635748,43.087945,3.0
        -77.635550,43.087897,3.0
        -77.635353,43.087852,3.0
        -77.635155,43.087805,3.0
        -77.634960,43.087758,3.0
        -77.634770,43.087710,3.0
        -77.634580,43.087662,3.0
        -77.634397,43.087617,3.0
        -77.634235,43.087578,3.0
        -77.634092,43.087543,3.0
        -77.633958,43.087510,3.0
        -77.633830,43.087480,3.0
        -77.633623,43.087432,3.0
        -77.633453,43.087392,3.0
        -77.633293,43.087365,3.0
        -77.633148,43.087348,3.0
        -77.633043,43.087338,3.0
        -77.633013,43.087338,3.0
        -77.632963,43.087328,3.0
        -77.632797,43.087282,3.0
        -77.632617,43.087245,3.0
        -77.632510,43.087228,3.0
        -77.632387,43.087218,3.0
        -77.632252,43.087217,3.0
        -77.632113,43.087210,3.0
        -77.631970,43.087202,3.0
        -77.631820,43.087192,3.0
        -77.631662,43.087180,3.0
        -77.631488,43.087163,3.0
        -77.631292,43.087145,3.0
        -77.631075,43.087127,3.0
        -77.630842,43.087110,3.0
        -77.630597,43.087093,3.0
        -77.630368,43.087085,3.0
        -77.630185,43.087085,3.0
        -77.630035,43.087085,3.0
        -77.629827,43.087092,3.0
        -77.629778,43.087097,3.0
        -77.629738,43.087105,3.0
        -77.629702,43.087110,3.0
        -77.629648,43.087132,3.0
        -77.629590,43.087223,3.0
        -77.629587,43.087368,3.0
        -77.629585,43.087420,3.0
        -77.629522,43.087492,3.0
        -77.629458,43.087507,3.0
        -77.629318,43.087522,3.0
        -77.629195,43.087523,3.0
        -77.629142,43.087525,3.0
        -77.628995,43.087510,3.0
        -77.628950,43.087545,3.0
        -77.628907,43.087598,3.0
        -77.628843,43.087610,3.0
        -77.628813,43.087655,3.0
        -77.628845,43.087688,3.0
        -77.628957,43.087752,3.0
        -77.629003,43.087772,3.0
        -77.629025,43.087787,3.0
        -77.629057,43.087803,3.0
        -77.629098,43.087818,3.0
        -77.629168,43.087863,3.0
        -77.629230,43.087863,3.0
        -77.629247,43.087855,3.0
        -77.629303,43.087805,3.0
        -77.629415,43.087810,3.0
        -77.629475,43.087820,3.0
        -77.629508,43.087820,3.0
        -77.629583,43.087828,3.0
        -77.629618,43.087850,3.0
        -77.629642,43.087872,3.0
        -77.629687,43.087937,3.0
        -77.629715,43.087957,3.0
        -77.629792,43.087967,3.0
        -77.629812,43.087933,3.0
        -77.629817,43.087808,3.0
        -77.629812,43.087707,3.0
        -77.629803,43.087593,3.0
        -77.629792,43.087478,3.0
        -77.629785,43.087375,3.0
        -77.629792,43.087292,3.0
        -77.629812,43.087223,3.0
        -77.629853,43.087168,3.0
        -77.629935,43.087133,3.0
        -77.630045,43.087115,3.0
        -77.630172,43.087113,3.0
        -77.630323,43.087118,3.0
        -77.630502,43.087125,3.0
        -77.630707,43.087138,3.0
        -77.630938,43.087160,3.0
        -77.631175,43.087185,3.0
        -77.631417,43.087212,3.0
        -77.631670,43.087242,3.0
        -77.631937,43.087275,3.0
        -77.632215,43.087313,3.0
        -77.632497,43.087357,3.0
        -77.632787,43.087402,3.0
        -77.633087,43.087450,3.0
        -77.633392,43.087497,3.0
        -77.633693,43.087550,3.0
        -77.633987,43.087607,3.0
        -77.634277,43.087670,3.0
        -77.634563,43.087737,3.0
        -77.634853,43.087802,3.0
        -77.635143,43.087870,3.0
        -77.635428,43.087937,3.0
        -77.635708,43.088000,3.0
        -77.635985,43.088060,3.0
        -77.636258,43.088122,3.0
        -77.636533,43.088183,3.0
        -77.636805,43.088248,3.0
        -77.637078,43.088313,3.0
        -77.637350,43.088378,3.0
        -77.637618,43.088443,3.0
        -77.637883,43.088507,3.0
        -77.638137,43.088565,3.0
        -77.638370,43.088620,3.0
        -77.638583,43.088670,3.0
        -77.638772,43.088715,3.0
        -77.638923,43.088750,3.0
        -77.639038,43.088778,3.0
        -77.639113,43.088815,3.0
        -77.639163,43.088848,3.0
        -77.639215,43.088862,3.0
        -77.639392,43.088902,3.0
        -77.639592,43.088958,3.0
        -77.639717,43.088983,3.0
        -77.639857,43.089005,3.0
        -77.640020,43.089032,3.0
        -77.640200,43.089070,3.0
        -77.640388,43.089115,3.0
        -77.640583,43.089163,3.0
        -77.640782,43.089213,3.0
        -77.640978,43.089263,3.0
        -77.641170,43.089313,3.0
        -77.641355,43.089360,3.0
        -77.641537,43.089405,3.0
        -77.641712,43.089450,3.0
        -77.641885,43.089495,3.0
        -77.642058,43.089542,3.0
        -77.642242,43.089592,3.0
        -77.642438,43.089648,3.0
        -77.642642,43.089707,3.0
        -77.642853,43.089768,3.0
        -77.643075,43.089835,3.0
        -77.643302,43.089903,3.0
        -77.643537,43.089973,3.0
        -77.643777,43.090045,3.0
        -77.644022,43.090118,3.0
        -77.644272,43.090193,3.0
        -77.644520,43.090270,3.0
        -77.644765,43.090348,3.0
        -77.645012,43.090425,3.0
        -77.645258,43.090500,3.0
        -77.645507,43.090573,3.0
        -77.645748,43.090647,3.0
        -77.645990,43.090718,3.0
        -77.646235,43.090790,3.0
        -77.646482,43.090863,3.0
        -77.646732,43.090937,3.0
        -77.646980,43.091008,3.0
        -77.647225,43.091077,3.0
        -77.647465,43.091145,3.0
        -77.647700,43.091213,3.0
        -77.647930,43.091282,3.0
        -77.648157,43.091350,3.0
        -77.648382,43.091420,3.0
        -77.648603,43.091488,3.0
        -77.648825,43.091557,3.0
        -77.649048,43.091623,3.0
        -77.649273,43.091692,3.0
        -77.649502,43.091758,3.0
        -77.649735,43.091827,3.0
        -77.649968,43.091897,3.0
        -77.650200,43.091965,3.0
        -77.650433,43.092033,3.0
        -77.650673,43.092102,3.0
        -77.650913,43.092172,3.0
        -77.651150,43.092242,3.0
        -77.651380,43.092312,3.0
        -77.651608,43.092378,3.0
        -77.651827,43.092445,3.0
        -77.652045,43.092508,3.0
        -77.652262,43.092567,3.0
        -77.652472,43.092615,3.0
        -77.652667,43.092653,3.0
        -77.652838,43.092680,3.0
        -77.652978,43.092705,3.0
        -77.653162,43.092738,3.0
        -77.653270,43.092755,3.0
        -77.653347,43.092772,3.0
        -77.653420,43.092780,3.0
        -77.653517,43.092798,3.0
        -77.653592,43.092807,3.0
        -77.653605,43.092807,3.0
        -77.653680,43.092773,3.0
        -77.653765,43.092677,3.0
        -77.653802,43.092573,3.0
        -77.653847,43.092455,3.0
        -77.653910,43.092333,3.0
        -77.653978,43.092197,3.0
        -77.654050,43.092050,3.0
        -77.654128,43.091885,3.0
        -77.654203,43.091728,3.0
        -77.654278,43.091582,3.0
        -77.654348,43.091442,3.0
        -77.654418,43.091298,3.0
        -77.654490,43.091152,3.0
        -77.654560,43.090998,3.0
        -77.654630,43.090850,3.0
        -77.654702,43.090707,3.0
        -77.654772,43.090565,3.0
        -77.654848,43.090425,3.0
        -77.654932,43.090280,3.0
        -77.655013,43.090132,3.0
        -77.655097,43.089980,3.0
        -77.655180,43.089827,3.0
        -77.655265,43.089670,3.0
        -77.655353,43.089513,3.0
        -77.655440,43.089353,3.0
        -77.655528,43.089190,3.0
        -77.655617,43.089025,3.0
        -77.655707,43.088857,3.0
        -77.655797,43.088690,3.0
        -77.655888,43.088525,3.0
        -77.655978,43.088365,3.0
        -77.656065,43.088208,3.0
        -77.656148,43.088055,3.0
        -77.656230,43.087907,3.0
        -77.656307,43.087762,3.0
        -77.656385,43.087622,3.0
        -77.656463,43.087483,3.0
        -77.656543,43.087353,3.0
        -77.656618,43.087232,3.0
        -77.656685,43.087123,3.0
        -77.656742,43.087035,3.0
        -77.656813,43.086917,3.0
        -77.656872,43.086793,3.0
        -77.656948,43.086647,3.0
        -77.656993,43.086585,3.0
        -77.657068,43.086547,3.0
        -77.657162,43.086528,3.0
        -77.657272,43.086520,3.0
        -77.657405,43.086525,3.0
        -77.657553,43.086527,3.0
        -77.657725,43.086525,3.0
        -77.657917,43.086520,3.0
        -77.658108,43.086517,3.0
        -77.658300,43.086515,3.0
        -77.658492,43.086513,3.0
        -77.658682,43.086513,3.0
        -77.658867,43.086513,3.0
        -77.659047,43.086513,3.0
        -77.659207,43.086515,3.0
        -77.659338,43.086515,3.0
        -77.659563,43.086520,3.0
        -77.659793,43.086520,3.0
        -77.659928,43.086518,3.0
        -77.660083,43.086517,3.0
        -77.660248,43.086513,3.0
        -77.660427,43.086510,3.0
        -77.660608,43.086510,3.0
        -77.660785,43.086507,3.0
        -77.660955,43.086505,3.0
        -77.661128,43.086502,3.0
        -77.661303,43.086502,3.0
        -77.661477,43.086498,3.0
        -77.661645,43.086495,3.0
        -77.661815,43.086493,3.0
        -77.661987,43.086492,3.0
        -77.662160,43.086488,3.0
        -77.662330,43.086483,3.0
        -77.662497,43.086480,3.0
        -77.662658,43.086477,3.0
        -77.662805,43.086477,3.0
        -77.663007,43.086473,3.0
        -77.663205,43.086467,3.0
        -77.663333,43.086463,3.0
        -77.663478,43.086460,3.0
        -77.663633,43.086458,3.0
        -77.663782,43.086457,3.0
        -77.663912,43.086460,3.0
        -77.664083,43.086470,3.0
        -77.664255,43.086472,3.0
        -77.664517,43.086455,3.0
        -77.664667,43.086448,3.0
        -77.664815,43.086443,3.0
        -77.664963,43.086442,3.0
        -77.665110,43.086440,3.0
        -77.665250,43.086440,3.0
        -77.665383,43.086440,3.0
        -77.665512,43.086440,3.0
        -77.665710,43.086432,3.0
        -77.665817,43.086425,3.0
        -77.665897,43.086395,3.0
        -77.665942,43.086358,3.0
        -77.665972,43.086300,3.0
        -77.665980,43.086212,3.0
        -77.665973,43.086115,3.0
        -77.665960,43.086015,3.0
        -77.665952,43.085903,3.0
        -77.665942,43.085795,3.0
        -77.665938,43.085688,3.0
        -77.665937,43.085585,3.0
        -77.665940,43.085480,3.0
        -77.665943,43.085380,3.0
        -77.665942,43.085283,3.0
        -77.665935,43.085182,3.0
        -77.665925,43.085075,3.0
        -77.665918,43.084962,3.0
        -77.665912,43.084843,3.0
        -77.665907,43.084722,3.0
        -77.665903,43.084593,3.0
        -77.665900,43.084462,3.0
        -77.665895,43.084332,3.0
        -77.665890,43.084205,3.0
        -77.665885,43.084080,3.0
        -77.665882,43.083953,3.0
        -77.665877,43.083830,3.0
        -77.665873,43.083707,3.0
        -77.665873,43.083585,3.0
        -77.665875,43.083468,3.0
        -77.665878,43.083363,3.0
        -77.665893,43.083203,3.0
        -77.665905,43.083142,3.0
        -77.665912,43.083015,3.0
        -77.665922,43.082842,3.0
        -77.665925,43.082742,3.0
        -77.665932,43.082633,3.0
        -77.665943,43.082518,3.0
        -77.665955,43.082397,3.0
        -77.665967,43.082270,3.0
        -77.665978,43.082138,3.0
        -77.665993,43.082005,3.0
        -77.666015,43.081868,3.0
        -77.666040,43.081730,3.0
        -77.666070,43.081588,3.0
        -77.666108,43.081445,3.0
        -77.666158,43.081300,3.0
        -77.666218,43.081152,3.0
        -77.666287,43.081008,3.0
        -77.666372,43.080868,3.0
        -77.666467,43.080733,3.0
        -77.666572,43.080607,3.0
        -77.666685,43.080492,3.0
        -77.666807,43.080382,3.0
        -77.666932,43.080278,3.0
        -77.667062,43.080180,3.0
        -77.667193,43.080083,3.0
        -77.667328,43.079993,3.0
        -77.667465,43.079908,3.0
        -77.667605,43.079827,3.0
        -77.667752,43.079745,3.0
        -77.667915,43.079665,3.0
        -77.668090,43.079588,3.0
        -77.668270,43.079513,3.0
        -77.668452,43.079443,3.0
        -77.668638,43.079380,3.0
        -77.668832,43.079328,3.0
        -77.669030,43.079278,3.0
        -77.669233,43.079238,3.0
        -77.669438,43.079205,3.0
        -77.669653,43.079177,3.0
        -77.669873,43.079153,3.0
        -77.670093,43.079135,3.0
        -77.670310,43.079125,3.0
        -77.670527,43.079120,3.0
        -77.670742,43.079123,3.0
        -77.670958,43.079138,3.0
        -77.671175,43.079162,3.0
        -77.671393,43.079192,3.0
        -77.671613,43.079227,3.0
        -77.671825,43.079267,3.0
        -77.672035,43.079317,3.0
        -77.672243,43.079372,3.0
        -77.672445,43.079433,3.0
        -77.672648,43.079498,3.0
        -77.672848,43.079570,3.0
        -77.673038,43.079648,3.0
        -77.673223,43.079732,3.0
        -77.673400,43.079818,3.0
        -77.673565,43.079908,3.0
        -77.673717,43.080007,3.0
        -77.673858,43.080110,3.0
        -77.673993,43.080217,3.0
        -77.674115,43.080322,3.0
        -77.674230,43.080427,3.0
        -77.674338,43.080537,3.0
        -77.674443,43.080642,3.0
        -77.674537,43.080742,3.0
        -77.674622,43.080828,3.0
        -77.674698,43.080912,3.0
        -77.674770,43.080988,3.0
        -77.674840,43.081062,3.0
        -77.674912,43.081105,3.0
        -77.674997,43.081200,3.0
        -77.675022,43.081250,3.0
        -77.675067,43.081282,3.0
        -77.675098,43.081312,3.0
        -77.675115,43.081387,3.0
        -77.675097,43.081442,3.0
        -77.675037,43.081563,3.0
        -77.674997,43.081675,3.0
        -77.674982,43.081730,3.0
        -77.674917,43.081823,3.0
        -77.674872,43.081842,3.0
        -77.674817,43.081858,3.0
        -77.674663,43.081877,3.0
        -77.674533,43.081880,3.0
        -77.674488,43.081888,3.0
        -77.674295,43.081905,3.0
        -77.674143,43.081925,3.0
        -77.674025,43.081937,3.0
        -77.673967,43.081952,3.0
        -77.673917,43.081968,3.0
        -77.673880,43.081988,3.0
        -77.673848,43.082015,3.0
        -77.673830,43.082045,3.0
        -77.673827,43.082073,3.0
        -77.673845,43.082178,3.0
        -77.673863,43.082268,3.0
        -77.673885,43.082347,3.0
        -77.673952,43.082393,3.0
        -77.673985,43.082452,3.0
        -77.674000,43.082470,3.0
        -77.674050,43.082513,3.0
        -77.674128,43.082478,3.0
        -77.674148,43.082523,3.0
        -77.674090,43.082602,3.0
        -77.674072,43.082678,3.0
        -77.674085,43.082733,3.0
        -77.674112,43.082745,3.0
        -77.674163,43.082785,3.0
        -77.674207,43.082825,3.0
        -77.674205,43.082850,3.0
        -77.674197,43.082875,3.0
        -77.674200,43.082895,3.0
        -77.674203,43.082860,3.0
        -77.674162,43.082725,3.0
        -77.674103,43.082588,3.0
        -77.674068,43.082480,3.0
        -77.674018,43.082377,3.0
        -77.673988,43.082332,3.0
        -77.673972,43.082280,3.0
        -77.673948,43.082247,3.0
        -77.673932,43.082213,3.0
        -77.673920,43.082182,3.0
        -77.673915,43.082147,3.0
        -77.673915,43.082110,3.0
        -77.673903,43.082058,3.0
        -77.673933,43.082025,3.0
        -77.673970,43.081998,3.0
        -77.674017,43.081980,3.0
        -77.674105,43.081962,3.0
        -77.674132,43.081963,3.0
        -77.674160,43.081970,3.0
        -77.674170,43.081973,3.0
        -77.674217,43.081973,3.0
        -77.674373,43.081955,3.0
        -77.674435,43.081950,3.0
        -77.674495,43.081940,3.0
        -77.674658,43.081895,3.0
        -77.674802,43.081882,3.0
        -77.674837,43.081890,3.0
        -77.674860,43.081892,3.0
        -77.674897,43.081888,3.0
        -77.674980,43.081835,3.0
        -77.675007,43.081778,3.0
        -77.675028,43.081645,3.0
        -77.675065,43.081508,3.0
        -77.675088,43.081453,3.0
        -77.675118,43.081413,3.0
        -77.675138,43.081395,3.0
      </coordinates>
    </LineString>
  </Placemark>
  <Placemark>
    <name>Start</name>
    <description>Start time: 2025-05-06 17:46:30</description>
    <styleUrl>#startStyle</styleUrl>
    <Point>
      <coordinates>-77.676137,43.087347,3</coordinates>
    </Point>
  </Placemark>
  <Placemark>
    <name>End</name>
    <description>End time: 2025-05-06 18:30:26</description>
    <styleUrl>#endStyle</styleUrl>
    <Point>
      <coordinates>-77.675138,43.081395,3</coordinates>
    </Point>
  </Placemark>
  <Placemark>
    <name>Stop 1</name>
    <description>Duration: 2.9m</description>
    <styleUrl>#stopStyle</styleUrl>
    <Point>
      <coordinates>-77.663010,43.091918,3</coordinates>
    </Point>
  </Placemark>
  <Placemark>
    <name>Stop 2</name>
    <description>Duration: 2.1m</description>
    <styleUrl>#stopStyle</styleUrl>
    <Point>
      <coordinates>-77.629003,43.087772,3</coordinates>
    </Point>
  </Placemark>
  <Placemark>
    <name>Stop 3</name>
    <description>Duration: 16.0s</description>
    <styleUrl>#stopStyle</styleUrl>
    <Point>
      <coordinates>-77.629715,43.087957,3</coordinates>
    </Point>
  </Placemark>
  <Placemark>
    <name>Stop 4</name>
    <description>Duration: 1.4m</description>
    <styleUrl>#stopStyle</styleUrl>
    <Point>
      <coordinates>-77.646482,43.090863,3</coordinates>
    </Point>
  </Placemark>
  <Placemark>
    <name>Stop 5</name>
    <description>Duration: 2.7m</description>
    <styleUrl>#stopStyle</styleUrl>
    <Point>
      <coordinates>-77.669233,43.079238,3</coordinates>
    </Point>
  </Placemark>
  <Placemark>
    <name>Stop 6</name>
    <description>Duration: 6.2m</description>
    <styleUrl>#stopStyle</styleUrl>
    <Point>
      <coordinates>-77.673988,43.082332,3</coordinates>
    </Point>
  </Placemark>
  <Placemark>
    <name>Left Turn 1</name>
    <description>Angle: 0.0°</description>
    <styleUrl>#leftTurnStyle</styleUrl>
    <Point>
      <coordinates>-77.666467,43.091287,3</coordinates>
    </Point>
  </Placemark>
  <Placemark>
    <name>Left Turn 2</name>
    <description>Angle: 0.0°</description>
    <styleUrl>#leftTurnStyle</styleUrl>
    <Point>
      <coordinates>-77.663862,43.092027,3</coordinates>
    </Point>
  </Placemark>
  <Placemark>
    <name>Left Turn 3</name>
    <description>Angle: 0.0°</description>
    <styleUrl>#leftTurnStyle</styleUrl>
    <Point>
      <coordinates>-77.662690,43.092670,3</coordinates>
    </Point>
  </Placemark>
  <Placemark>
    <name>Left Turn 4</name>
    <description>Angle: 0.0°</description>
    <styleUrl>#leftTurnStyle</styleUrl>
    <Point>
      <coordinates>-77.629587,43.087368,3</coordinates>
    </Point>
  </Placemark>
  <Placemark>
    <name>Left Turn 5</name>
    <description>Angle: 0.0°</description>
    <styleUrl>#leftTurnStyle</styleUrl>
    <Point>
      <coordinates>-77.629785,43.087375,3</coordinates>
    </Point>
  </Placemark>
  <Placemark>
    <name>Left Turn 6</name>
    <description>Angle: 0.0°</description>
    <styleUrl>#leftTurnStyle</styleUrl>
    <Point>
      <coordinates>-77.656948,43.086647,3</coordinates>
    </Point>
  </Placemark>
  <Placemark>
    <name>Left Turn 7</name>
    <description>Angle: 0.0°</description>
    <styleUrl>#leftTurnStyle</styleUrl>
    <Point>
      <coordinates>-77.674148,43.082523,3</coordinates>
    </Point>
  </Placemark>
</Document>
</kml>