<?xml version="1.0" encoding="UTF-8"?>
<kml xmlns="http://www.opengis.net/kml/2.2">
<Document>
  <name>GPS Track - 2025-05-06 21:14</name>
  <description>GPS track with 1479 points</description>
  <Style id="routeStyle">
    <LineStyle>
      <color>ff00ffff</color>
      <width>4</width>
    </LineStyle>
  </Style>
  <Style id="stopStyle">
    <IconStyle>
      <color>ff0000ff</color>
      <scale>1.3</scale>
      <Icon>
        <href>http://maps.google.com/mapfiles/kml/paddle/red-circle.png</href>
      </Icon>
    </IconStyle>
  </Style>
  <Style id="leftTurnStyle">
    <IconStyle>
      <color>ff00ffff</color>
      <scale>1.1</scale>
      <Icon>
        <href>http://maps.google.com/mapfiles/kml/paddle/ylw-blank.png</href>
      </Icon>
    </IconStyle>
  </Style>
  <Style id="startStyle">
    <IconStyle>
      <color>ff00ff00</color>
      <scale>1.5</scale>
      <Icon>
        <href>http://maps.google.com/mapfiles/kml/paddle/go.png</href>
      </Icon>
    </IconStyle>
  </Style>
  <Style id="endStyle">
    <IconStyle>
      <color>ff0000ff</color>
      <scale>1.5</scale>
      <Icon>
        <href>http://maps.google.com/mapfiles/kml/paddle/stop.png</href>
      </Icon>
    </IconStyle>
  </Style>
  <Placemark>
    <name>Route</name>
    <styleUrl>#routeStyle</styleUrl>
    <LineString>
      <tessellate>1</tessellate>
      <altitudeMode>clampToGround</altitudeMode>
      <coordinates>
        -77.680735,43.085778,3.0
        -77.680818,43.085798,3.0
        -77.680868,43.085807,3.0
        -77.680927,43.085808,3.0
        -77.681053,43.085803,3.0
        -77.681172,43.085795,3.0
        -77.681227,43.085797,3.0
        -77.681318,43.085838,3.0
        -77.681342,43.085875,3.0
        -77.681358,43.085917,3.0
        -77.681367,43.086038,3.0
        -77.681367,43.086197,3.0
        -77.681373,43.086357,3.0
        -77.681387,43.086513,3.0
        -77.681395,43.086672,3.0
        -77.681403,43.086827,3.0
        -77.681422,43.086993,3.0
        -77.681462,43.087160,3.0
        -77.681488,43.087292,3.0
        -77.681488,43.087332,3.0
        -77.681480,43.087380,3.0
        -77.681463,43.087405,3.0
        -77.681432,43.087433,3.0
        -77.681382,43.087457,3.0
        -77.681310,43.087483,3.0
        -77.681115,43.087532,3.0
        -77.680873,43.087578,3.0
        -77.680725,43.087588,3.0
        -77.680588,43.087593,3.0
        -77.680465,43.087593,3.0
        -77.680333,43.087602,3.0
        -77.680198,43.087608,3.0
        -77.680068,43.087613,3.0
        -77.679943,43.087615,3.0
        -77.679710,43.087613,3.0
        -77.679537,43.087612,3.0
        -77.679413,43.087598,3.0
        -77.679350,43.087595,3.0
        -77.679180,43.087598,3.0
        -77.678965,43.087608,3.0
        -77.678838,43.087615,3.0
        -77.678703,43.087622,3.0
        -77.678560,43.087623,3.0
        -77.678410,43.087623,3.0
        -77.678262,43.087623,3.0
        -77.678113,43.087625,3.0
        -77.677973,43.087628,3.0
        -77.677848,43.087628,3.0
        -77.677723,43.087628,3.0
        -77.677482,43.087625,3.0
        -77.677273,43.087627,3.0
        -77.677153,43.087633,3.0
        -77.677118,43.087632,3.0
        -77.676943,43.087642,3.0
        -77.676727,43.087648,3.0
        -77.676497,43.087658,3.0
        -77.676287,43.087665,3.0
        -77.676085,43.087665,3.0
        -77.675875,43.087672,3.0
        -77.675692,43.087672,3.0
        -77.675607,43.087668,3.0
        -77.675407,43.087677,3.0
        -77.675162,43.087683,3.0
        -77.675062,43.087673,3.0
        -77.674968,43.087655,3.0
        -77.674792,43.087603,3.0
        -77.674682,43.087587,3.0
        -77.674578,43.087580,3.0
        -77.674470,43.087593,3.0
        -77.674380,43.087612,3.0
        -77.674288,43.087647,3.0
        -77.674078,43.087673,3.0
        -77.673860,43.087682,3.0
        -77.673627,43.087692,3.0
        -77.673393,43.087702,3.0
        -77.673268,43.087703,3.0
        -77.673137,43.087705,3.0
        -77.672997,43.087710,3.0
        -77.672833,43.087717,3.0
        -77.672663,43.087725,3.0
        -77.672487,43.087735,3.0
        -77.672315,43.087747,3.0
        -77.672158,43.087758,3.0
        -77.671995,43.087772,3.0
        -77.671838,43.087795,3.0
        -77.671675,43.087823,3.0
        -77.671518,43.087855,3.0
        -77.671358,43.087892,3.0
        -77.671200,43.087938,3.0
        -77.671045,43.087987,3.0
        -77.670887,43.088040,3.0
        -77.670727,43.088102,3.0
        -77.670568,43.088165,3.0
        -77.670410,43.088235,3.0
        -77.670252,43.088302,3.0
        -77.670088,43.088372,3.0
        -77.669927,43.088438,3.0
        -77.669762,43.088510,3.0
        -77.669590,43.088578,3.0
        -77.669420,43.088648,3.0
        -77.669255,43.088718,3.0
        -77.669090,43.088785,3.0
        -77.668935,43.088852,3.0
        -77.668780,43.088912,3.0
        -77.668625,43.088958,3.0
        -77.668468,43.088993,3.0
        -77.668312,43.089012,3.0
        -77.668178,43.089023,3.0
        -77.668068,43.089023,3.0
        -77.667968,43.089032,3.0
        -77.667870,43.089030,3.0
        -77.667787,43.089048,3.0
        -77.667713,43.089097,3.0
        -77.667665,43.089165,3.0
        -77.667593,43.089322,3.0
        -77.667512,43.089498,3.0
        -77.667468,43.089588,3.0
        -77.667420,43.089683,3.0
        -77.667370,43.089783,3.0
        -77.667318,43.089883,3.0
        -77.667263,43.089987,3.0
        -77.667212,43.090090,3.0
        -77.667157,43.090195,3.0
        -77.667098,43.090302,3.0
        -77.667040,43.090410,3.0
        -77.666978,43.090523,3.0
        -77.666917,43.090637,3.0
        -77.666857,43.090750,3.0
        -77.666798,43.090863,3.0
        -77.666738,43.090982,3.0
        -77.666677,43.091100,3.0
        -77.666612,43.091218,3.0
        -77.666550,43.091333,3.0
        -77.666487,43.091445,3.0
        -77.666423,43.091552,3.0
        -77.666358,43.091655,3.0
        -77.666293,43.091758,3.0
        -77.666233,43.091862,3.0
        -77.666180,43.091960,3.0
        -77.666130,43.092055,3.0
        -77.666083,43.092147,3.0
        -77.666035,43.092237,3.0
        -77.665987,43.092323,3.0
        -77.665915,43.092458,3.0
        -77.665887,43.092510,3.0
        -77.665883,43.092513,3.0
        -77.665845,43.092535,3.0
        -77.665778,43.092555,3.0
        -77.665550,43.092565,3.0
        -77.665398,43.092575,3.0
        -77.665232,43.092588,3.0
        -77.665055,43.092598,3.0
        -77.664867,43.092608,3.0
        -77.664670,43.092615,3.0
        -77.664467,43.092620,3.0
        -77.664253,43.092627,3.0
        -77.664033,43.092633,3.0
        -77.663807,43.092642,3.0
        -77.663575,43.092648,3.0
        -77.663338,43.092657,3.0
        -77.663102,43.092667,3.0
        -77.662858,43.092675,3.0
        -77.662613,43.092682,3.0
        -77.662367,43.092693,3.0
        -77.662117,43.092705,3.0
        -77.661865,43.092715,3.0
        -77.661612,43.092723,3.0
        -77.661353,43.092735,3.0
        -77.661095,43.092748,3.0
        -77.660832,43.092758,3.0
        -77.660565,43.092770,3.0
        -77.660295,43.092780,3.0
        -77.660022,43.092795,3.0
        -77.659750,43.092810,3.0
        -77.659480,43.092823,3.0
        -77.659213,43.092833,3.0
        -77.658947,43.092845,3.0
        -77.658683,43.092857,3.0
        -77.658423,43.092868,3.0
        -77.658168,43.092880,3.0
        -77.657920,43.092890,3.0
        -77.657672,43.092902,3.0
        -77.657423,43.092910,3.0
        -77.657180,43.092922,3.0
        -77.656938,43.092933,3.0
        -77.656700,43.092947,3.0
        -77.656462,43.092958,3.0
        -77.656227,43.092968,3.0
        -77.655997,43.092977,3.0
        -77.655768,43.092985,3.0
        -77.655548,43.092992,3.0
        -77.655343,43.092997,3.0
        -77.655153,43.092998,3.0
        -77.654978,43.092990,3.0
        -77.654818,43.092973,3.0
        -77.654678,43.092955,3.0
        -77.654443,43.092912,3.0
        -77.654282,43.092863,3.0
        -77.654318,43.092888,3.0
        -77.654320,43.092890,3.0
        -77.654155,43.092897,3.0
        -77.653935,43.092872,3.0
        -77.653725,43.092842,3.0
        -77.653615,43.092840,3.0
        -77.653507,43.092855,3.0
        -77.653415,43.092898,3.0
        -77.653328,43.092950,3.0
        -77.653247,43.093018,3.0
        -77.653155,43.093098,3.0
        -77.653053,43.093180,3.0
        -77.652933,43.093260,3.0
        -77.652798,43.093340,3.0
        -77.652653,43.093413,3.0
        -77.652492,43.093478,3.0
        -77.652320,43.093533,3.0
        -77.652142,43.093582,3.0
        -77.651953,43.093620,3.0
        -77.651755,43.093645,3.0
        -77.651555,43.093660,3.0
        -77.651363,43.093665,3.0
        -77.651177,43.093663,3.0
        -77.650987,43.093650,3.0
        -77.650792,43.093632,3.0
        -77.650585,43.093613,3.0
        -77.650373,43.093592,3.0
        -77.650158,43.093568,3.0
        -77.649935,43.093543,3.0
        -77.649712,43.093520,3.0
        -77.649487,43.093495,3.0
        -77.649262,43.093472,3.0
        -77.649030,43.093452,3.0
        -77.648793,43.093433,3.0
        -77.648553,43.093418,3.0
        -77.648312,43.093410,3.0
        -77.648068,43.093403,3.0
        -77.647822,43.093400,3.0
        -77.647575,43.093398,3.0
        -77.647327,43.093398,3.0
        -77.647082,43.093405,3.0
        -77.646843,43.093415,3.0
        -77.646603,43.093423,3.0
        -77.646365,43.093433,3.0
        -77.646125,43.093440,3.0
        -77.645887,43.093447,3.0
        -77.645650,43.093453,3.0
        -77.645417,43.093460,3.0
        -77.645192,43.093472,3.0
        -77.644968,43.093482,3.0
        -77.644747,43.093488,3.0
        -77.644530,43.093495,3.0
        -77.644313,43.093502,3.0
        -77.644097,43.093508,3.0
        -77.643880,43.093517,3.0
        -77.643665,43.093523,3.0
        -77.643455,43.093530,3.0
        -77.643245,43.093537,3.0
        -77.643040,43.093545,3.0
        -77.642837,43.093553,3.0
        -77.642637,43.093562,3.0
        -77.642437,43.093570,3.0
        -77.642235,43.093580,3.0
        -77.642028,43.093593,3.0
        -77.641815,43.093608,3.0
        -77.641600,43.093623,3.0
        -77.641378,43.093635,3.0
        -77.641158,43.093643,3.0
        -77.640937,43.093653,3.0
        -77.640713,43.093660,3.0
        -77.640490,43.093668,3.0
        -77.640263,43.093677,3.0
        -77.640040,43.093687,3.0
        -77.639818,43.093695,3.0
        -77.639597,43.093703,3.0
        -77.639377,43.093712,3.0
        -77.639162,43.093717,3.0
        -77.638950,43.093725,3.0
        -77.638738,43.093733,3.0
        -77.638525,43.093747,3.0
        -77.638317,43.093758,3.0
        -77.638112,43.093767,3.0
        -77.637910,43.093777,3.0
        -77.637713,43.093783,3.0
        -77.637525,43.093790,3.0
        -77.637340,43.093795,3.0
        -77.637162,43.093802,3.0
        -77.636985,43.093807,3.0
        -77.636812,43.093813,3.0
        -77.636642,43.093822,3.0
        -77.636477,43.093828,3.0
        -77.636317,43.093837,3.0
        -77.636160,43.093843,3.0
        -77.636005,43.093850,3.0
        -77.635850,43.093855,3.0
        -77.635688,43.093863,3.0
        -77.635527,43.093868,3.0
        -77.635365,43.093877,3.0
        -77.635207,43.093883,3.0
        -77.635055,43.093890,3.0
        -77.634922,43.093895,3.0
        -77.634722,43.093897,3.0
        -77.634630,43.093908,3.0
        -77.634438,43.093913,3.0
        -77.634208,43.093922,3.0
        -77.634082,43.093923,3.0
        -77.633950,43.093928,3.0
        -77.633813,43.093933,3.0
        -77.633672,43.093940,3.0
        -77.633527,43.093940,3.0
        -77.633380,43.093942,3.0
        -77.633237,43.093945,3.0
        -77.633100,43.093945,3.0
        -77.632970,43.093948,3.0
        -77.632845,43.093955,3.0
        -77.632720,43.093963,3.0
        -77.632588,43.093972,3.0
        -77.632443,43.093978,3.0
        -77.632290,43.093987,3.0
        -77.632128,43.093998,3.0
        -77.631967,43.094010,3.0
        -77.631808,43.094023,3.0
        -77.631652,43.094035,3.0
        -77.631493,43.094043,3.0
        -77.631332,43.094053,3.0
        -77.631163,43.094062,3.0
        -77.630990,43.094072,3.0
        -77.630817,43.094078,3.0
        -77.630638,43.094087,3.0
        -77.630453,43.094095,3.0
        -77.630263,43.094102,3.0
        -77.630070,43.094110,3.0
        -77.629873,43.094118,3.0
        -77.629672,43.094128,3.0
        -77.629467,43.094138,3.0
        -77.629257,43.094148,3.0
        -77.629042,43.094157,3.0
        -77.628827,43.094165,3.0
        -77.628608,43.094177,3.0
        -77.628388,43.094185,3.0
        -77.628167,43.094195,3.0
        -77.627945,43.094205,3.0
        -77.627722,43.094215,3.0
        -77.627500,43.094227,3.0
        -77.627277,43.094237,3.0
        -77.627058,43.094243,3.0
        -77.626845,43.094248,3.0
        -77.626632,43.094255,3.0
        -77.626423,43.094260,3.0
        -77.626217,43.094265,3.0
        -77.626012,43.094270,3.0
        -77.625805,43.094277,3.0
        -77.625597,43.094285,3.0
        -77.625385,43.094293,3.0
        -77.625172,43.094302,3.0
        -77.624958,43.094310,3.0
        -77.624740,43.094320,3.0
        -77.624515,43.094330,3.0
        -77.624285,43.094338,3.0
        -77.624052,43.094348,3.0
        -77.623815,43.094357,3.0
        -77.623573,43.094368,3.0
        -77.623333,43.094378,3.0
        -77.623095,43.094387,3.0
        -77.622858,43.094395,3.0
        -77.622623,43.094403,3.0
        -77.622387,43.094413,3.0
        -77.622150,43.094423,3.0
        -77.621918,43.094433,3.0
        -77.621688,43.094443,3.0
        -77.621460,43.094453,3.0
        -77.621233,43.094463,3.0
        -77.621002,43.094472,3.0
        -77.620767,43.094482,3.0
        -77.620528,43.094492,3.0
        -77.620290,43.094502,3.0
        -77.620048,43.094508,3.0
        -77.619813,43.094517,3.0
        -77.619585,43.094523,3.0
        -77.619363,43.094532,3.0
        -77.619142,43.094540,3.0
        -77.618923,43.094547,3.0
        -77.618707,43.094553,3.0
        -77.618493,43.094562,3.0
        -77.618278,43.094568,3.0
        -77.618065,43.094577,3.0
        -77.617852,43.094585,3.0
        -77.617642,43.094592,3.0
        -77.617433,43.094600,3.0
        -77.617228,43.094608,3.0
        -77.617030,43.094615,3.0
        -77.616840,43.094620,3.0
        -77.616655,43.094627,3.0
        -77.616473,43.094633,3.0
        -77.616295,43.094642,3.0
        -77.616118,43.094648,3.0
        -77.615945,43.094653,3.0
        -77.615773,43.094653,3.0
        -77.615607,43.094653,3.0
        -77.615443,43.094652,3.0
        -77.615283,43.094653,3.0
        -77.615128,43.094657,3.0
        -77.614977,43.094662,3.0
        -77.614827,43.094667,3.0
        -77.614682,43.094672,3.0
        -77.614542,43.094677,3.0
        -77.614410,43.094680,3.0
        -77.614208,43.094690,3.0
        -77.614092,43.094698,3.0
        -77.614062,43.094697,3.0
        -77.614032,43.094695,3.0
        -77.613862,43.094712,3.0
        -77.613663,43.094725,3.0
        -77.613428,43.094742,3.0
        -77.613292,43.094748,3.0
        -77.613142,43.094757,3.0
        -77.612980,43.094763,3.0
        -77.612810,43.094773,3.0
        -77.612633,43.094782,3.0
        -77.612450,43.094788,3.0
        -77.612260,43.094795,3.0
        -77.612063,43.094802,3.0
        -77.611858,43.094807,3.0
        -77.611647,43.094812,3.0
        -77.611437,43.094818,3.0
        -77.611225,43.094825,3.0
        -77.611015,43.094833,3.0
        -77.610802,43.094840,3.0
        -77.610585,43.094848,3.0
        -77.610367,43.094860,3.0
        -77.610150,43.094872,3.0
        -77.609933,43.094880,3.0
        -77.609715,43.094885,3.0
        -77.609497,43.094893,3.0
        -77.609275,43.094900,3.0
        -77.609055,43.094910,3.0
        -77.608832,43.094918,3.0
        -77.608613,43.094927,3.0
        -77.608393,43.094932,3.0
        -77.608173,43.094938,3.0
        -77.607958,43.094943,3.0
        -77.607745,43.094952,3.0
        -77.607530,43.094962,3.0
        -77.607312,43.094970,3.0
        -77.607093,43.094978,3.0
        -77.606878,43.094988,3.0
        -77.606665,43.094997,3.0
        -77.606452,43.095005,3.0
        -77.606242,43.095013,3.0
        -77.606032,43.095022,3.0
        -77.605830,43.095030,3.0
        -77.605628,43.095037,3.0
        -77.605430,43.095043,3.0
        -77.605235,43.095048,3.0
        -77.605043,43.095053,3.0
        -77.604855,43.095060,3.0
        -77.604668,43.095067,3.0
        -77.604487,43.095072,3.0
        -77.604317,43.095073,3.0
        -77.604170,43.095075,3.0
        -77.603963,43.095077,3.0
        -77.603863,43.095083,3.0
        -77.603793,43.095078,3.0
        -77.603712,43.095092,3.0
        -77.603480,43.095107,3.0
        -77.603338,43.095112,3.0
        -77.603183,43.095120,3.0
        -77.603015,43.095128,3.0
        -77.602842,43.095133,3.0
        -77.602660,43.095137,3.0
        -77.602473,43.095140,3.0
        -77.602288,43.095147,3.0
        -77.602100,43.095155,3.0
        -77.601905,43.095167,3.0
        -77.601703,43.095175,3.0
        -77.601492,43.095188,3.0
        -77.601273,43.095203,3.0
        -77.601050,43.095220,3.0
        -77.600827,43.095235,3.0
        -77.600600,43.095245,3.0
        -77.600370,43.095252,3.0
        -77.600138,43.095258,3.0
        -77.599907,43.095265,3.0
        -77.599672,43.095272,3.0
        -77.599438,43.095273,3.0
        -77.599210,43.095280,3.0
        -77.598982,43.095283,3.0
        -77.598755,43.095287,3.0
        -77.598525,43.095292,3.0
        -77.598293,43.095295,3.0
        -77.598063,43.095300,3.0
        -77.597833,43.095308,3.0
        -77.597600,43.095318,3.0
        -77.597365,43.095328,3.0
        -77.597130,43.095342,3.0
        -77.596897,43.095353,3.0
        -77.596665,43.095365,3.0
        -77.596438,43.095377,3.0
        -77.596213,43.095387,3.0
        -77.595990,43.095398,3.0
        -77.595763,43.095410,3.0
        -77.595540,43.095418,3.0
        -77.595318,43.095427,3.0
        -77.595098,43.095433,3.0
        -77.594880,43.095437,3.0
        -77.594663,43.095442,3.0
        -77.594443,43.095448,3.0
        -77.594217,43.095460,3.0
        -77.593983,43.095468,3.0
        -77.593747,43.095477,3.0
        -77.593505,43.095487,3.0
        -77.593260,43.095493,3.0
        -77.593017,43.095500,3.0
        -77.592773,43.095507,3.0
        -77.592530,43.095515,3.0
        -77.592287,43.095522,3.0
        -77.592048,43.095532,3.0
        -77.591815,43.095540,3.0
        -77.591588,43.095550,3.0
        -77.591363,43.095560,3.0
        -77.591135,43.095572,3.0
        -77.590903,43.095580,3.0
        -77.590670,43.095588,3.0
        -77.590438,43.095593,3.0
        -77.590208,43.095597,3.0
        -77.589978,43.095603,3.0
        -77.589743,43.095607,3.0
        -77.589505,43.095612,3.0
        -77.589270,43.095618,3.0
        -77.589038,43.095627,3.0
        -77.588810,43.095638,3.0
        -77.588587,43.095650,3.0
        -77.588362,43.095662,3.0
        -77.588138,43.095673,3.0
        -77.587918,43.095685,3.0
        -77.587703,43.095690,3.0
        -77.587493,43.095697,3.0
        -77.587288,43.095703,3.0
        -77.587092,43.095712,3.0
        -77.586907,43.095720,3.0
        -77.586752,43.095723,3.0
        -77.586627,43.095725,3.0
        -77.586525,43.095720,3.0
        -77.586393,43.095722,3.0
        -77.586353,43.095720,3.0
        -77.586308,43.095712,3.0
        -77.586137,43.095725,3.0
        -77.585920,43.095743,3.0
        -77.585787,43.095753,3.0
        -77.585642,43.095767,3.0
        -77.585490,43.095780,3.0
        -77.585328,43.095787,3.0
        -77.585160,43.095790,3.0
        -77.584983,43.095792,3.0
        -77.584803,43.095797,3.0
        -77.584623,43.095798,3.0
        -77.584443,43.095803,3.0
        -77.584263,43.095808,3.0
        -77.584088,43.095812,3.0
        -77.583918,43.095815,3.0
        -77.583753,43.095817,3.0
        -77.583592,43.095820,3.0
        -77.583433,43.095827,3.0
        -77.583278,43.095830,3.0
        -77.583127,43.095835,3.0
        -77.582975,43.095842,3.0
        -77.582830,43.095848,3.0
        -77.582687,43.095853,3.0
        -77.582550,43.095857,3.0
        -77.582323,43.095858,3.0
        -77.582193,43.095845,3.0
        -77.582077,43.095842,3.0
        -77.581997,43.095863,3.0
        -77.581918,43.095895,3.0
        -77.581843,43.095948,3.0
        -77.581785,43.096027,3.0
        -77.581743,43.096128,3.0
        -77.581707,43.096245,3.0
        -77.581668,43.096377,3.0
        -77.581618,43.096518,3.0
        -77.581557,43.096672,3.0
        -77.581487,43.096832,3.0
        -77.581412,43.096998,3.0
        -77.581330,43.097170,3.0
        -77.581238,43.097347,3.0
        -77.581143,43.097527,3.0
        -77.581048,43.097710,3.0
        -77.580952,43.097895,3.0
        -77.580853,43.098083,3.0
        -77.580755,43.098268,3.0
        -77.580660,43.098445,3.0
        -77.580570,43.098617,3.0
        -77.580480,43.098787,3.0
        -77.580390,43.098958,3.0
        -77.580300,43.099130,3.0
        -77.580210,43.099305,3.0
        -77.580123,43.099478,3.0
        -77.580038,43.099648,3.0
        -77.579950,43.099818,3.0
        -77.579860,43.099990,3.0
        -77.579768,43.100168,3.0
        -77.579675,43.100353,3.0
        -77.579582,43.100542,3.0
        -77.579487,43.100732,3.0
        -77.579392,43.100923,3.0
        -77.579295,43.101112,3.0
        -77.579197,43.101300,3.0
        -77.579098,43.101490,3.0
        -77.579002,43.101680,3.0
        -77.578905,43.101872,3.0
        -77.578807,43.102060,3.0
        -77.578705,43.102248,3.0
        -77.578603,43.102437,3.0
        -77.578505,43.102625,3.0
        -77.578408,43.102810,3.0
        -77.578310,43.102995,3.0
        -77.578212,43.103178,3.0
        -77.578113,43.103357,3.0
        -77.578017,43.103533,3.0
        -77.577923,43.103710,3.0
        -77.577832,43.103885,3.0
        -77.577742,43.104055,3.0
        -77.577648,43.104218,3.0
        -77.577548,43.104377,3.0
        -77.577448,43.104530,3.0
        -77.577350,43.104683,3.0
        -77.577263,43.104835,3.0
        -77.577185,43.104983,3.0
        -77.577110,43.105127,3.0
        -77.577038,43.105262,3.0
        -77.576968,43.105385,3.0
        -77.576907,43.105492,3.0
        -77.576852,43.105578,3.0
        -77.576788,43.105682,3.0
        -77.576743,43.105757,3.0
        -77.576733,43.105767,3.0
        -77.576725,43.105783,3.0
        -77.576718,43.105828,3.0
        -77.576655,43.105967,3.0
        -77.576607,43.106057,3.0
        -77.576552,43.106155,3.0
        -77.576492,43.106260,3.0
        -77.576430,43.106367,3.0
        -77.576367,43.106478,3.0
        -77.576308,43.106588,3.0
        -77.576252,43.106697,3.0
        -77.576195,43.106803,3.0
        -77.576132,43.106910,3.0
        -77.576057,43.107010,3.0
        -77.575970,43.107095,3.0
        -77.575860,43.107168,3.0
        -77.575738,43.107228,3.0
        -77.575590,43.107263,3.0
        -77.575422,43.107287,3.0
        -77.575240,43.107302,3.0
        -77.575043,43.107315,3.0
        -77.574837,43.107328,3.0
        -77.574615,43.107348,3.0
        -77.574387,43.107373,3.0
        -77.574150,43.107403,3.0
        -77.573908,43.107440,3.0
        -77.573655,43.107482,3.0
        -77.573397,43.107525,3.0
        -77.573137,43.107563,3.0
        -77.572867,43.107595,3.0
        -77.572587,43.107622,3.0
        -77.572300,43.107643,3.0
        -77.572005,43.107663,3.0
        -77.571702,43.107685,3.0
        -77.571397,43.107710,3.0
        -77.571090,43.107735,3.0
        -77.570785,43.107758,3.0
        -77.570483,43.107780,3.0
        -77.570182,43.107800,3.0
        -77.569880,43.107820,3.0
        -77.569577,43.107840,3.0
        -77.569273,43.107862,3.0
        -77.568968,43.107883,3.0
        -77.568658,43.107905,3.0
        -77.568347,43.107927,3.0
        -77.568030,43.107945,3.0
        -77.567715,43.107965,3.0
        -77.567400,43.107988,3.0
        -77.567083,43.108010,3.0
        -77.566767,43.108030,3.0
        -77.566453,43.108052,3.0
        -77.566142,43.108073,3.0
        -77.565833,43.108097,3.0
        -77.565527,43.108118,3.0
        -77.565220,43.108142,3.0
        -77.564915,43.108160,3.0
        -77.564610,43.108182,3.0
        -77.564307,43.108205,3.0
        -77.564003,43.108228,3.0
        -77.563703,43.108248,3.0
        -77.563402,43.108268,3.0
        -77.563102,43.108290,3.0
        -77.562798,43.108313,3.0
        -77.562495,43.108333,3.0
        -77.562193,43.108353,3.0
        -77.561892,43.108373,3.0
        -77.561595,43.108395,3.0
        -77.561295,43.108417,3.0
        -77.560993,43.108437,3.0
        -77.560688,43.108457,3.0
        -77.560388,43.108475,3.0
        -77.560092,43.108495,3.0
        -77.559797,43.108515,3.0
        -77.559505,43.108537,3.0
        -77.559220,43.108557,3.0
        -77.558940,43.108577,3.0
        -77.558662,43.108598,3.0
        -77.558387,43.108623,3.0
        -77.558113,43.108652,3.0
        -77.557838,43.108687,3.0
        -77.557567,43.108728,3.0
        -77.557302,43.108777,3.0
        -77.557042,43.108832,3.0
        -77.556785,43.108895,3.0
        -77.556538,43.108963,3.0
        -77.556302,43.109037,3.0
        -77.556068,43.109113,3.0
        -77.555842,43.109195,3.0
        -77.555625,43.109285,3.0
        -77.555415,43.109375,3.0
        -77.555212,43.109468,3.0
        -77.555015,43.109562,3.0
        -77.554828,43.109657,3.0
        -77.554647,43.109755,3.0
        -77.554478,43.109855,3.0
        -77.554323,43.109962,3.0
        -77.554173,43.110070,3.0
        -77.554033,43.110182,3.0
        -77.553893,43.110293,3.0
        -77.553760,43.110408,3.0
        -77.553627,43.110525,3.0
        -77.553497,43.110642,3.0
        -77.553367,43.110762,3.0
        -77.553235,43.110883,3.0
        -77.553108,43.111008,3.0
        -77.552982,43.111140,3.0
        -77.552860,43.111275,3.0
        -77.552745,43.111413,3.0
        -77.552635,43.111552,3.0
        -77.552532,43.111693,3.0
        -77.552430,43.111837,3.0
        -77.552340,43.111980,3.0
        -77.552260,43.112123,3.0
        -77.552188,43.112265,3.0
        -77.552122,43.112407,3.0
        -77.552060,43.112547,3.0
        -77.552003,43.112685,3.0
        -77.551953,43.112822,3.0
        -77.551907,43.112948,3.0
        -77.551865,43.113068,3.0
        -77.551827,43.113173,3.0
        -77.551792,43.113267,3.0
        -77.551738,43.113403,3.0
        -77.551698,43.113497,3.0
        -77.551690,43.113520,3.0
        -77.551665,43.113610,3.0
        -77.551620,43.113730,3.0
        -77.551583,43.113800,3.0
        -77.551528,43.113877,3.0
        -77.551395,43.114012,3.0
        -77.551348,43.114088,3.0
        -77.551328,43.114167,3.0
        -77.551345,43.114238,3.0
        -77.551400,43.114303,3.0
        -77.551562,43.114453,3.0
        -77.551655,43.114540,3.0
        -77.551750,43.114632,3.0
        -77.551843,43.114722,3.0
        -77.551938,43.114815,3.0
        -77.552028,43.114910,3.0
        -77.552120,43.115003,3.0
        -77.552227,43.115110,3.0
        -77.552338,43.115228,3.0
        -77.552453,43.115343,3.0
        -77.552567,43.115457,3.0
        -77.552680,43.115563,3.0
        -77.552787,43.115668,3.0
        -77.552892,43.115770,3.0
        -77.552995,43.115872,3.0
        -77.553095,43.115970,3.0
        -77.553192,43.116065,3.0
        -77.553287,43.116153,3.0
        -77.553370,43.116237,3.0
        -77.553442,43.116312,3.0
        -77.553498,43.116380,3.0
        -77.553535,43.116453,3.0
        -77.553540,43.116502,3.0
        -77.553473,43.116565,3.0
        -77.553408,43.116575,3.0
        -77.553202,43.116577,3.0
        -77.553058,43.116578,3.0
        -77.552898,43.116580,3.0
        -77.552723,43.116587,3.0
        -77.552533,43.116597,3.0
        -77.552328,43.116600,3.0
        -77.552123,43.116607,3.0
        -77.551918,43.116618,3.0
        -77.551722,43.116628,3.0
        -77.551518,43.116638,3.0
        -77.551297,43.116640,3.0
        -77.551073,43.116642,3.0
        -77.550850,43.116643,3.0
        -77.550633,43.116645,3.0
        -77.550423,43.116648,3.0
        -77.550218,43.116655,3.0
        -77.550017,43.116662,3.0
        -77.549832,43.116665,3.0
        -77.549665,43.116667,3.0
        -77.549525,43.116665,3.0
        -77.549430,43.116663,3.0
        -77.549322,43.116652,3.0
        -77.549273,43.116647,3.0
        -77.549207,43.116657,3.0
        -77.549037,43.116655,3.0
        -77.548837,43.116657,3.0
        -77.548618,43.116668,3.0
        -77.548392,43.116680,3.0
        -77.548158,43.116690,3.0
        -77.548027,43.116698,3.0
        -77.547887,43.116708,3.0
        -77.547740,43.116717,3.0
        -77.547585,43.116723,3.0
        -77.547425,43.116728,3.0
        -77.547262,43.116735,3.0
        -77.547088,43.116743,3.0
        -77.546905,43.116752,3.0
        -77.546722,43.116760,3.0
        -77.546538,43.116767,3.0
        -77.546358,43.116775,3.0
        -77.546177,43.116785,3.0
        -77.545993,43.116797,3.0
        -77.545808,43.116807,3.0
        -77.545620,43.116815,3.0
        -77.545427,43.116822,3.0
        -77.545232,43.116827,3.0
        -77.545038,43.116832,3.0
        -77.544837,43.116833,3.0
        -77.544648,43.116838,3.0
        -77.544463,43.116843,3.0
        -77.544280,43.116847,3.0
        -77.544100,43.116853,3.0
        -77.543920,43.116857,3.0
        -77.543742,43.116860,3.0
        -77.543560,43.116863,3.0
        -77.543375,43.116870,3.0
        -77.543187,43.116878,3.0
        -77.542995,43.116892,3.0
        -77.542808,43.116913,3.0
        -77.542630,43.116948,3.0
        -77.542460,43.117002,3.0
        -77.542300,43.117068,3.0
        -77.542147,43.117145,3.0
        -77.541997,43.117225,3.0
        -77.541850,43.117308,3.0
        -77.541700,43.117393,3.0
        -77.541545,43.117477,3.0
        -77.541387,43.117563,3.0
        -77.541223,43.117652,3.0
        -77.541055,43.117747,3.0
        -77.540883,43.117843,3.0
        -77.540713,43.117938,3.0
        -77.540535,43.118035,3.0
        -77.540355,43.118133,3.0
        -77.540172,43.118237,3.0
        -77.539990,43.118342,3.0
        -77.539810,43.118450,3.0
        -77.539630,43.118568,3.0
        -77.539457,43.118680,3.0
        -77.539282,43.118788,3.0
        -77.539107,43.118897,3.0
        -77.538933,43.119007,3.0
        -77.538765,43.119117,3.0
        -77.538597,43.119228,3.0
        -77.538425,43.119338,3.0
        -77.538253,43.119452,3.0
        -77.538078,43.119565,3.0
        -77.537900,43.119682,3.0
        -77.537723,43.119793,3.0
        -77.537545,43.119902,3.0
        -77.537367,43.120013,3.0
        -77.537197,43.120118,3.0
        -77.537028,43.120225,3.0
        -77.536863,43.120328,3.0
        -77.536700,43.120430,3.0
        -77.536540,43.120525,3.0
        -77.536383,43.120622,3.0
        -77.536230,43.120715,3.0
        -77.536077,43.120812,3.0
        -77.535918,43.120905,3.0
        -77.535762,43.120993,3.0
        -77.535607,43.121078,3.0
        -77.535455,43.121165,3.0
        -77.535305,43.121248,3.0
        -77.535152,43.121333,3.0
        -77.534998,43.121417,3.0
        -77.534855,43.121498,3.0
        -77.534717,43.121578,3.0
        -77.534573,43.121658,3.0
        -77.534430,43.121733,3.0
        -77.534287,43.121805,3.0
        -77.534140,43.121873,3.0
        -77.533988,43.121947,3.0
        -77.533832,43.122023,3.0
        -77.533675,43.122103,3.0
        -77.533520,43.122177,3.0
        -77.533365,43.122250,3.0
        -77.533210,43.122322,3.0
        -77.533057,43.122392,3.0
        -77.532898,43.122468,3.0
        -77.532742,43.122545,3.0
        -77.532585,43.122620,3.0
        -77.532432,43.122697,3.0
        -77.532278,43.122770,3.0
        -77.532125,43.122848,3.0
        -77.531972,43.122927,3.0
        -77.531818,43.123003,3.0
        -77.531667,43.123080,3.0
        -77.531512,43.123158,3.0
        -77.531360,43.123232,3.0
        -77.531213,43.123307,3.0
        -77.531072,43.123380,3.0
        -77.530935,43.123452,3.0
        -77.530807,43.123537,3.0
        -77.530673,43.123633,3.0
        -77.530548,43.123743,3.0
        -77.530427,43.123877,3.0
        -77.530320,43.124020,3.0
        -77.530230,43.124177,3.0
        -77.530155,43.124333,3.0
        -77.530082,43.124497,3.0
        -77.530008,43.124660,3.0
        -77.529932,43.124823,3.0
        -77.529863,43.124983,3.0
        -77.529795,43.125140,3.0
        -77.529728,43.125293,3.0
        -77.529665,43.125443,3.0
        -77.529598,43.125590,3.0
        -77.529535,43.125732,3.0
        -77.529470,43.125867,3.0
        -77.529407,43.126000,3.0
        -77.529345,43.126128,3.0
        -77.529278,43.126255,3.0
        -77.529212,43.126380,3.0
        -77.529135,43.126497,3.0
        -77.529045,43.126603,3.0
        -77.528947,43.126695,3.0
        -77.528842,43.126777,3.0
        -77.528732,43.126853,3.0
        -77.528632,43.126922,3.0
        -77.528467,43.127030,3.0
        -77.528337,43.127108,3.0
        -77.528295,43.127135,3.0
        -77.528262,43.127152,3.0
        -77.528235,43.127168,3.0
        -77.528215,43.127178,3.0
        -77.528160,43.127235,3.0
        -77.528142,43.127293,3.0
        -77.528135,43.127358,3.0
        -77.528148,43.127437,3.0
        -77.528185,43.127523,3.0
        -77.528230,43.127608,3.0
        -77.528282,43.127695,3.0
        -77.528337,43.127783,3.0
        -77.528398,43.127872,3.0
        -77.528463,43.127960,3.0
        -77.528528,43.128043,3.0
        -77.528593,43.128125,3.0
        -77.528713,43.128277,3.0
        -77.528748,43.128345,3.0
        -77.528765,43.128390,3.0
        -77.528740,43.128435,3.0
        -77.528702,43.128483,3.0
        -77.528638,43.128527,3.0
        -77.528472,43.128613,3.0
        -77.528358,43.128663,3.0
        -77.528235,43.128708,3.0
        -77.528103,43.128753,3.0
        -77.527957,43.128800,3.0
        -77.527805,43.128847,3.0
        -77.527637,43.128897,3.0
        -77.527453,43.128952,3.0
        -77.527262,43.129003,3.0
        -77.527070,43.129052,3.0
        -77.526872,43.129082,3.0
        -77.526665,43.129113,3.0
        -77.526452,43.129140,3.0
        -77.526233,43.129157,3.0
        -77.526012,43.129163,3.0
        -77.525782,43.129163,3.0
        -77.525545,43.129160,3.0
        -77.525305,43.129153,3.0
        -77.525063,43.129145,3.0
        -77.524820,43.129133,3.0
        -77.524568,43.129112,3.0
        -77.524317,43.129085,3.0
        -77.524065,43.129052,3.0
        -77.523813,43.129012,3.0
        -77.523567,43.128962,3.0
        -77.523320,43.128905,3.0
        -77.523077,43.128842,3.0
        -77.522842,43.128772,3.0
        -77.522622,43.128687,3.0
        -77.522415,43.128590,3.0
        -77.522225,43.128485,3.0
        -77.522052,43.128372,3.0
        -77.521892,43.128248,3.0
        -77.521752,43.128120,3.0
        -77.521630,43.127993,3.0
        -77.521515,43.127860,3.0
        -77.521408,43.127725,3.0
        -77.521300,43.127587,3.0
        -77.521187,43.127445,3.0
        -77.521070,43.127303,3.0
        -77.520947,43.127157,3.0
        -77.520812,43.127012,3.0
        -77.520673,43.126867,3.0
        -77.520530,43.126717,3.0
        -77.520393,43.126562,3.0
        -77.520258,43.126403,3.0
        -77.520127,43.126247,3.0
        -77.519995,43.126088,3.0
        -77.519862,43.125927,3.0
        -77.519723,43.125767,3.0
        -77.519580,43.125612,3.0
        -77.519427,43.125458,3.0
        -77.519263,43.125305,3.0
        -77.519093,43.125153,3.0
        -77.518917,43.125005,3.0
        -77.518727,43.124867,3.0
        -77.518533,43.124730,3.0
        -77.518335,43.124595,3.0
        -77.518130,43.124468,3.0
        -77.517912,43.124348,3.0
        -77.517690,43.124230,3.0
        -77.517468,43.124115,3.0
        -77.517240,43.124005,3.0
        -77.517002,43.123903,3.0
        -77.516757,43.123812,3.0
        -77.516505,43.123723,3.0
        -77.516248,43.123642,3.0
        -77.515983,43.123567,3.0
        -77.515717,43.123500,3.0
        -77.515440,43.123440,3.0
        -77.515158,43.123388,3.0
        -77.514877,43.123345,3.0
        -77.514587,43.123313,3.0
        -77.514295,43.123288,3.0
        -77.514003,43.123273,3.0
        -77.513715,43.123263,3.0
        -77.513428,43.123258,3.0
        -77.513143,43.123257,3.0
        -77.512858,43.123257,3.0
        -77.512577,43.123255,3.0
        -77.512293,43.123252,3.0
        -77.512012,43.123248,3.0
        -77.511727,43.123248,3.0
        -77.511440,43.123248,3.0
        -77.511150,43.123248,3.0
        -77.510857,43.123248,3.0
        -77.510562,43.123248,3.0
        -77.510265,43.123245,3.0
        -77.509972,43.123243,3.0
        -77.509678,43.123243,3.0
        -77.509383,43.123243,3.0
        -77.509088,43.123242,3.0
        -77.508790,43.123238,3.0
        -77.508495,43.123235,3.0
        -77.508203,43.123232,3.0
        -77.507917,43.123228,3.0
        -77.507632,43.123228,3.0
        -77.507350,43.123230,3.0
        -77.507073,43.123235,3.0
        -77.506797,43.123238,3.0
        -77.506525,43.123248,3.0
        -77.506260,43.123265,3.0
        -77.505998,43.123287,3.0
        -77.505737,43.123317,3.0
        -77.505478,43.123352,3.0
        -77.505218,43.123392,3.0
        -77.504962,43.123435,3.0
        -77.504703,43.123487,3.0
        -77.504443,43.123543,3.0
        -77.504183,43.123608,3.0
        -77.503917,43.123683,3.0
        -77.503650,43.123765,3.0
        -77.503385,43.123857,3.0
        -77.503122,43.123950,3.0
        -77.502870,43.124055,3.0
        -77.502625,43.124168,3.0
        -77.502378,43.124287,3.0
        -77.502137,43.124407,3.0
        -77.501902,43.124533,3.0
        -77.501675,43.124668,3.0
        -77.501453,43.124808,3.0
        -77.501237,43.124957,3.0
        -77.501023,43.125107,3.0
        -77.500812,43.125263,3.0
        -77.500600,43.125420,3.0
        -77.500387,43.125577,3.0
        -77.500170,43.125733,3.0
        -77.499955,43.125890,3.0
        -77.499735,43.126045,3.0
        -77.499512,43.126200,3.0
        -77.499282,43.126355,3.0
        -77.499047,43.126502,3.0
        -77.498802,43.126633,3.0
        -77.498545,43.126745,3.0
        -77.498288,43.126845,3.0
        -77.498033,43.126937,3.0
        -77.497772,43.127018,3.0
        -77.497505,43.127083,3.0
        -77.497238,43.127135,3.0
        -77.496968,43.127175,3.0
        -77.496708,43.127202,3.0
        -77.496458,43.127210,3.0
        -77.496223,43.127200,3.0
        -77.495993,43.127175,3.0
        -77.495767,43.127147,3.0
        -77.495550,43.127123,3.0
        -77.495342,43.127108,3.0
        -77.495137,43.127098,3.0
        -77.494932,43.127100,3.0
        -77.494730,43.127108,3.0
        -77.494543,43.127125,3.0
        -77.494380,43.127155,3.0
        -77.494245,43.127182,3.0
        -77.494142,43.127222,3.0
        -77.494097,43.127268,3.0
        -77.494092,43.127332,3.0
        -77.494120,43.127398,3.0
        -77.494187,43.127505,3.0
        -77.494258,43.127620,3.0
        -77.494300,43.127672,3.0
        -77.494355,43.127707,3.0
        -77.494423,43.127728,3.0
        -77.494463,43.127782,3.0
        -77.494460,43.127807,3.0
        -77.494463,43.127822,3.0
        -77.494478,43.127850,3.0
        -77.494558,43.127947,3.0
        -77.494600,43.128007,3.0
        -77.494702,43.128128,3.0
        -77.494800,43.128283,3.0
        -77.494837,43.128367,3.0
        -77.494868,43.128470,3.0
        -77.494910,43.128587,3.0
        -77.494955,43.128703,3.0
        -77.494990,43.128822,3.0
        -77.495015,43.128947,3.0
        -77.495030,43.129082,3.0
        -77.495040,43.129218,3.0
        -77.495043,43.129360,3.0
        -77.495028,43.129513,3.0
        -77.495000,43.129660,3.0
        -77.494950,43.129805,3.0
        -77.494882,43.129952,3.0
        -77.494797,43.130095,3.0
        -77.494700,43.130233,3.0
        -77.494595,43.130362,3.0
        -77.494488,43.130483,3.0
        -77.494388,43.130602,3.0
        -77.494297,43.130708,3.0
        -77.494210,43.130810,3.0
        -77.494123,43.130907,3.0
        -77.494043,43.130998,3.0
        -77.493973,43.131078,3.0
        -77.493873,43.131205,3.0
        -77.493783,43.131307,3.0
        -77.493713,43.131387,3.0
        -77.493640,43.131467,3.0
        -77.493618,43.131488,3.0
        -77.493595,43.131520,3.0
        -77.493568,43.131548,3.0
        -77.493562,43.131562,3.0
        -77.493512,43.131637,3.0
        -77.493425,43.131738,3.0
        -77.493323,43.131863,3.0
        -77.493208,43.132007,3.0
        -77.493083,43.132155,3.0
        -77.493017,43.132235,3.0
        -77.492952,43.132313,3.0
        -77.492825,43.132457,3.0
        -77.492712,43.132585,3.0
        -77.492628,43.132670,3.0
        -77.492540,43.132770,3.0
        -77.492507,43.132810,3.0
        -77.492505,43.132813,3.0
        -77.492492,43.132828,3.0
        -77.492392,43.132947,3.0
        -77.492267,43.133098,3.0
        -77.492200,43.133182,3.0
        -77.492125,43.133272,3.0
        -77.492045,43.133368,3.0
        -77.491960,43.133480,3.0
        -77.491872,43.133603,3.0
        -77.491790,43.133735,3.0
        -77.491722,43.133868,3.0
        -77.491663,43.134005,3.0
        -77.491615,43.134138,3.0
        -77.491567,43.134265,3.0
        -77.491522,43.134388,3.0
        -77.491478,43.134512,3.0
        -77.491445,43.134633,3.0
        -77.491418,43.134757,3.0
        -77.491398,43.134885,3.0
        -77.491387,43.135012,3.0
        -77.491382,43.135147,3.0
        -77.491390,43.135283,3.0
        -77.491412,43.135420,3.0
        -77.491443,43.135557,3.0
        -77.491485,43.135690,3.0
        -77.491527,43.135820,3.0
        -77.491568,43.135940,3.0
        -77.491608,43.136052,3.0
        -77.491640,43.136167,3.0
        -77.491675,43.136280,3.0
        -77.491708,43.136397,3.0
        -77.491742,43.136515,3.0
        -77.491773,43.136640,3.0
        -77.491812,43.136772,3.0
        -77.491852,43.136900,3.0
        -77.491898,43.137037,3.0
        -77.491945,43.137177,3.0
        -77.491990,43.137318,3.0
        -77.492032,43.137460,3.0
        -77.492078,43.137610,3.0
        -77.492123,43.137757,3.0
        -77.492172,43.137907,3.0
        -77.492215,43.138062,3.0
        -77.492258,43.138217,3.0
        -77.492300,43.138372,3.0
        -77.492337,43.138523,3.0
        -77.492378,43.138673,3.0
        -77.492417,43.138823,3.0
        -77.492458,43.138975,3.0
        -77.492508,43.139118,3.0
        -77.492563,43.139260,3.0
        -77.492622,43.139398,3.0
        -77.492683,43.139527,3.0
        -77.492760,43.139650,3.0
        -77.492862,43.139765,3.0
        -77.492955,43.139880,3.0
        -77.493053,43.139983,3.0
        -77.493165,43.140078,3.0
        -77.493282,43.140165,3.0
        -77.493405,43.140245,3.0
        -77.493528,43.140320,3.0
        -77.493650,43.140387,3.0
        -77.493763,43.140447,3.0
        -77.493872,43.140502,3.0
        -77.494052,43.140587,3.0
        -77.494115,43.140632,3.0
        -77.494150,43.140680,3.0
        -77.494182,43.140740,3.0
        -77.494198,43.140807,3.0
        -77.494190,43.140938,3.0
        -77.494188,43.140998,3.0
        -77.494175,43.141110,3.0
        -77.494202,43.141210,3.0
        -77.494197,43.141235,3.0
        -77.494200,43.141270,3.0
        -77.494198,43.141317,3.0
        -77.494163,43.141393,3.0
        -77.494142,43.141553,3.0
        -77.494138,43.141643,3.0
        -77.494135,43.141730,3.0
        -77.494122,43.141802,3.0
        -77.494098,43.141877,3.0
        -77.494062,43.141943,3.0
        -77.494002,43.142010,3.0
        -77.493930,43.142122,3.0
        -77.493857,43.142230,3.0
        -77.493767,43.142352,3.0
        -77.493667,43.142488,3.0
        -77.493573,43.142613,3.0
        -77.493498,43.142712,3.0
        -77.493417,43.142818,3.0
        -77.493325,43.142932,3.0
        -77.493243,43.143038,3.0
        -77.493172,43.143135,3.0
        -77.493110,43.143220,3.0
        -77.493015,43.143342,3.0
        -77.492912,43.143478,3.0
        -77.492815,43.143605,3.0
        -77.492735,43.143717,3.0
        -77.492657,43.143827,3.0
        -77.492572,43.143943,3.0
        -77.492492,43.144060,3.0
        -77.492413,43.144167,3.0
        -77.492332,43.144263,3.0
        -77.492292,43.144308,3.0
        -77.492217,43.144425,3.0
        -77.492150,43.144560,3.0
        -77.492112,43.144697,3.0
        -77.492080,43.144833,3.0
        -77.492078,43.144897,3.0
        -77.492042,43.145042,3.0
        -77.491997,43.145132,3.0
        -77.491938,43.145213,3.0
        -77.491862,43.145287,3.0
        -77.491680,43.145405,3.0
        -77.491597,43.145467,3.0
        -77.491472,43.145590,3.0
        -77.491385,43.145703,3.0
        -77.491325,43.145783,3.0
        -77.491303,43.145805,3.0
        -77.491293,43.145812,3.0
        -77.491282,43.145812,3.0
        -77.491235,43.145815,3.0
        -77.491155,43.145803,3.0
        -77.490943,43.145738,3.0
        -77.490812,43.145693,3.0
        -77.490657,43.145648,3.0
        -77.490488,43.145605,3.0
        -77.490318,43.145565,3.0
        -77.490135,43.145542,3.0
        -77.489952,43.145527,3.0
        -77.489768,43.145515,3.0
        -77.489582,43.145508,3.0
        -77.489392,43.145502,3.0
        -77.489203,43.145493,3.0
        -77.489022,43.145485,3.0
        -77.488847,43.145473,3.0
        -77.488672,43.145463,3.0
        -77.488497,43.145453,3.0
        -77.488323,43.145443,3.0
        -77.488148,43.145435,3.0
        -77.487970,43.145427,3.0
        -77.487790,43.145417,3.0
        -77.487617,43.145408,3.0
        -77.487452,43.145393,3.0
        -77.487290,43.145383,3.0
        -77.487133,43.145375,3.0
        -77.486973,43.145367,3.0
        -77.486812,43.145355,3.0
        -77.486650,43.145343,3.0
        -77.486490,43.145332,3.0
        -77.486337,43.145323,3.0
        -77.486190,43.145317,3.0
        -77.486048,43.145305,3.0
        -77.485910,43.145295,3.0
        -77.485780,43.145290,3.0
        -77.485650,43.145285,3.0
        -77.485428,43.145278,3.0
        -77.485343,43.145268,3.0
        -77.485195,43.145263,3.0
        -77.485098,43.145257,3.0
        -77.485030,43.145237,3.0
        -77.484952,43.145200,3.0
        -77.484870,43.145150,3.0
        -77.484788,43.145067,3.0
        -77.484702,43.144972,3.0
        -77.484592,43.144863,3.0
        -77.484468,43.144743,3.0
        -77.484337,43.144615,3.0
        -77.484202,43.144485,3.0
        -77.484063,43.144353,3.0
        -77.483925,43.144225,3.0
        -77.483787,43.144100,3.0
        -77.483652,43.143977,3.0
        -77.483515,43.143855,3.0
        -77.483377,43.143733,3.0
        -77.483243,43.143613,3.0
        -77.483113,43.143495,3.0
        -77.482982,43.143380,3.0
        -77.482853,43.143265,3.0
        -77.482722,43.143147,3.0
        -77.482588,43.143033,3.0
        -77.482450,43.142925,3.0
        -77.482302,43.142820,3.0
        -77.482140,43.142722,3.0
        -77.481967,43.142630,3.0
        -77.481778,43.142552,3.0
        -77.481577,43.142485,3.0
        -77.481365,43.142437,3.0
        -77.481145,43.142410,3.0
        -77.480922,43.142397,3.0
        -77.480697,43.142392,3.0
        -77.480472,43.142392,3.0
        -77.480248,43.142395,3.0
        -77.480025,43.142400,3.0
        -77.479800,43.142402,3.0
        -77.479578,43.142400,3.0
        -77.479365,43.142395,3.0
        -77.479148,43.142393,3.0
        -77.478932,43.142390,3.0
        -77.478722,43.142387,3.0
        -77.478518,43.142390,3.0
        -77.478322,43.142385,3.0
        -77.478133,43.142380,3.0
        -77.477952,43.142377,3.0
        -77.477773,43.142380,3.0
        -77.477600,43.142380,3.0
        -77.477428,43.142382,3.0
        -77.477257,43.142382,3.0
        -77.477092,43.142378,3.0
        -77.476932,43.142380,3.0
        -77.476767,43.142383,3.0
        -77.476597,43.142382,3.0
        -77.476423,43.142382,3.0
        -77.476250,43.142378,3.0
        -77.476085,43.142377,3.0
        -77.475925,43.142377,3.0
        -77.475765,43.142378,3.0
        -77.475610,43.142380,3.0
        -77.475450,43.142383,3.0
        -77.475288,43.142392,3.0
        -77.475117,43.142398,3.0
        -77.474942,43.142400,3.0
        -77.474763,43.142402,3.0
        -77.474585,43.142405,3.0
        -77.474405,43.142407,3.0
        -77.474222,43.142408,3.0
        -77.474040,43.142407,3.0
        -77.473857,43.142407,3.0
        -77.473673,43.142403,3.0
        -77.473487,43.142403,3.0
        -77.473302,43.142400,3.0
        -77.473120,43.142395,3.0
        -77.472942,43.142392,3.0
        -77.472762,43.142387,3.0
        -77.472580,43.142387,3.0
        -77.472400,43.142385,3.0
        -77.472215,43.142380,3.0
        -77.472025,43.142373,3.0
        -77.471835,43.142365,3.0
        -77.471640,43.142358,3.0
        -77.471438,43.142352,3.0
        -77.471233,43.142347,3.0
        -77.471032,43.142342,3.0
        -77.470828,43.142337,3.0
        -77.470625,43.142333,3.0
        -77.470420,43.142328,3.0
        -77.470218,43.142323,3.0
        -77.470018,43.142318,3.0
        -77.469820,43.142315,3.0
        -77.469628,43.142308,3.0
        -77.469440,43.142302,3.0
        -77.469250,43.142297,3.0
        -77.469058,43.142293,3.0
        -77.468865,43.142288,3.0
        -77.468670,43.142285,3.0
        -77.468472,43.142283,3.0
        -77.468267,43.142280,3.0
        -77.468058,43.142277,3.0
        -77.467848,43.142277,3.0
        -77.467635,43.142275,3.0
        -77.467420,43.142268,3.0
        -77.467203,43.142260,3.0
        -77.466990,43.142255,3.0
        -77.466782,43.142252,3.0
        -77.466587,43.142252,3.0
        -77.466398,43.142250,3.0
        -77.466212,43.142248,3.0
        -77.466027,43.142247,3.0
        -77.465848,43.142243,3.0
        -77.465678,43.142242,3.0
        -77.465517,43.142237,3.0
        -77.465368,43.142237,3.0
        -77.465228,43.142233,3.0
        -77.465095,43.142227,3.0
        -77.464967,43.142223,3.0
        -77.464840,43.142220,3.0
        -77.464717,43.142218,3.0
        -77.464482,43.142215,3.0
        -77.464313,43.142203,3.0
        -77.464247,43.142197,3.0
        -77.464148,43.142195,3.0
        -77.464087,43.142213,3.0
        -77.464047,43.142207,3.0
        -77.464008,43.142207,3.0
        -77.463938,43.142198,3.0
        -77.463880,43.142197,3.0
        -77.463833,43.142207,3.0
        -77.463813,43.142213,3.0
        -77.463787,43.142242,3.0
      </coordinates>
    </LineString>
  </Placemark>
  <Placemark>
    <name>Start</name>
    <description>Start time: 2025-05-06 21:14:34</description>
    <styleUrl>#startStyle</styleUrl>
    <Point>
      <coordinates>-77.680735,43.085778,3</coordinates>
    </Point>
  </Placemark>
  <Placemark>
    <name>End</name>
    <description>End time: 2025-05-06 21:47:36</description>
    <styleUrl>#endStyle</styleUrl>
    <Point>
      <coordinates>-77.463787,43.142242,3</coordinates>
    </Point>
  </Placemark>
  <Placemark>
    <name>Stop 1</name>
    <description>Duration: 3.0s</description>
    <styleUrl>#stopStyle</styleUrl>
    <Point>
      <coordinates>-77.677118,43.087632,3</coordinates>
    </Point>
  </Placemark>
  <Placemark>
    <name>Stop 2</name>
    <description>Duration: 5.1m</description>
    <styleUrl>#stopStyle</styleUrl>
    <Point>
      <coordinates>-77.630263,43.094102,3</coordinates>
    </Point>
  </Placemark>
  <Placemark>
    <name>Stop 3</name>
    <description>Duration: 1.1m</description>
    <styleUrl>#stopStyle</styleUrl>
    <Point>
      <coordinates>-77.579487,43.100732,3</coordinates>
    </Point>
  </Placemark>
  <Placemark>
    <name>Stop 4</name>
    <description>Duration: 4.7m</description>
    <styleUrl>#stopStyle</styleUrl>
    <Point>
      <coordinates>-77.554828,43.109657,3</coordinates>
    </Point>
  </Placemark>
  <Placemark>
    <name>Stop 5</name>
    <description>Duration: 9.0s</description>
    <styleUrl>#stopStyle</styleUrl>
    <Point>
      <coordinates>-77.463938,43.142198,3</coordinates>
    </Point>
  </Placemark>
  <Placemark>
    <name>Left Turn 1</name>
    <description>Angle: 0.0°</description>
    <styleUrl>#leftTurnStyle</styleUrl>
    <Point>
      <coordinates>-77.674682,43.087587,3</coordinates>
    </Point>
  </Placemark>
  <Placemark>
    <name>Left Turn 2</name>
    <description>Angle: 0.0°</description>
    <styleUrl>#leftTurnStyle</styleUrl>
    <Point>
      <coordinates>-77.667870,43.089030,3</coordinates>
    </Point>
  </Placemark>
  <Placemark>
    <name>Left Turn 3</name>
    <description>Angle: 0.0°</description>
    <styleUrl>#leftTurnStyle</styleUrl>
    <Point>
      <coordinates>-77.654282,43.092863,3</coordinates>
    </Point>
  </Placemark>
  <Placemark>
    <name>Left Turn 4</name>
    <description>Angle: 0.0°</description>
    <styleUrl>#leftTurnStyle</styleUrl>
    <Point>
      <coordinates>-77.528235,43.127168,3</coordinates>
    </Point>
  </Placemark>
  <Placemark>
    <name>Left Turn 5</name>
    <description>Angle: 0.0°</description>
    <styleUrl>#leftTurnStyle</styleUrl>
    <Point>
      <coordinates>-77.494245,43.127182,3</coordinates>
    </Point>
  </Placemark>
  <Placemark>
    <name>Left Turn 6</name>
    <description>Angle: 0.0°</description>
    <styleUrl>#leftTurnStyle</styleUrl>
    <Point>
      <coordinates>-77.494300,43.127672,3</coordinates>
    </Point>
  </Placemark>
  <Placemark>
    <name>Left Turn 7</name>
    <description>Angle: 0.0°</description>
    <styleUrl>#leftTurnStyle</styleUrl>
    <Point>
      <coordinates>-77.492217,43.144425,3</coordinates>
    </Point>
  </Placemark>
</Document>
</kml>