<?xml version="1.0" encoding="UTF-8"?>
<kml xmlns="http://www.opengis.net/kml/2.2">
<Document>
  <name>GPS Track - 2025-05-01 14:49</name>
  <description>GPS track with 1215 points</description>
  <Style id="routeStyle">
    <LineStyle>
      <color>ff00ffff</color>
      <width>4</width>
    </LineStyle>
  </Style>
  <Style id="stopStyle">
    <IconStyle>
      <color>ff0000ff</color>
      <scale>1.3</scale>
      <Icon>
        <href>http://maps.google.com/mapfiles/kml/paddle/red-circle.png</href>
      </Icon>
    </IconStyle>
  </Style>
  <Style id="leftTurnStyle">
    <IconStyle>
      <color>ff00ffff</color>
      <scale>1.1</scale>
      <Icon>
        <href>http://maps.google.com/mapfiles/kml/paddle/ylw-blank.png</href>
      </Icon>
    </IconStyle>
  </Style>
  <Style id="startStyle">
    <IconStyle>
      <color>ff00ff00</color>
      <scale>1.5</scale>
      <Icon>
        <href>http://maps.google.com/mapfiles/kml/paddle/go.png</href>
      </Icon>
    </IconStyle>
  </Style>
  <Style id="endStyle">
    <IconStyle>
      <color>ff0000ff</color>
      <scale>1.5</scale>
      <Icon>
        <href>http://maps.google.com/mapfiles/kml/paddle/stop.png</href>
      </Icon>
    </IconStyle>
  </Style>
  <Placemark>
    <name>Route</name>
    <styleUrl>#routeStyle</styleUrl>
    <LineString>
      <tessellate>1</tessellate>
      <altitudeMode>clampToGround</altitudeMode>
      <coordinates>
        -77.440723,43.141262,3.0
        -77.440947,43.141280,3.0
        -77.441093,43.141282,3.0
        -77.441278,43.141297,3.0
        -77.441470,43.141307,3.0
        -77.441668,43.141317,3.0
        -77.441882,43.141332,3.0
        -77.442107,43.141342,3.0
        -77.442345,43.141357,3.0
        -77.442595,43.141375,3.0
        -77.442853,43.141387,3.0
        -77.443118,43.141397,3.0
        -77.443387,43.141405,3.0
        -77.443650,43.141410,3.0
        -77.443912,43.141412,3.0
        -77.444170,43.141412,3.0
        -77.444423,43.141405,3.0
        -77.444672,43.141395,3.0
        -77.444920,43.141387,3.0
        -77.445167,43.141378,3.0
        -77.445407,43.141370,3.0
        -77.445637,43.141365,3.0
        -77.445853,43.141352,3.0
        -77.446062,43.141337,3.0
        -77.446267,43.141323,3.0
        -77.446468,43.141307,3.0
        -77.446670,43.141290,3.0
        -77.446873,43.141275,3.0
        -77.447085,43.141262,3.0
        -77.447298,43.141250,3.0
        -77.447508,43.141238,3.0
        -77.447715,43.141225,3.0
        -77.447922,43.141208,3.0
        -77.448133,43.141193,3.0
        -77.448345,43.141173,3.0
        -77.448560,43.141158,3.0
        -77.448772,43.141142,3.0
        -77.448987,43.141127,3.0
        -77.449205,43.141110,3.0
        -77.449430,43.141093,3.0
        -77.449665,43.141077,3.0
        -77.449907,43.141062,3.0
        -77.450152,43.141048,3.0
        -77.450398,43.141037,3.0
        -77.450647,43.141027,3.0
        -77.450893,43.141020,3.0
        -77.451147,43.141020,3.0
        -77.451388,43.141028,3.0
        -77.451628,43.141047,3.0
        -77.451870,43.141072,3.0
        -77.452105,43.141107,3.0
        -77.452340,43.141143,3.0
        -77.452570,43.141183,3.0
        -77.452798,43.141223,3.0
        -77.453027,43.141258,3.0
        -77.453248,43.141293,3.0
        -77.453473,43.141330,3.0
        -77.453700,43.141362,3.0
        -77.453928,43.141390,3.0
        -77.454158,43.141418,3.0
        -77.454392,43.141448,3.0
        -77.454627,43.141480,3.0
        -77.454863,43.141513,3.0
        -77.455100,43.141547,3.0
        -77.455333,43.141580,3.0
        -77.455563,43.141613,3.0
        -77.455790,43.141640,3.0
        -77.456012,43.141663,3.0
        -77.456238,43.141683,3.0
        -77.456472,43.141710,3.0
        -77.456705,43.141738,3.0
        -77.456935,43.141763,3.0
        -77.457165,43.141792,3.0
        -77.457393,43.141820,3.0
        -77.457618,43.141847,3.0
        -77.457837,43.141867,3.0
        -77.458053,43.141893,3.0
        -77.458272,43.141920,3.0
        -77.458483,43.141945,3.0
        -77.458693,43.141973,3.0
        -77.458902,43.142002,3.0
        -77.459107,43.142037,3.0
        -77.459313,43.142073,3.0
        -77.459522,43.142105,3.0
        -77.459738,43.142130,3.0
        -77.459958,43.142153,3.0
        -77.460178,43.142180,3.0
        -77.460395,43.142200,3.0
        -77.460608,43.142222,3.0
        -77.460822,43.142243,3.0
        -77.461028,43.142263,3.0
        -77.461237,43.142280,3.0
        -77.461438,43.142297,3.0
        -77.461638,43.142307,3.0
        -77.461835,43.142317,3.0
        -77.462030,43.142323,3.0
        -77.462223,43.142332,3.0
        -77.462413,43.142340,3.0
        -77.462595,43.142347,3.0
        -77.462772,43.142353,3.0
        -77.462942,43.142362,3.0
        -77.463108,43.142368,3.0
        -77.463260,43.142373,3.0
        -77.463378,43.142368,3.0
        -77.463535,43.142377,3.0
        -77.463573,43.142382,3.0
        -77.463580,43.142378,3.0
        -77.463588,43.142383,3.0
        -77.463597,43.142380,3.0
        -77.463625,43.142330,3.0
        -77.463637,43.142252,3.0
        -77.463638,43.142063,3.0
        -77.463648,43.141942,3.0
        -77.463667,43.141807,3.0
        -77.463680,43.141665,3.0
        -77.463688,43.141520,3.0
        -77.463705,43.141375,3.0
        -77.463722,43.141232,3.0
        -77.463735,43.141082,3.0
        -77.463738,43.140927,3.0
        -77.463747,43.140772,3.0
        -77.463767,43.140627,3.0
        -77.463782,43.140478,3.0
        -77.463790,43.140335,3.0
        -77.463795,43.140195,3.0
        -77.463798,43.140057,3.0
        -77.463793,43.139915,3.0
        -77.463793,43.139772,3.0
        -77.463795,43.139630,3.0
        -77.463802,43.139495,3.0
        -77.463807,43.139355,3.0
        -77.463815,43.139215,3.0
        -77.463822,43.139085,3.0
        -77.463825,43.138958,3.0
        -77.463828,43.138830,3.0
        -77.463832,43.138712,3.0
        -77.463837,43.138590,3.0
        -77.463840,43.138468,3.0
        -77.463843,43.138353,3.0
        -77.463843,43.138237,3.0
        -77.463848,43.138130,3.0
        -77.463855,43.138020,3.0
        -77.463858,43.137912,3.0
        -77.463865,43.137803,3.0
        -77.463872,43.137702,3.0
        -77.463882,43.137593,3.0
        -77.463895,43.137488,3.0
        -77.463900,43.137398,3.0
        -77.463905,43.137257,3.0
        -77.463905,43.137148,3.0
        -77.463908,43.137147,3.0
        -77.463895,43.137120,3.0
        -77.463890,43.137097,3.0
        -77.463890,43.137082,3.0
        -77.463892,43.137082,3.0
        -77.463895,43.137070,3.0
        -77.463895,43.136933,3.0
        -77.463892,43.136830,3.0
        -77.463895,43.136700,3.0
        -77.463903,43.136502,3.0
        -77.463907,43.136332,3.0
        -77.463903,43.136168,3.0
        -77.463900,43.136007,3.0
        -77.463900,43.135847,3.0
        -77.463907,43.135693,3.0
        -77.463915,43.135537,3.0
        -77.463930,43.135388,3.0
        -77.463947,43.135240,3.0
        -77.463968,43.135097,3.0
        -77.463983,43.134947,3.0
        -77.463988,43.134793,3.0
        -77.463995,43.134647,3.0
        -77.463998,43.134502,3.0
        -77.463997,43.134353,3.0
        -77.464002,43.134197,3.0
        -77.464010,43.134042,3.0
        -77.464015,43.133882,3.0
        -77.464013,43.133725,3.0
        -77.464010,43.133572,3.0
        -77.464007,43.133422,3.0
        -77.464008,43.133278,3.0
        -77.464018,43.133138,3.0
        -77.464030,43.133000,3.0
        -77.464038,43.132850,3.0
        -77.464043,43.132697,3.0
        -77.464057,43.132547,3.0
        -77.464063,43.132398,3.0
        -77.464073,43.132258,3.0
        -77.464082,43.132127,3.0
        -77.464085,43.132008,3.0
        -77.464085,43.131902,3.0
        -77.464083,43.131738,3.0
        -77.464087,43.131637,3.0
        -77.464090,43.131605,3.0
        -77.464093,43.131593,3.0
        -77.464092,43.131630,3.0
        -77.464082,43.131653,3.0
        -77.464105,43.131633,3.0
        -77.464095,43.131535,3.0
        -77.464107,43.131492,3.0
        -77.464137,43.131458,3.0
        -77.464193,43.131443,3.0
        -77.464403,43.131438,3.0
        -77.464563,43.131442,3.0
        -77.464753,43.131445,3.0
        -77.464963,43.131452,3.0
        -77.465183,43.131455,3.0
        -77.465408,43.131453,3.0
        -77.465633,43.131453,3.0
        -77.465848,43.131457,3.0
        -77.466058,43.131457,3.0
        -77.466263,43.131457,3.0
        -77.466465,43.131457,3.0
        -77.466667,43.131458,3.0
        -77.466867,43.131460,3.0
        -77.467065,43.131460,3.0
        -77.467267,43.131462,3.0
        -77.467475,43.131463,3.0
        -77.467680,43.131465,3.0
        -77.467880,43.131468,3.0
        -77.468077,43.131472,3.0
        -77.468272,43.131475,3.0
        -77.468468,43.131477,3.0
        -77.468670,43.131480,3.0
        -77.468870,43.131482,3.0
        -77.469072,43.131487,3.0
        -77.469270,43.131493,3.0
        -77.469467,43.131498,3.0
        -77.469660,43.131503,3.0
        -77.469853,43.131508,3.0
        -77.470048,43.131508,3.0
        -77.470240,43.131513,3.0
        -77.470435,43.131517,3.0
        -77.470637,43.131523,3.0
        -77.470838,43.131525,3.0
        -77.471042,43.131523,3.0
        -77.471243,43.131513,3.0
        -77.471443,43.131497,3.0
        -77.471647,43.131477,3.0
        -77.471847,43.131452,3.0
        -77.472045,43.131423,3.0
        -77.472243,43.131387,3.0
        -77.472440,43.131345,3.0
        -77.472633,43.131298,3.0
        -77.472820,43.131245,3.0
        -77.472998,43.131187,3.0
        -77.473170,43.131128,3.0
        -77.473342,43.131068,3.0
        -77.473513,43.131010,3.0
        -77.473687,43.130952,3.0
        -77.473858,43.130893,3.0
        -77.474033,43.130837,3.0
        -77.474207,43.130782,3.0
        -77.474373,43.130727,3.0
        -77.474527,43.130677,3.0
        -77.474667,43.130633,3.0
        -77.474797,43.130595,3.0
        -77.475010,43.130530,3.0
        -77.475167,43.130485,3.0
        -77.475303,43.130430,3.0
        -77.475343,43.130413,3.0
        -77.475405,43.130370,3.0
        -77.475432,43.130357,3.0
        -77.475450,43.130345,3.0
        -77.475460,43.130337,3.0
        -77.475477,43.130317,3.0
        -77.475472,43.130315,3.0
        -77.475665,43.130258,3.0
        -77.475782,43.130225,3.0
        -77.475912,43.130187,3.0
        -77.476050,43.130147,3.0
        -77.476200,43.130105,3.0
        -77.476363,43.130058,3.0
        -77.476537,43.130012,3.0
        -77.476720,43.129960,3.0
        -77.476907,43.129905,3.0
        -77.477098,43.129852,3.0
        -77.477295,43.129797,3.0
        -77.477493,43.129738,3.0
        -77.477693,43.129678,3.0
        -77.477893,43.129618,3.0
        -77.478098,43.129557,3.0
        -77.478302,43.129495,3.0
        -77.478502,43.129435,3.0
        -77.478698,43.129373,3.0
        -77.478897,43.129317,3.0
        -77.479092,43.129263,3.0
        -77.479287,43.129212,3.0
        -77.479485,43.129162,3.0
        -77.479692,43.129118,3.0
        -77.479907,43.129080,3.0
        -77.480135,43.129045,3.0
        -77.480370,43.129010,3.0
        -77.480613,43.128973,3.0
        -77.480862,43.128937,3.0
        -77.481112,43.128907,3.0
        -77.481363,43.128875,3.0
        -77.481622,43.128840,3.0
        -77.481883,43.128802,3.0
        -77.482157,43.128765,3.0
        -77.482435,43.128730,3.0
        -77.482717,43.128690,3.0
        -77.482997,43.128648,3.0
        -77.483275,43.128603,3.0
        -77.483555,43.128562,3.0
        -77.483845,43.128525,3.0
        -77.484137,43.128493,3.0
        -77.484437,43.128463,3.0
        -77.484745,43.128437,3.0
        -77.485058,43.128408,3.0
        -77.485378,43.128382,3.0
        -77.485705,43.128353,3.0
        -77.486040,43.128327,3.0
        -77.486378,43.128295,3.0
        -77.486725,43.128262,3.0
        -77.487078,43.128232,3.0
        -77.487437,43.128202,3.0
        -77.487803,43.128172,3.0
        -77.488173,43.128142,3.0
        -77.488547,43.128112,3.0
        -77.488922,43.128080,3.0
        -77.489300,43.128045,3.0
        -77.489687,43.128015,3.0
        -77.490075,43.127983,3.0
        -77.490465,43.127955,3.0
        -77.490853,43.127923,3.0
        -77.491233,43.127890,3.0
        -77.491617,43.127858,3.0
        -77.492002,43.127827,3.0
        -77.492387,43.127797,3.0
        -77.492778,43.127767,3.0
        -77.493172,43.127737,3.0
        -77.493562,43.127707,3.0
        -77.493947,43.127675,3.0
        -77.494332,43.127647,3.0
        -77.494718,43.127618,3.0
        -77.495108,43.127590,3.0
        -77.495495,43.127560,3.0
        -77.495878,43.127527,3.0
        -77.496255,43.127495,3.0
        -77.496622,43.127463,3.0
        -77.496988,43.127428,3.0
        -77.497342,43.127383,3.0
        -77.497682,43.127318,3.0
        -77.498012,43.127233,3.0
        -77.498332,43.127128,3.0
        -77.498642,43.127008,3.0
        -77.498943,43.126878,3.0
        -77.499238,43.126735,3.0
        -77.499527,43.126585,3.0
        -77.499802,43.126423,3.0
        -77.500058,43.126247,3.0
        -77.500307,43.126070,3.0
        -77.500550,43.125890,3.0
        -77.500788,43.125710,3.0
        -77.501025,43.125535,3.0
        -77.501260,43.125363,3.0
        -77.501497,43.125197,3.0
        -77.501735,43.125033,3.0
        -77.501980,43.124878,3.0
        -77.502227,43.124730,3.0
        -77.502482,43.124587,3.0
        -77.502742,43.124450,3.0
        -77.503012,43.124322,3.0
        -77.503283,43.124202,3.0
        -77.503558,43.124090,3.0
        -77.503840,43.123988,3.0
        -77.504120,43.123895,3.0
        -77.504393,43.123808,3.0
        -77.504662,43.123727,3.0
        -77.504923,43.123652,3.0
        -77.505177,43.123583,3.0
        -77.505415,43.123530,3.0
        -77.505638,43.123482,3.0
        -77.505850,43.123457,3.0
        -77.506050,43.123435,3.0
        -77.506247,43.123420,3.0
        -77.506453,43.123410,3.0
        -77.506672,43.123403,3.0
        -77.506897,43.123397,3.0
        -77.507128,43.123392,3.0
        -77.507358,43.123390,3.0
        -77.507580,43.123393,3.0
        -77.507793,43.123398,3.0
        -77.508008,43.123402,3.0
        -77.508223,43.123405,3.0
        -77.508445,43.123407,3.0
        -77.508675,43.123408,3.0
        -77.508910,43.123412,3.0
        -77.509153,43.123415,3.0
        -77.509400,43.123417,3.0
        -77.509653,43.123420,3.0
        -77.509912,43.123423,3.0
        -77.510173,43.123425,3.0
        -77.510438,43.123428,3.0
        -77.510708,43.123430,3.0
        -77.510978,43.123432,3.0
        -77.511240,43.123435,3.0
        -77.511495,43.123437,3.0
        -77.511752,43.123440,3.0
        -77.512012,43.123443,3.0
        -77.512275,43.123445,3.0
        -77.512545,43.123448,3.0
        -77.512817,43.123450,3.0
        -77.513095,43.123453,3.0
        -77.513377,43.123455,3.0
        -77.513657,43.123455,3.0
        -77.513932,43.123458,3.0
        -77.514202,43.123467,3.0
        -77.514468,43.123482,3.0
        -77.514737,43.123502,3.0
        -77.515010,43.123532,3.0
        -77.515288,43.123567,3.0
        -77.515565,43.123613,3.0
        -77.515837,43.123665,3.0
        -77.516108,43.123728,3.0
        -77.516373,43.123808,3.0
        -77.516642,43.123890,3.0
        -77.516908,43.123975,3.0
        -77.517173,43.124072,3.0
        -77.517432,43.124182,3.0
        -77.517685,43.124308,3.0
        -77.517927,43.124435,3.0
        -77.518165,43.124568,3.0
        -77.518402,43.124713,3.0
        -77.518628,43.124857,3.0
        -77.518845,43.125013,3.0
        -77.519042,43.125178,3.0
        -77.519212,43.125343,3.0
        -77.519363,43.125497,3.0
        -77.519495,43.125643,3.0
        -77.519610,43.125773,3.0
        -77.519705,43.125888,3.0
        -77.519783,43.125985,3.0
        -77.519848,43.126068,3.0
        -77.519883,43.126132,3.0
        -77.519893,43.126172,3.0
        -77.519897,43.126180,3.0
        -77.519895,43.126183,3.0
        -77.519985,43.126290,3.0
        -77.520050,43.126368,3.0
        -77.520127,43.126460,3.0
        -77.520215,43.126565,3.0
        -77.520313,43.126682,3.0
        -77.520417,43.126803,3.0
        -77.520522,43.126923,3.0
        -77.520628,43.127048,3.0
        -77.520740,43.127180,3.0
        -77.520852,43.127318,3.0
        -77.520965,43.127458,3.0
        -77.521085,43.127598,3.0
        -77.521207,43.127740,3.0
        -77.521332,43.127882,3.0
        -77.521463,43.128022,3.0
        -77.521595,43.128160,3.0
        -77.521735,43.128293,3.0
        -77.521882,43.128418,3.0
        -77.522033,43.128543,3.0
        -77.522188,43.128658,3.0
        -77.522350,43.128760,3.0
        -77.522517,43.128855,3.0
        -77.522688,43.128940,3.0
        -77.522862,43.129013,3.0
        -77.523028,43.129077,3.0
        -77.523182,43.129130,3.0
        -77.523320,43.129172,3.0
        -77.523440,43.129202,3.0
        -77.523540,43.129223,3.0
        -77.523602,43.129225,3.0
        -77.523633,43.129220,3.0
        -77.523647,43.129217,3.0
        -77.523652,43.129215,3.0
        -77.523643,43.129200,3.0
        -77.523692,43.129203,3.0
        -77.523863,43.129238,3.0
        -77.524090,43.129297,3.0
        -77.524215,43.129322,3.0
        -77.524443,43.129357,3.0
        -77.524655,43.129377,3.0
        -77.524867,43.129393,3.0
        -77.524993,43.129403,3.0
        -77.525133,43.129410,3.0
        -77.525275,43.129412,3.0
        -77.525415,43.129413,3.0
        -77.525563,43.129412,3.0
        -77.525720,43.129405,3.0
        -77.525883,43.129397,3.0
        -77.526062,43.129383,3.0
        -77.526260,43.129363,3.0
        -77.526478,43.129330,3.0
        -77.526703,43.129287,3.0
        -77.526930,43.129240,3.0
        -77.527150,43.129192,3.0
        -77.527360,43.129140,3.0
        -77.527562,43.129085,3.0
        -77.527753,43.129030,3.0
        -77.527938,43.128973,3.0
        -77.528107,43.128920,3.0
        -77.528250,43.128870,3.0
        -77.528368,43.128823,3.0
        -77.528465,43.128783,3.0
        -77.528612,43.128708,3.0
        -77.528717,43.128652,3.0
        -77.528713,43.128655,3.0
        -77.528732,43.128625,3.0
        -77.528807,43.128525,3.0
        -77.528837,43.128452,3.0
        -77.528842,43.128373,3.0
        -77.528807,43.128293,3.0
        -77.528742,43.128205,3.0
        -77.528662,43.128103,3.0
        -77.528588,43.128002,3.0
        -77.528515,43.127902,3.0
        -77.528440,43.127800,3.0
        -77.528372,43.127698,3.0
        -77.528315,43.127608,3.0
        -77.528258,43.127527,3.0
        -77.528210,43.127457,3.0
        -77.528183,43.127407,3.0
        -77.528173,43.127368,3.0
        -77.528172,43.127325,3.0
        -77.528195,43.127287,3.0
        -77.528312,43.127180,3.0
        -77.528480,43.127040,3.0
        -77.528582,43.126953,3.0
        -77.528695,43.126868,3.0
        -77.528827,43.126782,3.0
        -77.528960,43.126688,3.0
        -77.529083,43.126583,3.0
        -77.529198,43.126468,3.0
        -77.529292,43.126345,3.0
        -77.529373,43.126215,3.0
        -77.529440,43.126085,3.0
        -77.529497,43.125955,3.0
        -77.529545,43.125830,3.0
        -77.529590,43.125707,3.0
        -77.529643,43.125590,3.0
        -77.529703,43.125475,3.0
        -77.529762,43.125362,3.0
        -77.529817,43.125252,3.0
        -77.529875,43.125142,3.0
        -77.529935,43.125032,3.0
        -77.529993,43.124923,3.0
        -77.530045,43.124810,3.0
        -77.530097,43.124693,3.0
        -77.530148,43.124580,3.0
        -77.530200,43.124468,3.0
        -77.530245,43.124355,3.0
        -77.530293,43.124247,3.0
        -77.530348,43.124140,3.0
        -77.530410,43.124035,3.0
        -77.530485,43.123937,3.0
        -77.530568,43.123842,3.0
        -77.530668,43.123743,3.0
        -77.530785,43.123648,3.0
        -77.530923,43.123563,3.0
        -77.531067,43.123485,3.0
        -77.531222,43.123408,3.0
        -77.531375,43.123327,3.0
        -77.531532,43.123245,3.0
        -77.531702,43.123163,3.0
        -77.531865,43.123087,3.0
        -77.532030,43.123007,3.0
        -77.532200,43.122923,3.0
        -77.532372,43.122842,3.0
        -77.532552,43.122757,3.0
        -77.532733,43.122675,3.0
        -77.532908,43.122588,3.0
        -77.533085,43.122502,3.0
        -77.533253,43.122415,3.0
        -77.533423,43.122332,3.0
        -77.533592,43.122245,3.0
        -77.533757,43.122162,3.0
        -77.533922,43.122078,3.0
        -77.534088,43.121993,3.0
        -77.534257,43.121903,3.0
        -77.534423,43.121813,3.0
        -77.534590,43.121718,3.0
        -77.534755,43.121622,3.0
        -77.534923,43.121527,3.0
        -77.535088,43.121432,3.0
        -77.535250,43.121338,3.0
        -77.535408,43.121248,3.0
        -77.535563,43.121158,3.0
        -77.535710,43.121062,3.0
        -77.535858,43.120972,3.0
        -77.536010,43.120883,3.0
        -77.536162,43.120793,3.0
        -77.536320,43.120708,3.0
        -77.536480,43.120622,3.0
        -77.536640,43.120537,3.0
        -77.536802,43.120450,3.0
        -77.536963,43.120362,3.0
        -77.537117,43.120268,3.0
        -77.537273,43.120172,3.0
        -77.537432,43.120075,3.0
        -77.537598,43.119978,3.0
        -77.537758,43.119877,3.0
        -77.537918,43.119773,3.0
        -77.538083,43.119673,3.0
        -77.538248,43.119573,3.0
        -77.538413,43.119473,3.0
        -77.538577,43.119375,3.0
        -77.538732,43.119273,3.0
        -77.538890,43.119178,3.0
        -77.539048,43.119078,3.0
        -77.539205,43.118980,3.0
        -77.539368,43.118885,3.0
        -77.539530,43.118788,3.0
        -77.539682,43.118693,3.0
        -77.539830,43.118602,3.0
        -77.539972,43.118517,3.0
        -77.540107,43.118428,3.0
        -77.540248,43.118342,3.0
        -77.540400,43.118255,3.0
        -77.540548,43.118167,3.0
        -77.540698,43.118070,3.0
        -77.540853,43.117972,3.0
        -77.541017,43.117875,3.0
        -77.541183,43.117785,3.0
        -77.541343,43.117693,3.0
        -77.541495,43.117605,3.0
        -77.541647,43.117522,3.0
        -77.541793,43.117440,3.0
        -77.541943,43.117360,3.0
        -77.542092,43.117275,3.0
        -77.542243,43.117190,3.0
        -77.542397,43.117108,3.0
        -77.542557,43.117037,3.0
        -77.542723,43.116978,3.0
        -77.542893,43.116930,3.0
        -77.543067,43.116902,3.0
        -77.543252,43.116888,3.0
        -77.543442,43.116882,3.0
        -77.543637,43.116882,3.0
        -77.543825,43.116880,3.0
        -77.544008,43.116878,3.0
        -77.544188,43.116877,3.0
        -77.544368,43.116873,3.0
        -77.544548,43.116873,3.0
        -77.544733,43.116873,3.0
        -77.544923,43.116872,3.0
        -77.545115,43.116872,3.0
        -77.545303,43.116868,3.0
        -77.545490,43.116865,3.0
        -77.545675,43.116865,3.0
        -77.545860,43.116865,3.0
        -77.546038,43.116865,3.0
        -77.546210,43.116863,3.0
        -77.546373,43.116855,3.0
        -77.546532,43.116847,3.0
        -77.546695,43.116847,3.0
        -77.546867,43.116843,3.0
        -77.547052,43.116842,3.0
        -77.547243,43.116842,3.0
        -77.547415,43.116842,3.0
        -77.547558,43.116837,3.0
        -77.547687,43.116830,3.0
        -77.547787,43.116827,3.0
        -77.547870,43.116818,3.0
        -77.547950,43.116820,3.0
        -77.547960,43.116825,3.0
        -77.547978,43.116825,3.0
        -77.547978,43.116827,3.0
        -77.547983,43.116837,3.0
        -77.548138,43.116827,3.0
        -77.548303,43.116825,3.0
        -77.548467,43.116822,3.0
        -77.548635,43.116820,3.0
        -77.548822,43.116820,3.0
        -77.549003,43.116815,3.0
        -77.549185,43.116812,3.0
        -77.549367,43.116808,3.0
        -77.549560,43.116805,3.0
        -77.549757,43.116805,3.0
        -77.549967,43.116800,3.0
        -77.550185,43.116790,3.0
        -77.550392,43.116783,3.0
        -77.550588,43.116778,3.0
        -77.550787,43.116772,3.0
        -77.550973,43.116768,3.0
        -77.551163,43.116763,3.0
        -77.551350,43.116760,3.0
        -77.551535,43.116753,3.0
        -77.551712,43.116748,3.0
        -77.551882,43.116745,3.0
        -77.552042,43.116742,3.0
        -77.552205,43.116738,3.0
        -77.552370,43.116740,3.0
        -77.552530,43.116737,3.0
        -77.552690,43.116737,3.0
        -77.552848,43.116733,3.0
        -77.553005,43.116732,3.0
        -77.553155,43.116732,3.0
        -77.553295,43.116730,3.0
        -77.553428,43.116723,3.0
        -77.553555,43.116713,3.0
        -77.553662,43.116708,3.0
        -77.553760,43.116718,3.0
        -77.553835,43.116747,3.0
        -77.553908,43.116802,3.0
        -77.553973,43.116888,3.0
        -77.554023,43.116985,3.0
        -77.554047,43.117092,3.0
        -77.554042,43.117197,3.0
        -77.553995,43.117302,3.0
        -77.553922,43.117413,3.0
        -77.553815,43.117518,3.0
        -77.553672,43.117615,3.0
        -77.553510,43.117690,3.0
        -77.553312,43.117738,3.0
        -77.553098,43.117757,3.0
        -77.552887,43.117748,3.0
        -77.552682,43.117700,3.0
        -77.552493,43.117623,3.0
        -77.552340,43.117517,3.0
        -77.552243,43.117370,3.0
        -77.552180,43.117203,3.0
        -77.552137,43.117027,3.0
        -77.552107,43.116845,3.0
        -77.552085,43.116648,3.0
        -77.552075,43.116440,3.0
        -77.552075,43.116220,3.0
        -77.552085,43.115990,3.0
        -77.552097,43.115748,3.0
        -77.552113,43.115497,3.0
        -77.552130,43.115240,3.0
        -77.552148,43.114978,3.0
        -77.552175,43.114717,3.0
        -77.552212,43.114457,3.0
        -77.552255,43.114203,3.0
        -77.552302,43.113950,3.0
        -77.552355,43.113695,3.0
        -77.552413,43.113445,3.0
        -77.552480,43.113193,3.0
        -77.552557,43.112945,3.0
        -77.552648,43.112695,3.0
        -77.552748,43.112447,3.0
        -77.552858,43.112198,3.0
        -77.552993,43.111957,3.0
        -77.553138,43.111718,3.0
        -77.553302,43.111485,3.0
        -77.553482,43.111258,3.0
        -77.553682,43.111043,3.0
        -77.553897,43.110835,3.0
        -77.554122,43.110638,3.0
        -77.554360,43.110453,3.0
        -77.554608,43.110275,3.0
        -77.554860,43.110100,3.0
        -77.555128,43.109937,3.0
        -77.555403,43.109785,3.0
        -77.555693,43.109642,3.0
        -77.555998,43.109507,3.0
        -77.556313,43.109385,3.0
        -77.556635,43.109275,3.0
        -77.556965,43.109175,3.0
        -77.557297,43.109088,3.0
        -77.557635,43.109013,3.0
        -77.557980,43.108952,3.0
        -77.558325,43.108905,3.0
        -77.558668,43.108870,3.0
        -77.559010,43.108840,3.0
        -77.559355,43.108817,3.0
        -77.559700,43.108793,3.0
        -77.560045,43.108773,3.0
        -77.560387,43.108755,3.0
        -77.560730,43.108733,3.0
        -77.561073,43.108710,3.0
        -77.561413,43.108687,3.0
        -77.561747,43.108663,3.0
        -77.562073,43.108643,3.0
        -77.562398,43.108622,3.0
        -77.562722,43.108603,3.0
        -77.563047,43.108582,3.0
        -77.563375,43.108560,3.0
        -77.563698,43.108538,3.0
        -77.564022,43.108518,3.0
        -77.564343,43.108495,3.0
        -77.564663,43.108472,3.0
        -77.564982,43.108450,3.0
        -77.565303,43.108428,3.0
        -77.565618,43.108403,3.0
        -77.565932,43.108383,3.0
        -77.566240,43.108365,3.0
        -77.566547,43.108347,3.0
        -77.566848,43.108327,3.0
        -77.567148,43.108308,3.0
        -77.567450,43.108287,3.0
        -77.567750,43.108267,3.0
        -77.568055,43.108250,3.0
        -77.568357,43.108235,3.0
        -77.568660,43.108220,3.0
        -77.568958,43.108205,3.0
        -77.569263,43.108193,3.0
        -77.569567,43.108182,3.0
        -77.569872,43.108172,3.0
        -77.570183,43.108163,3.0
        -77.570495,43.108155,3.0
        -77.570807,43.108150,3.0
        -77.571123,43.108147,3.0
        -77.571442,43.108142,3.0
        -77.571767,43.108135,3.0
        -77.572088,43.108130,3.0
        -77.572412,43.108123,3.0
        -77.572735,43.108118,3.0
        -77.573058,43.108112,3.0
        -77.573388,43.108107,3.0
        -77.573718,43.108102,3.0
        -77.574045,43.108098,3.0
        -77.574378,43.108093,3.0
        -77.574708,43.108085,3.0
        -77.575038,43.108075,3.0
        -77.575370,43.108065,3.0
        -77.575705,43.108057,3.0
        -77.576042,43.108048,3.0
        -77.576372,43.108038,3.0
        -77.576705,43.108028,3.0
        -77.577033,43.108018,3.0
        -77.577358,43.108008,3.0
        -77.577682,43.107998,3.0
        -77.577998,43.107987,3.0
        -77.578313,43.107977,3.0
        -77.578623,43.107970,3.0
        -77.578935,43.107963,3.0
        -77.579247,43.107955,3.0
        -77.579560,43.107950,3.0
        -77.579872,43.107950,3.0
        -77.580182,43.107955,3.0
        -77.580490,43.107967,3.0
        -77.580795,43.107982,3.0
        -77.581095,43.107995,3.0
        -77.581397,43.108013,3.0
        -77.581700,43.108035,3.0
        -77.582000,43.108060,3.0
        -77.582303,43.108088,3.0
        -77.582607,43.108118,3.0
        -77.582912,43.108153,3.0
        -77.583220,43.108192,3.0
        -77.583528,43.108233,3.0
        -77.583837,43.108278,3.0
        -77.584147,43.108323,3.0
        -77.584457,43.108370,3.0
        -77.584770,43.108418,3.0
        -77.585082,43.108465,3.0
        -77.585395,43.108513,3.0
        -77.585703,43.108560,3.0
        -77.586012,43.108605,3.0
        -77.586315,43.108650,3.0
        -77.586613,43.108695,3.0
        -77.586912,43.108740,3.0
        -77.587202,43.108782,3.0
        -77.587490,43.108825,3.0
        -77.587778,43.108868,3.0
        -77.588067,43.108912,3.0
        -77.588355,43.108955,3.0
        -77.588652,43.108998,3.0
        -77.588945,43.109043,3.0
        -77.589242,43.109090,3.0
        -77.589540,43.109140,3.0
        -77.589843,43.109190,3.0
        -77.590145,43.109238,3.0
        -77.590448,43.109285,3.0
        -77.590753,43.109335,3.0
        -77.591062,43.109383,3.0
        -77.591370,43.109435,3.0
        -77.591677,43.109485,3.0
        -77.591980,43.109537,3.0
        -77.592283,43.109593,3.0
        -77.592583,43.109652,3.0
        -77.592883,43.109712,3.0
        -77.593182,43.109777,3.0
        -77.593480,43.109840,3.0
        -77.593777,43.109902,3.0
        -77.594072,43.109965,3.0
        -77.594363,43.110027,3.0
        -77.594653,43.110087,3.0
        -77.594943,43.110145,3.0
        -77.595232,43.110203,3.0
        -77.595518,43.110262,3.0
        -77.595802,43.110317,3.0
        -77.596085,43.110373,3.0
        -77.596367,43.110433,3.0
        -77.596645,43.110492,3.0
        -77.596918,43.110547,3.0
        -77.597190,43.110598,3.0
        -77.597462,43.110640,3.0
        -77.597732,43.110670,3.0
        -77.598000,43.110685,3.0
        -77.598262,43.110685,3.0
        -77.598523,43.110675,3.0
        -77.598780,43.110650,3.0
        -77.599032,43.110610,3.0
        -77.599282,43.110558,3.0
        -77.599523,43.110490,3.0
        -77.599753,43.110407,3.0
        -77.599973,43.110312,3.0
        -77.600187,43.110207,3.0
        -77.600388,43.110087,3.0
        -77.600580,43.109953,3.0
        -77.600760,43.109807,3.0
        -77.600923,43.109647,3.0
        -77.601072,43.109477,3.0
        -77.601198,43.109288,3.0
        -77.601310,43.109088,3.0
        -77.601400,43.108882,3.0
        -77.601472,43.108665,3.0
        -77.601515,43.108437,3.0
        -77.601528,43.108197,3.0
        -77.601520,43.107957,3.0
        -77.601485,43.107712,3.0
        -77.601440,43.107467,3.0
        -77.601397,43.107223,3.0
        -77.601360,43.106982,3.0
        -77.601327,43.106735,3.0
        -77.601293,43.106488,3.0
        -77.601263,43.106233,3.0
        -77.601233,43.105982,3.0
        -77.601205,43.105727,3.0
        -77.601180,43.105473,3.0
        -77.601155,43.105225,3.0
        -77.601127,43.104982,3.0
        -77.601088,43.104738,3.0
        -77.601047,43.104497,3.0
        -77.601007,43.104257,3.0
        -77.600968,43.104017,3.0
        -77.600935,43.103780,3.0
        -77.600903,43.103543,3.0
        -77.600873,43.103307,3.0
        -77.600847,43.103077,3.0
        -77.600822,43.102843,3.0
        -77.600800,43.102612,3.0
        -77.600783,43.102380,3.0
        -77.600772,43.102150,3.0
        -77.600763,43.101923,3.0
        -77.600760,43.101700,3.0
        -77.600760,43.101480,3.0
        -77.600763,43.101263,3.0
        -77.600772,43.101050,3.0
        -77.600783,43.100837,3.0
        -77.600795,43.100625,3.0
        -77.600810,43.100413,3.0
        -77.600827,43.100202,3.0
        -77.600847,43.099995,3.0
        -77.600875,43.099792,3.0
        -77.600910,43.099592,3.0
        -77.600953,43.099393,3.0
        -77.600997,43.099202,3.0
        -77.601038,43.099008,3.0
        -77.601085,43.098820,3.0
        -77.601135,43.098635,3.0
        -77.601182,43.098453,3.0
        -77.601227,43.098277,3.0
        -77.601275,43.098105,3.0
        -77.601328,43.097938,3.0
        -77.601390,43.097773,3.0
        -77.601465,43.097608,3.0
        -77.601552,43.097450,3.0
        -77.601652,43.097295,3.0
        -77.601767,43.097145,3.0
        -77.601893,43.097000,3.0
        -77.602032,43.096863,3.0
        -77.602182,43.096733,3.0
        -77.602340,43.096612,3.0
        -77.602503,43.096497,3.0
        -77.602678,43.096392,3.0
        -77.602848,43.096288,3.0
        -77.602998,43.096175,3.0
        -77.603125,43.096050,3.0
        -77.603212,43.095913,3.0
        -77.603273,43.095777,3.0
        -77.603313,43.095643,3.0
        -77.603338,43.095518,3.0
        -77.603355,43.095415,3.0
        -77.603378,43.095330,3.0
        -77.603405,43.095270,3.0
        -77.603433,43.095222,3.0
        -77.603430,43.095227,3.0
        -77.603428,43.095233,3.0
        -77.603428,43.095252,3.0
        -77.603430,43.095255,3.0
        -77.603445,43.095278,3.0
        -77.603455,43.095280,3.0
        -77.603460,43.095272,3.0
        -77.603513,43.095248,3.0
        -77.603607,43.095225,3.0
        -77.603743,43.095212,3.0
        -77.603888,43.095213,3.0
        -77.604043,43.095210,3.0
        -77.604207,43.095203,3.0
        -77.604380,43.095195,3.0
        -77.604555,43.095188,3.0
        -77.604730,43.095182,3.0
        -77.604910,43.095173,3.0
        -77.605095,43.095168,3.0
        -77.605282,43.095165,3.0
        -77.605473,43.095160,3.0
        -77.605668,43.095155,3.0
        -77.605853,43.095150,3.0
        -77.606042,43.095145,3.0
        -77.606232,43.095138,3.0
        -77.606418,43.095133,3.0
        -77.606618,43.095130,3.0
        -77.606823,43.095127,3.0
        -77.607040,43.095130,3.0
        -77.607265,43.095127,3.0
        -77.607498,43.095117,3.0
        -77.607738,43.095108,3.0
        -77.607972,43.095100,3.0
        -77.608207,43.095090,3.0
        -77.608445,43.095083,3.0
        -77.608682,43.095073,3.0
        -77.608917,43.095063,3.0
        -77.609150,43.095057,3.0
        -77.609378,43.095050,3.0
        -77.609603,43.095043,3.0
        -77.609825,43.095037,3.0
        -77.610043,43.095030,3.0
        -77.610260,43.095027,3.0
        -77.610477,43.095025,3.0
        -77.610692,43.095025,3.0
        -77.610898,43.095022,3.0
        -77.611095,43.095015,3.0
        -77.611287,43.095010,3.0
        -77.611473,43.095007,3.0
        -77.611662,43.095005,3.0
        -77.611848,43.095005,3.0
        -77.612030,43.095003,3.0
        -77.612210,43.094998,3.0
        -77.612387,43.094992,3.0
        -77.612558,43.094983,3.0
        -77.612718,43.094975,3.0
        -77.612872,43.094965,3.0
        -77.613008,43.094953,3.0
        -77.613210,43.094942,3.0
        -77.613273,43.094937,3.0
        -77.613320,43.094938,3.0
        -77.613312,43.094937,3.0
        -77.613293,43.094935,3.0
        -77.613268,43.094925,3.0
        -77.613263,43.094925,3.0
        -77.613292,43.094917,3.0
        -77.613495,43.094897,3.0
        -77.613642,43.094890,3.0
        -77.613803,43.094882,3.0
        -77.613997,43.094875,3.0
        -77.614198,43.094868,3.0
        -77.614417,43.094860,3.0
        -77.614645,43.094852,3.0
        -77.614877,43.094840,3.0
        -77.615113,43.094827,3.0
        -77.615345,43.094813,3.0
        -77.615582,43.094803,3.0
        -77.615820,43.094792,3.0
        -77.616070,43.094783,3.0
        -77.616333,43.094775,3.0
        -77.616602,43.094763,3.0
        -77.616878,43.094755,3.0
        -77.617160,43.094747,3.0
        -77.617453,43.094737,3.0
        -77.617747,43.094725,3.0
        -77.618043,43.094715,3.0
        -77.618337,43.094705,3.0
        -77.618627,43.094693,3.0
        -77.618910,43.094680,3.0
        -77.619190,43.094670,3.0
        -77.619465,43.094658,3.0
        -77.619738,43.094648,3.0
        -77.620007,43.094642,3.0
        -77.620272,43.094633,3.0
        -77.620533,43.094623,3.0
        -77.620790,43.094612,3.0
        -77.621047,43.094600,3.0
        -77.621300,43.094588,3.0
        -77.621550,43.094578,3.0
        -77.621797,43.094572,3.0
        -77.622038,43.094563,3.0
        -77.622280,43.094557,3.0
        -77.622520,43.094547,3.0
        -77.622757,43.094537,3.0
        -77.622993,43.094527,3.0
        -77.623232,43.094518,3.0
        -77.623475,43.094513,3.0
        -77.623715,43.094505,3.0
        -77.623960,43.094497,3.0
        -77.624202,43.094487,3.0
        -77.624442,43.094477,3.0
        -77.624683,43.094467,3.0
        -77.624923,43.094462,3.0
        -77.625162,43.094453,3.0
        -77.625397,43.094445,3.0
        -77.625627,43.094438,3.0
        -77.625852,43.094430,3.0
        -77.626073,43.094423,3.0
        -77.626295,43.094417,3.0
        -77.626508,43.094410,3.0
        -77.626723,43.094402,3.0
        -77.626937,43.094393,3.0
        -77.627150,43.094383,3.0
        -77.627362,43.094375,3.0
        -77.627570,43.094363,3.0
        -77.627773,43.094352,3.0
        -77.627980,43.094342,3.0
        -77.628185,43.094330,3.0
        -77.628390,43.094317,3.0
        -77.628592,43.094308,3.0
        -77.628795,43.094298,3.0
        -77.628997,43.094288,3.0
        -77.629198,43.094280,3.0
        -77.629397,43.094270,3.0
        -77.629590,43.094262,3.0
        -77.629782,43.094253,3.0
        -77.629968,43.094245,3.0
        -77.630150,43.094237,3.0
        -77.630333,43.094230,3.0
        -77.630513,43.094222,3.0
        -77.630692,43.094213,3.0
        -77.630868,43.094205,3.0
        -77.631043,43.094198,3.0
        -77.631215,43.094193,3.0
        -77.631378,43.094185,3.0
        -77.631542,43.094175,3.0
        -77.631697,43.094167,3.0
        -77.631850,43.094158,3.0
        -77.632000,43.094153,3.0
        -77.632137,43.094148,3.0
        -77.632363,43.094142,3.0
        -77.632487,43.094137,3.0
        -77.632608,43.094128,3.0
        -77.632628,43.094125,3.0
        -77.632690,43.094120,3.0
        -77.632742,43.094107,3.0
        -77.632912,43.094092,3.0
        -77.633150,43.094082,3.0
        -77.633293,43.094077,3.0
        -77.633443,43.094068,3.0
        -77.633605,43.094062,3.0
        -77.633780,43.094055,3.0
        -77.633963,43.094047,3.0
        -77.634160,43.094040,3.0
        -77.634368,43.094032,3.0
        -77.634583,43.094023,3.0
        -77.634802,43.094015,3.0
        -77.635023,43.094007,3.0
        -77.635245,43.094000,3.0
        -77.635472,43.093993,3.0
        -77.635705,43.093987,3.0
        -77.635945,43.093978,3.0
        -77.636188,43.093970,3.0
        -77.636432,43.093962,3.0
        -77.636678,43.093953,3.0
        -77.636928,43.093942,3.0
        -77.637180,43.093930,3.0
        -77.637438,43.093918,3.0
        -77.637695,43.093907,3.0
        -77.637957,43.093897,3.0
        -77.638220,43.093888,3.0
        -77.638490,43.093880,3.0
        -77.638758,43.093870,3.0
        -77.639023,43.093858,3.0
        -77.639287,43.093847,3.0
        -77.639550,43.093837,3.0
        -77.639815,43.093827,3.0
        -77.640078,43.093815,3.0
        -77.640337,43.093805,3.0
        -77.640592,43.093795,3.0
        -77.640842,43.093783,3.0
        -77.641085,43.093773,3.0
        -77.641327,43.093760,3.0
        -77.641572,43.093747,3.0
        -77.641820,43.093735,3.0
        -77.642075,43.093723,3.0
        -77.642332,43.093712,3.0
        -77.642588,43.093700,3.0
        -77.642847,43.093688,3.0
        -77.643100,43.093680,3.0
        -77.643352,43.093673,3.0
        -77.643598,43.093670,3.0
        -77.643845,43.093663,3.0
        -77.644092,43.093657,3.0
        -77.644338,43.093652,3.0
        -77.644585,43.093648,3.0
        -77.644837,43.093642,3.0
        -77.645082,43.093633,3.0
        -77.645327,43.093622,3.0
        -77.645572,43.093610,3.0
        -77.645817,43.093598,3.0
        -77.646065,43.093587,3.0
        -77.646313,43.093577,3.0
        -77.646558,43.093567,3.0
        -77.646803,43.093557,3.0
        -77.647053,43.093548,3.0
        -77.647307,43.093538,3.0
        -77.647558,43.093530,3.0
        -77.647817,43.093522,3.0
        -77.648078,43.093520,3.0
        -77.648342,43.093525,3.0
        -77.648605,43.093533,3.0
        -77.648870,43.093547,3.0
        -77.649130,43.093563,3.0
        -77.649387,43.093583,3.0
        -77.649643,43.093608,3.0
        -77.649900,43.093635,3.0
        -77.650155,43.093662,3.0
        -77.650408,43.093690,3.0
        -77.650660,43.093718,3.0
        -77.650908,43.093747,3.0
        -77.651152,43.093773,3.0
        -77.651390,43.093792,3.0
        -77.651603,43.093802,3.0
        -77.651782,43.093800,3.0
        -77.651928,43.093792,3.0
        -77.652120,43.093768,3.0
        -77.652197,43.093752,3.0
        -77.652205,43.093752,3.0
        -77.652213,43.093740,3.0
      </coordinates>
    </LineString>
  </Placemark>
  <Placemark>
    <name>Start</name>
    <description>Start time: 2025-05-01 14:49:18</description>
    <styleUrl>#startStyle</styleUrl>
    <Point>
      <coordinates>-77.440723,43.141262,3</coordinates>
    </Point>
  </Placemark>
  <Placemark>
    <name>End</name>
    <description>End time: 2025-05-01 15:20:10</description>
    <styleUrl>#endStyle</styleUrl>
    <Point>
      <coordinates>-77.652213,43.093740,3</coordinates>
    </Point>
  </Placemark>
  <Placemark>
    <name>Stop 1</name>
    <description>Duration: 14.0s</description>
    <styleUrl>#stopStyle</styleUrl>
    <Point>
      <coordinates>-77.463895,43.137120,3</coordinates>
    </Point>
  </Placemark>
  <Placemark>
    <name>Stop 2</name>
    <description>Duration: 3.0m</description>
    <styleUrl>#stopStyle</styleUrl>
    <Point>
      <coordinates>-77.465848,43.131457,3</coordinates>
    </Point>
  </Placemark>
  <Placemark>
    <name>Stop 3</name>
    <description>Duration: 32.0s</description>
    <styleUrl>#stopStyle</styleUrl>
    <Point>
      <coordinates>-77.521735,43.128293,3</coordinates>
    </Point>
  </Placemark>
  <Placemark>
    <name>Stop 4</name>
    <description>Duration: 5.0s</description>
    <styleUrl>#stopStyle</styleUrl>
    <Point>
      <coordinates>-77.603430,43.095255,3</coordinates>
    </Point>
  </Placemark>
  <Placemark>
    <name>Stop 5</name>
    <description>Duration: 58.0s</description>
    <styleUrl>#stopStyle</styleUrl>
    <Point>
      <coordinates>-77.608682,43.095073,3</coordinates>
    </Point>
  </Placemark>
  <Placemark>
    <name>Stop 6</name>
    <description>Duration: 3.0m</description>
    <styleUrl>#stopStyle</styleUrl>
    <Point>
      <coordinates>-77.632487,43.094137,3</coordinates>
    </Point>
  </Placemark>
  <Placemark>
    <name>Left Turn 1</name>
    <description>Angle: 0.0°</description>
    <styleUrl>#leftTurnStyle</styleUrl>
    <Point>
      <coordinates>-77.528210,43.127457,3</coordinates>
    </Point>
  </Placemark>
  <Placemark>
    <name>Left Turn 2</name>
    <description>Angle: 0.0°</description>
    <styleUrl>#leftTurnStyle</styleUrl>
    <Point>
      <coordinates>-77.553662,43.116708,3</coordinates>
    </Point>
  </Placemark>
  <Placemark>
    <name>Left Turn 3</name>
    <description>Angle: 0.0°</description>
    <styleUrl>#leftTurnStyle</styleUrl>
    <Point>
      <coordinates>-77.553672,43.117615,3</coordinates>
    </Point>
  </Placemark>
  <Placemark>
    <name>Left Turn 4</name>
    <description>Angle: 0.0°</description>
    <styleUrl>#leftTurnStyle</styleUrl>
    <Point>
      <coordinates>-77.603405,43.095270,3</coordinates>
    </Point>
  </Placemark>
  <Placemark>
    <name>Left Turn 5</name>
    <description>Angle: 0.0°</description>
    <styleUrl>#leftTurnStyle</styleUrl>
    <Point>
      <coordinates>-77.613263,43.094925,3</coordinates>
    </Point>
  </Placemark>
</Document>
</kml>