<?xml version="1.0" encoding="UTF-8"?>
<kml xmlns="http://www.opengis.net/kml/2.2">
<Document>
  <name>GPS Track - 2025-05-06 02:16</name>
  <description>GPS track with 1440 points</description>
  <Style id="routeStyle">
    <LineStyle>
      <color>ff00ffff</color>
      <width>4</width>
    </LineStyle>
  </Style>
  <Style id="stopStyle">
    <IconStyle>
      <color>ff0000ff</color>
      <scale>1.3</scale>
      <Icon>
        <href>http://maps.google.com/mapfiles/kml/paddle/red-circle.png</href>
      </Icon>
    </IconStyle>
  </Style>
  <Style id="leftTurnStyle">
    <IconStyle>
      <color>ff00ffff</color>
      <scale>1.1</scale>
      <Icon>
        <href>http://maps.google.com/mapfiles/kml/paddle/ylw-blank.png</href>
      </Icon>
    </IconStyle>
  </Style>
  <Style id="startStyle">
    <IconStyle>
      <color>ff00ff00</color>
      <scale>1.5</scale>
      <Icon>
        <href>http://maps.google.com/mapfiles/kml/paddle/go.png</href>
      </Icon>
    </IconStyle>
  </Style>
  <Style id="endStyle">
    <IconStyle>
      <color>ff0000ff</color>
      <scale>1.5</scale>
      <Icon>
        <href>http://maps.google.com/mapfiles/kml/paddle/stop.png</href>
      </Icon>
    </IconStyle>
  </Style>
  <Placemark>
    <name>Route</name>
    <styleUrl>#routeStyle</styleUrl>
    <LineString>
      <tessellate>1</tessellate>
      <altitudeMode>clampToGround</altitudeMode>
      <coordinates>
        -77.676557,43.087668,3.0
        -77.676480,43.087688,3.0
        -77.676402,43.087697,3.0
        -77.676312,43.087690,3.0
        -77.676110,43.087690,3.0
        -77.675885,43.087688,3.0
        -77.675653,43.087672,3.0
        -77.675552,43.087667,3.0
        -77.675482,43.087658,3.0
        -77.675292,43.087653,3.0
        -77.675125,43.087658,3.0
        -77.674940,43.087658,3.0
        -77.674858,43.087655,3.0
        -77.674778,43.087633,3.0
        -77.674647,43.087580,3.0
        -77.674578,43.087553,3.0
        -77.674505,43.087538,3.0
        -77.674430,43.087535,3.0
        -77.674350,43.087547,3.0
        -77.674277,43.087595,3.0
        -77.674123,43.087665,3.0
        -77.674038,43.087693,3.0
        -77.673950,43.087707,3.0
        -77.673755,43.087703,3.0
        -77.673555,43.087703,3.0
        -77.673357,43.087692,3.0
        -77.673163,43.087687,3.0
        -77.672935,43.087690,3.0
        -77.672812,43.087692,3.0
        -77.672683,43.087695,3.0
        -77.672552,43.087698,3.0
        -77.672415,43.087708,3.0
        -77.672277,43.087717,3.0
        -77.672138,43.087730,3.0
        -77.672000,43.087745,3.0
        -77.671858,43.087758,3.0
        -77.671717,43.087773,3.0
        -77.671578,43.087790,3.0
        -77.671442,43.087813,3.0
        -77.671303,43.087838,3.0
        -77.671172,43.087865,3.0
        -77.671037,43.087898,3.0
        -77.670902,43.087938,3.0
        -77.670770,43.087990,3.0
        -77.670638,43.088038,3.0
        -77.670508,43.088098,3.0
        -77.670373,43.088162,3.0
        -77.670242,43.088223,3.0
        -77.670112,43.088278,3.0
        -77.669983,43.088338,3.0
        -77.669853,43.088398,3.0
        -77.669722,43.088455,3.0
        -77.669592,43.088517,3.0
        -77.669458,43.088577,3.0
        -77.669330,43.088635,3.0
        -77.669203,43.088693,3.0
        -77.669082,43.088752,3.0
        -77.668967,43.088803,3.0
        -77.668853,43.088852,3.0
        -77.668740,43.088902,3.0
        -77.668623,43.088940,3.0
        -77.668503,43.088975,3.0
        -77.668380,43.089003,3.0
        -77.668140,43.089025,3.0
        -77.668028,43.089032,3.0
        -77.667922,43.089045,3.0
        -77.667823,43.089073,3.0
        -77.667732,43.089112,3.0
        -77.667660,43.089162,3.0
        -77.667562,43.089302,3.0
        -77.667477,43.089438,3.0
        -77.667385,43.089588,3.0
        -77.667282,43.089752,3.0
        -77.667233,43.089840,3.0
        -77.667183,43.089930,3.0
        -77.667133,43.090022,3.0
        -77.667080,43.090115,3.0
        -77.667027,43.090215,3.0
        -77.666977,43.090315,3.0
        -77.666930,43.090412,3.0
        -77.666878,43.090510,3.0
        -77.666820,43.090607,3.0
        -77.666762,43.090705,3.0
        -77.666705,43.090807,3.0
        -77.666652,43.090908,3.0
        -77.666597,43.091012,3.0
        -77.666543,43.091118,3.0
        -77.666488,43.091230,3.0
        -77.666430,43.091345,3.0
        -77.666368,43.091460,3.0
        -77.666307,43.091578,3.0
        -77.666233,43.091693,3.0
        -77.666162,43.091808,3.0
        -77.666098,43.091920,3.0
        -77.666037,43.092028,3.0
        -77.665980,43.092130,3.0
        -77.665930,43.092222,3.0
        -77.665842,43.092353,3.0
        -77.665883,43.092428,3.0
        -77.665887,43.092440,3.0
        -77.665855,43.092463,3.0
        -77.665763,43.092495,3.0
        -77.665513,43.092523,3.0
        -77.665350,43.092532,3.0
        -77.665172,43.092545,3.0
        -77.664973,43.092558,3.0
        -77.664762,43.092578,3.0
        -77.664540,43.092592,3.0
        -77.664308,43.092608,3.0
        -77.664068,43.092623,3.0
        -77.663822,43.092642,3.0
        -77.663572,43.092660,3.0
        -77.663317,43.092678,3.0
        -77.663058,43.092698,3.0
        -77.662798,43.092720,3.0
        -77.662535,43.092735,3.0
        -77.662272,43.092753,3.0
        -77.662008,43.092768,3.0
        -77.661743,43.092780,3.0
        -77.661477,43.092795,3.0
        -77.661210,43.092808,3.0
        -77.660950,43.092807,3.0
        -77.660683,43.092813,3.0
        -77.660412,43.092820,3.0
        -77.660142,43.092830,3.0
        -77.659872,43.092835,3.0
        -77.659598,43.092843,3.0
        -77.659325,43.092853,3.0
        -77.659048,43.092863,3.0
        -77.658773,43.092873,3.0
        -77.658502,43.092882,3.0
        -77.658238,43.092892,3.0
        -77.657980,43.092903,3.0
        -77.657727,43.092915,3.0
        -77.657477,43.092925,3.0
        -77.657232,43.092937,3.0
        -77.656988,43.092947,3.0
        -77.656747,43.092957,3.0
        -77.656508,43.092965,3.0
        -77.656268,43.092972,3.0
        -77.656033,43.092978,3.0
        -77.655802,43.092985,3.0
        -77.655573,43.092990,3.0
        -77.655350,43.092992,3.0
        -77.655130,43.092985,3.0
        -77.654917,43.092975,3.0
        -77.654710,43.092963,3.0
        -77.654520,43.092957,3.0
        -77.654342,43.092943,3.0
        -77.654180,43.092923,3.0
        -77.654042,43.092903,3.0
        -77.653932,43.092885,3.0
        -77.653880,43.092892,3.0
        -77.653808,43.092877,3.0
        -77.653745,43.092852,3.0
        -77.653675,43.092843,3.0
        -77.653642,43.092842,3.0
        -77.653605,43.092837,3.0
        -77.653522,43.092848,3.0
        -77.653450,43.092868,3.0
        -77.653372,43.092903,3.0
        -77.653303,43.092948,3.0
        -77.653162,43.093092,3.0
        -77.653065,43.093173,3.0
        -77.652952,43.093250,3.0
        -77.652830,43.093325,3.0
        -77.652702,43.093392,3.0
        -77.652557,43.093448,3.0
        -77.652403,43.093500,3.0
        -77.652243,43.093547,3.0
        -77.652075,43.093590,3.0
        -77.651897,43.093633,3.0
        -77.651713,43.093653,3.0
        -77.651525,43.093665,3.0
        -77.651335,43.093665,3.0
        -77.651140,43.093658,3.0
        -77.650940,43.093643,3.0
        -77.650732,43.093617,3.0
        -77.650518,43.093592,3.0
        -77.650298,43.093568,3.0
        -77.650072,43.093545,3.0
        -77.649840,43.093522,3.0
        -77.649608,43.093495,3.0
        -77.649377,43.093472,3.0
        -77.649145,43.093447,3.0
        -77.648913,43.093427,3.0
        -77.648682,43.093412,3.0
        -77.648450,43.093402,3.0
        -77.648220,43.093395,3.0
        -77.647987,43.093390,3.0
        -77.647748,43.093390,3.0
        -77.647508,43.093392,3.0
        -77.647263,43.093397,3.0
        -77.647017,43.093403,3.0
        -77.646768,43.093415,3.0
        -77.646520,43.093427,3.0
        -77.646270,43.093438,3.0
        -77.646020,43.093448,3.0
        -77.645772,43.093460,3.0
        -77.645528,43.093470,3.0
        -77.645287,43.093478,3.0
        -77.645052,43.093490,3.0
        -77.644817,43.093497,3.0
        -77.644583,43.093505,3.0
        -77.644357,43.093518,3.0
        -77.644133,43.093528,3.0
        -77.643913,43.093535,3.0
        -77.643698,43.093543,3.0
        -77.643485,43.093552,3.0
        -77.643275,43.093557,3.0
        -77.643065,43.093562,3.0
        -77.642857,43.093568,3.0
        -77.642655,43.093577,3.0
        -77.642453,43.093587,3.0
        -77.642253,43.093593,3.0
        -77.642053,43.093602,3.0
        -77.641858,43.093610,3.0
        -77.641663,43.093620,3.0
        -77.641468,43.093627,3.0
        -77.641272,43.093632,3.0
        -77.641070,43.093637,3.0
        -77.640868,43.093640,3.0
        -77.640663,43.093648,3.0
        -77.640455,43.093657,3.0
        -77.640250,43.093668,3.0
        -77.640045,43.093680,3.0
        -77.639837,43.093692,3.0
        -77.639623,43.093700,3.0
        -77.639410,43.093708,3.0
        -77.639197,43.093718,3.0
        -77.638988,43.093728,3.0
        -77.638787,43.093738,3.0
        -77.638588,43.093750,3.0
        -77.638392,43.093758,3.0
        -77.638198,43.093765,3.0
        -77.638008,43.093772,3.0
        -77.637823,43.093780,3.0
        -77.637638,43.093788,3.0
        -77.637457,43.093797,3.0
        -77.637280,43.093805,3.0
        -77.637103,43.093812,3.0
        -77.636927,43.093818,3.0
        -77.636748,43.093822,3.0
        -77.636570,43.093825,3.0
        -77.636397,43.093832,3.0
        -77.636223,43.093840,3.0
        -77.636050,43.093845,3.0
        -77.635877,43.093852,3.0
        -77.635700,43.093862,3.0
        -77.635525,43.093873,3.0
        -77.635343,43.093877,3.0
        -77.635170,43.093883,3.0
        -77.635000,43.093890,3.0
        -77.634835,43.093893,3.0
        -77.634673,43.093897,3.0
        -77.634518,43.093902,3.0
        -77.634370,43.093905,3.0
        -77.634228,43.093915,3.0
        -77.634090,43.093922,3.0
        -77.633955,43.093930,3.0
        -77.633823,43.093935,3.0
        -77.633692,43.093947,3.0
        -77.633552,43.093957,3.0
        -77.633400,43.093963,3.0
        -77.633242,43.093968,3.0
        -77.633080,43.093975,3.0
        -77.632913,43.093978,3.0
        -77.632740,43.093985,3.0
        -77.632562,43.093995,3.0
        -77.632377,43.094002,3.0
        -77.632185,43.094012,3.0
        -77.631987,43.094017,3.0
        -77.631787,43.094022,3.0
        -77.631580,43.094027,3.0
        -77.631368,43.094033,3.0
        -77.631150,43.094042,3.0
        -77.630930,43.094048,3.0
        -77.630703,43.094057,3.0
        -77.630473,43.094063,3.0
        -77.630243,43.094070,3.0
        -77.630013,43.094077,3.0
        -77.629785,43.094082,3.0
        -77.629558,43.094090,3.0
        -77.629332,43.094102,3.0
        -77.629103,43.094112,3.0
        -77.628875,43.094123,3.0
        -77.628650,43.094132,3.0
        -77.628423,43.094138,3.0
        -77.628198,43.094145,3.0
        -77.627975,43.094152,3.0
        -77.627752,43.094163,3.0
        -77.627520,43.094172,3.0
        -77.627288,43.094178,3.0
        -77.627055,43.094187,3.0
        -77.626823,43.094200,3.0
        -77.626592,43.094218,3.0
        -77.626353,43.094228,3.0
        -77.626117,43.094240,3.0
        -77.625880,43.094253,3.0
        -77.625640,43.094265,3.0
        -77.625398,43.094275,3.0
        -77.625155,43.094287,3.0
        -77.624908,43.094300,3.0
        -77.624658,43.094308,3.0
        -77.624410,43.094318,3.0
        -77.624162,43.094328,3.0
        -77.623913,43.094338,3.0
        -77.623665,43.094348,3.0
        -77.623418,43.094362,3.0
        -77.623170,43.094375,3.0
        -77.622925,43.094388,3.0
        -77.622677,43.094398,3.0
        -77.622427,43.094405,3.0
        -77.622173,43.094412,3.0
        -77.621920,43.094418,3.0
        -77.621668,43.094427,3.0
        -77.621413,43.094438,3.0
        -77.621158,43.094450,3.0
        -77.620903,43.094460,3.0
        -77.620647,43.094472,3.0
        -77.620390,43.094483,3.0
        -77.620132,43.094495,3.0
        -77.619877,43.094505,3.0
        -77.619628,43.094510,3.0
        -77.619383,43.094517,3.0
        -77.619145,43.094523,3.0
        -77.618908,43.094530,3.0
        -77.618675,43.094537,3.0
        -77.618438,43.094543,3.0
        -77.618205,43.094548,3.0
        -77.617970,43.094555,3.0
        -77.617737,43.094563,3.0
        -77.617507,43.094568,3.0
        -77.617277,43.094573,3.0
        -77.617047,43.094582,3.0
        -77.616818,43.094590,3.0
        -77.616592,43.094597,3.0
        -77.616367,43.094603,3.0
        -77.616143,43.094610,3.0
        -77.615925,43.094617,3.0
        -77.615707,43.094627,3.0
        -77.615488,43.094633,3.0
        -77.615268,43.094640,3.0
        -77.615048,43.094648,3.0
        -77.614830,43.094660,3.0
        -77.614608,43.094670,3.0
        -77.614383,43.094677,3.0
        -77.614157,43.094685,3.0
        -77.613930,43.094697,3.0
        -77.613703,43.094707,3.0
        -77.613482,43.094715,3.0
        -77.613268,43.094723,3.0
        -77.613060,43.094733,3.0
        -77.612855,43.094743,3.0
        -77.612647,43.094750,3.0
        -77.612440,43.094760,3.0
        -77.612242,43.094770,3.0
        -77.612063,43.094780,3.0
        -77.611915,43.094788,3.0
        -77.611707,43.094805,3.0
        -77.611577,43.094815,3.0
        -77.611435,43.094808,3.0
        -77.611438,43.094800,3.0
        -77.611328,43.094782,3.0
        -77.611112,43.094778,3.0
        -77.610975,43.094778,3.0
        -77.610822,43.094782,3.0
        -77.610653,43.094790,3.0
        -77.610477,43.094800,3.0
        -77.610297,43.094807,3.0
        -77.610115,43.094808,3.0
        -77.609928,43.094817,3.0
        -77.609740,43.094827,3.0
        -77.609548,43.094840,3.0
        -77.609355,43.094852,3.0
        -77.609163,43.094858,3.0
        -77.608972,43.094865,3.0
        -77.608777,43.094872,3.0
        -77.608582,43.094877,3.0
        -77.608383,43.094887,3.0
        -77.608183,43.094890,3.0
        -77.607977,43.094898,3.0
        -77.607765,43.094907,3.0
        -77.607548,43.094912,3.0
        -77.607328,43.094915,3.0
        -77.607105,43.094922,3.0
        -77.606885,43.094935,3.0
        -77.606663,43.094947,3.0
        -77.606442,43.094958,3.0
        -77.606220,43.094970,3.0
        -77.606000,43.094982,3.0
        -77.605780,43.094993,3.0
        -77.605563,43.095007,3.0
        -77.605352,43.095013,3.0
        -77.605147,43.095027,3.0
        -77.604942,43.095040,3.0
        -77.604738,43.095047,3.0
        -77.604542,43.095053,3.0
        -77.604358,43.095057,3.0
        -77.604192,43.095060,3.0
        -77.604040,43.095065,3.0
        -77.603900,43.095070,3.0
        -77.603705,43.095083,3.0
        -77.603618,43.095092,3.0
        -77.603603,43.095098,3.0
        -77.603552,43.095108,3.0
        -77.603422,43.095107,3.0
        -77.603208,43.095107,3.0
        -77.603082,43.095107,3.0
        -77.602942,43.095105,3.0
        -77.602795,43.095107,3.0
        -77.602640,43.095110,3.0
        -77.602480,43.095115,3.0
        -77.602315,43.095122,3.0
        -77.602147,43.095125,3.0
        -77.601975,43.095130,3.0
        -77.601805,43.095135,3.0
        -77.601630,43.095143,3.0
        -77.601450,43.095150,3.0
        -77.601267,43.095157,3.0
        -77.601077,43.095165,3.0
        -77.600882,43.095173,3.0
        -77.600682,43.095180,3.0
        -77.600473,43.095187,3.0
        -77.600258,43.095195,3.0
        -77.600038,43.095202,3.0
        -77.599815,43.095208,3.0
        -77.599588,43.095215,3.0
        -77.599358,43.095220,3.0
        -77.599128,43.095223,3.0
        -77.598898,43.095230,3.0
        -77.598668,43.095240,3.0
        -77.598438,43.095252,3.0
        -77.598205,43.095260,3.0
        -77.597973,43.095270,3.0
        -77.597743,43.095280,3.0
        -77.597508,43.095288,3.0
        -77.597277,43.095300,3.0
        -77.597042,43.095308,3.0
        -77.596808,43.095318,3.0
        -77.596573,43.095330,3.0
        -77.596335,43.095342,3.0
        -77.596098,43.095355,3.0
        -77.595865,43.095370,3.0
        -77.595632,43.095382,3.0
        -77.595402,43.095392,3.0
        -77.595173,43.095400,3.0
        -77.594950,43.095408,3.0
        -77.594725,43.095417,3.0
        -77.594498,43.095425,3.0
        -77.594267,43.095433,3.0
        -77.594033,43.095438,3.0
        -77.593800,43.095445,3.0
        -77.593562,43.095448,3.0
        -77.593318,43.095453,3.0
        -77.593075,43.095457,3.0
        -77.592827,43.095458,3.0
        -77.592573,43.095463,3.0
        -77.592322,43.095468,3.0
        -77.592073,43.095473,3.0
        -77.591833,43.095478,3.0
        -77.591597,43.095487,3.0
        -77.591362,43.095495,3.0
        -77.591128,43.095508,3.0
        -77.590900,43.095518,3.0
        -77.590667,43.095530,3.0
        -77.590438,43.095540,3.0
        -77.590212,43.095545,3.0
        -77.589985,43.095547,3.0
        -77.589755,43.095553,3.0
        -77.589527,43.095560,3.0
        -77.589297,43.095565,3.0
        -77.589065,43.095570,3.0
        -77.588833,43.095572,3.0
        -77.588603,43.095575,3.0
        -77.588373,43.095582,3.0
        -77.588143,43.095588,3.0
        -77.587913,43.095595,3.0
        -77.587678,43.095600,3.0
        -77.587445,43.095608,3.0
        -77.587212,43.095620,3.0
        -77.586982,43.095632,3.0
        -77.586752,43.095640,3.0
        -77.586528,43.095652,3.0
        -77.586305,43.095663,3.0
        -77.586087,43.095675,3.0
        -77.585870,43.095683,3.0
        -77.585653,43.095690,3.0
        -77.585435,43.095697,3.0
        -77.585227,43.095703,3.0
        -77.585022,43.095712,3.0
        -77.584817,43.095723,3.0
        -77.584615,43.095733,3.0
        -77.584418,43.095738,3.0
        -77.584225,43.095748,3.0
        -77.584035,43.095758,3.0
        -77.583847,43.095768,3.0
        -77.583660,43.095777,3.0
        -77.583482,43.095787,3.0
        -77.583307,43.095795,3.0
        -77.583137,43.095803,3.0
        -77.582968,43.095808,3.0
        -77.582807,43.095818,3.0
        -77.582655,43.095825,3.0
        -77.582507,43.095832,3.0
        -77.582367,43.095840,3.0
        -77.582250,43.095847,3.0
        -77.582127,43.095865,3.0
        -77.582040,43.095868,3.0
        -77.581967,43.095877,3.0
        -77.581888,43.095900,3.0
        -77.581818,43.095945,3.0
        -77.581762,43.096012,3.0
        -77.581727,43.096102,3.0
        -77.581702,43.096202,3.0
        -77.581680,43.096307,3.0
        -77.581650,43.096417,3.0
        -77.581612,43.096533,3.0
        -77.581565,43.096657,3.0
        -77.581512,43.096790,3.0
        -77.581452,43.096928,3.0
        -77.581385,43.097072,3.0
        -77.581313,43.097218,3.0
        -77.581238,43.097365,3.0
        -77.581160,43.097515,3.0
        -77.581080,43.097668,3.0
        -77.581000,43.097827,3.0
        -77.580922,43.097988,3.0
        -77.580842,43.098152,3.0
        -77.580760,43.098315,3.0
        -77.580675,43.098480,3.0
        -77.580590,43.098643,3.0
        -77.580503,43.098805,3.0
        -77.580417,43.098970,3.0
        -77.580333,43.099135,3.0
        -77.580247,43.099303,3.0
        -77.580160,43.099472,3.0
        -77.580073,43.099638,3.0
        -77.579990,43.099803,3.0
        -77.579907,43.099965,3.0
        -77.579825,43.100125,3.0
        -77.579743,43.100287,3.0
        -77.579658,43.100452,3.0
        -77.579572,43.100617,3.0
        -77.579487,43.100780,3.0
        -77.579402,43.100943,3.0
        -77.579315,43.101110,3.0
        -77.579230,43.101278,3.0
        -77.579147,43.101445,3.0
        -77.579060,43.101615,3.0
        -77.578972,43.101783,3.0
        -77.578882,43.101957,3.0
        -77.578793,43.102127,3.0
        -77.578705,43.102298,3.0
        -77.578618,43.102470,3.0
        -77.578530,43.102640,3.0
        -77.578442,43.102812,3.0
        -77.578350,43.102980,3.0
        -77.578257,43.103147,3.0
        -77.578165,43.103310,3.0
        -77.578078,43.103468,3.0
        -77.577993,43.103627,3.0
        -77.577912,43.103780,3.0
        -77.577832,43.103935,3.0
        -77.577750,43.104090,3.0
        -77.577668,43.104245,3.0
        -77.577585,43.104402,3.0
        -77.577497,43.104560,3.0
        -77.577410,43.104718,3.0
        -77.577322,43.104873,3.0
        -77.577230,43.105027,3.0
        -77.577135,43.105177,3.0
        -77.577045,43.105322,3.0
        -77.576960,43.105468,3.0
        -77.576877,43.105613,3.0
        -77.576795,43.105757,3.0
        -77.576712,43.105895,3.0
        -77.576635,43.106032,3.0
        -77.576560,43.106165,3.0
        -77.576483,43.106297,3.0
        -77.576413,43.106427,3.0
        -77.576340,43.106555,3.0
        -77.576272,43.106680,3.0
        -77.576205,43.106797,3.0
        -77.576140,43.106905,3.0
        -77.576060,43.107008,3.0
        -77.575965,43.107102,3.0
        -77.575857,43.107185,3.0
        -77.575722,43.107248,3.0
        -77.575568,43.107293,3.0
        -77.575398,43.107313,3.0
        -77.575220,43.107327,3.0
        -77.575033,43.107330,3.0
        -77.574838,43.107335,3.0
        -77.574638,43.107342,3.0
        -77.574437,43.107357,3.0
        -77.574230,43.107375,3.0
        -77.574022,43.107398,3.0
        -77.573810,43.107428,3.0
        -77.573593,43.107463,3.0
        -77.573375,43.107497,3.0
        -77.573150,43.107535,3.0
        -77.572923,43.107572,3.0
        -77.572690,43.107603,3.0
        -77.572453,43.107630,3.0
        -77.572210,43.107653,3.0
        -77.571962,43.107670,3.0
        -77.571707,43.107687,3.0
        -77.571445,43.107705,3.0
        -77.571182,43.107725,3.0
        -77.570910,43.107743,3.0
        -77.570638,43.107758,3.0
        -77.570367,43.107777,3.0
        -77.570093,43.107798,3.0
        -77.569820,43.107825,3.0
        -77.569545,43.107850,3.0
        -77.569268,43.107878,3.0
        -77.568992,43.107905,3.0
        -77.568712,43.107923,3.0
        -77.568430,43.107940,3.0
        -77.568143,43.107955,3.0
        -77.567853,43.107977,3.0
        -77.567562,43.108000,3.0
        -77.567267,43.108020,3.0
        -77.566970,43.108040,3.0
        -77.566675,43.108060,3.0
        -77.566382,43.108078,3.0
        -77.566092,43.108098,3.0
        -77.565803,43.108115,3.0
        -77.565512,43.108137,3.0
        -77.565220,43.108155,3.0
        -77.564923,43.108175,3.0
        -77.564628,43.108193,3.0
        -77.564333,43.108217,3.0
        -77.564037,43.108238,3.0
        -77.563740,43.108262,3.0
        -77.563442,43.108283,3.0
        -77.563143,43.108305,3.0
        -77.562847,43.108325,3.0
        -77.562547,43.108345,3.0
        -77.562245,43.108370,3.0
        -77.561942,43.108395,3.0
        -77.561638,43.108422,3.0
        -77.561330,43.108445,3.0
        -77.561023,43.108467,3.0
        -77.560715,43.108485,3.0
        -77.560407,43.108510,3.0
        -77.560098,43.108535,3.0
        -77.559797,43.108557,3.0
        -77.559495,43.108577,3.0
        -77.559192,43.108597,3.0
        -77.558890,43.108618,3.0
        -77.558590,43.108642,3.0
        -77.558290,43.108668,3.0
        -77.557988,43.108695,3.0
        -77.557687,43.108730,3.0
        -77.557387,43.108775,3.0
        -77.557092,43.108828,3.0
        -77.556802,43.108890,3.0
        -77.556513,43.108967,3.0
        -77.556227,43.109055,3.0
        -77.555948,43.109147,3.0
        -77.555678,43.109247,3.0
        -77.555417,43.109355,3.0
        -77.555162,43.109473,3.0
        -77.554918,43.109600,3.0
        -77.554680,43.109735,3.0
        -77.554445,43.109875,3.0
        -77.554220,43.110023,3.0
        -77.554005,43.110180,3.0
        -77.553805,43.110342,3.0
        -77.553612,43.110507,3.0
        -77.553428,43.110672,3.0
        -77.553253,43.110842,3.0
        -77.553088,43.111010,3.0
        -77.552932,43.111180,3.0
        -77.552782,43.111350,3.0
        -77.552637,43.111523,3.0
        -77.552500,43.111695,3.0
        -77.552382,43.111867,3.0
        -77.552280,43.112040,3.0
        -77.552192,43.112217,3.0
        -77.552115,43.112397,3.0
        -77.552048,43.112572,3.0
        -77.551988,43.112740,3.0
        -77.551933,43.112898,3.0
        -77.551880,43.113052,3.0
        -77.551828,43.113188,3.0
        -77.551780,43.113315,3.0
        -77.551737,43.113420,3.0
        -77.551703,43.113513,3.0
        -77.551648,43.113670,3.0
        -77.551632,43.113723,3.0
        -77.551612,43.113763,3.0
        -77.551590,43.113788,3.0
        -77.551568,43.113820,3.0
        -77.551557,43.113830,3.0
        -77.551532,43.113867,3.0
        -77.551423,43.113965,3.0
        -77.551367,43.114013,3.0
        -77.551328,43.114073,3.0
        -77.551315,43.114137,3.0
        -77.551340,43.114212,3.0
        -77.551403,43.114287,3.0
        -77.551478,43.114360,3.0
        -77.551565,43.114437,3.0
        -77.551650,43.114515,3.0
        -77.551738,43.114597,3.0
        -77.551825,43.114685,3.0
        -77.551912,43.114775,3.0
        -77.551998,43.114860,3.0
        -77.552072,43.114952,3.0
        -77.552153,43.115040,3.0
        -77.552242,43.115113,3.0
        -77.552322,43.115190,3.0
        -77.552475,43.115328,3.0
        -77.552553,43.115407,3.0
        -77.552642,43.115492,3.0
        -77.552733,43.115580,3.0
        -77.552825,43.115673,3.0
        -77.552913,43.115767,3.0
        -77.552997,43.115855,3.0
        -77.553080,43.115940,3.0
        -77.553162,43.116025,3.0
        -77.553242,43.116108,3.0
        -77.553322,43.116188,3.0
        -77.553397,43.116272,3.0
        -77.553512,43.116397,3.0
        -77.553533,43.116438,3.0
        -77.553513,43.116502,3.0
        -77.553418,43.116550,3.0
        -77.553343,43.116560,3.0
        -77.553117,43.116535,3.0
        -77.552982,43.116538,3.0
        -77.552832,43.116542,3.0
        -77.552672,43.116548,3.0
        -77.552502,43.116550,3.0
        -77.552318,43.116553,3.0
        -77.552137,43.116560,3.0
        -77.551950,43.116567,3.0
        -77.551762,43.116568,3.0
        -77.551560,43.116565,3.0
        -77.551357,43.116565,3.0
        -77.551162,43.116570,3.0
        -77.550963,43.116573,3.0
        -77.550770,43.116577,3.0
        -77.550577,43.116582,3.0
        -77.550388,43.116585,3.0
        -77.550200,43.116590,3.0
        -77.550017,43.116595,3.0
        -77.549838,43.116600,3.0
        -77.549670,43.116607,3.0
        -77.549510,43.116613,3.0
        -77.549362,43.116620,3.0
        -77.549220,43.116625,3.0
        -77.549077,43.116628,3.0
        -77.548938,43.116635,3.0
        -77.548807,43.116643,3.0
        -77.548587,43.116657,3.0
        -77.548462,43.116662,3.0
        -77.548422,43.116665,3.0
        -77.548348,43.116660,3.0
        -77.548337,43.116658,3.0
        -77.548298,43.116665,3.0
        -77.548110,43.116670,3.0
        -77.547862,43.116657,3.0
        -77.547717,43.116658,3.0
        -77.547557,43.116660,3.0
        -77.547388,43.116663,3.0
        -77.547218,43.116672,3.0
        -77.547048,43.116682,3.0
        -77.546878,43.116698,3.0
        -77.546708,43.116710,3.0
        -77.546537,43.116718,3.0
        -77.546370,43.116725,3.0
        -77.546203,43.116730,3.0
        -77.546032,43.116740,3.0
        -77.545858,43.116753,3.0
        -77.545678,43.116762,3.0
        -77.545490,43.116768,3.0
        -77.545303,43.116775,3.0
        -77.545117,43.116777,3.0
        -77.544927,43.116780,3.0
        -77.544740,43.116782,3.0
        -77.544553,43.116785,3.0
        -77.544365,43.116790,3.0
        -77.544178,43.116797,3.0
        -77.543998,43.116802,3.0
        -77.543820,43.116803,3.0
        -77.543647,43.116805,3.0
        -77.543480,43.116810,3.0
        -77.543320,43.116813,3.0
        -77.543160,43.116820,3.0
        -77.542998,43.116830,3.0
        -77.542837,43.116845,3.0
        -77.542680,43.116870,3.0
        -77.542522,43.116905,3.0
        -77.542370,43.116960,3.0
        -77.542222,43.117027,3.0
        -77.542078,43.117098,3.0
        -77.541932,43.117173,3.0
        -77.541792,43.117250,3.0
        -77.541648,43.117328,3.0
        -77.541507,43.117407,3.0
        -77.541363,43.117485,3.0
        -77.541225,43.117567,3.0
        -77.541087,43.117648,3.0
        -77.540950,43.117727,3.0
        -77.540815,43.117805,3.0
        -77.540675,43.117882,3.0
        -77.540535,43.117960,3.0
        -77.540395,43.118042,3.0
        -77.540255,43.118127,3.0
        -77.540117,43.118213,3.0
        -77.539975,43.118297,3.0
        -77.539835,43.118382,3.0
        -77.539693,43.118463,3.0
        -77.539558,43.118548,3.0
        -77.539432,43.118635,3.0
        -77.539300,43.118720,3.0
        -77.539168,43.118802,3.0
        -77.539035,43.118883,3.0
        -77.538902,43.118967,3.0
        -77.538762,43.119057,3.0
        -77.538620,43.119150,3.0
        -77.538475,43.119247,3.0
        -77.538330,43.119343,3.0
        -77.538177,43.119440,3.0
        -77.538023,43.119537,3.0
        -77.537873,43.119635,3.0
        -77.537727,43.119730,3.0
        -77.537580,43.119823,3.0
        -77.537433,43.119913,3.0
        -77.537290,43.120005,3.0
        -77.537148,43.120102,3.0
        -77.537007,43.120193,3.0
        -77.536860,43.120287,3.0
        -77.536713,43.120378,3.0
        -77.536565,43.120470,3.0
        -77.536417,43.120563,3.0
        -77.536265,43.120653,3.0
        -77.536112,43.120743,3.0
        -77.535952,43.120827,3.0
        -77.535797,43.120920,3.0
        -77.535645,43.121008,3.0
        -77.535495,43.121097,3.0
        -77.535347,43.121183,3.0
        -77.535200,43.121267,3.0
        -77.535055,43.121350,3.0
        -77.534912,43.121433,3.0
        -77.534767,43.121515,3.0
        -77.534625,43.121597,3.0
        -77.534487,43.121678,3.0
        -77.534350,43.121757,3.0
        -77.534207,43.121830,3.0
        -77.534062,43.121902,3.0
        -77.533913,43.121972,3.0
        -77.533767,43.122040,3.0
        -77.533618,43.122110,3.0
        -77.533470,43.122180,3.0
        -77.533322,43.122252,3.0
        -77.533173,43.122325,3.0
        -77.533025,43.122400,3.0
        -77.532877,43.122473,3.0
        -77.532730,43.122548,3.0
        -77.532577,43.122625,3.0
        -77.532422,43.122700,3.0
        -77.532263,43.122778,3.0
        -77.532103,43.122853,3.0
        -77.531942,43.122932,3.0
        -77.531785,43.123007,3.0
        -77.531633,43.123080,3.0
        -77.531487,43.123153,3.0
        -77.531345,43.123225,3.0
        -77.531205,43.123297,3.0
        -77.531068,43.123365,3.0
        -77.530935,43.123432,3.0
        -77.530808,43.123498,3.0
        -77.530685,43.123572,3.0
        -77.530568,43.123652,3.0
        -77.530462,43.123737,3.0
        -77.530377,43.123835,3.0
        -77.530297,43.123938,3.0
        -77.530232,43.124043,3.0
        -77.530178,43.124162,3.0
        -77.530127,43.124275,3.0
        -77.530073,43.124388,3.0
        -77.530025,43.124503,3.0
        -77.529980,43.124622,3.0
        -77.529935,43.124737,3.0
        -77.529890,43.124847,3.0
        -77.529845,43.124960,3.0
        -77.529802,43.125073,3.0
        -77.529762,43.125182,3.0
        -77.529720,43.125290,3.0
        -77.529680,43.125398,3.0
        -77.529638,43.125507,3.0
        -77.529595,43.125622,3.0
        -77.529547,43.125730,3.0
        -77.529497,43.125835,3.0
        -77.529450,43.125940,3.0
        -77.529402,43.126042,3.0
        -77.529355,43.126143,3.0
        -77.529303,43.126238,3.0
        -77.529252,43.126328,3.0
        -77.529197,43.126420,3.0
        -77.529128,43.126503,3.0
        -77.529062,43.126580,3.0
        -77.528980,43.126658,3.0
        -77.528882,43.126735,3.0
        -77.528768,43.126818,3.0
        -77.528642,43.126910,3.0
        -77.528517,43.127000,3.0
        -77.528398,43.127085,3.0
        -77.528297,43.127153,3.0
        -77.528212,43.127220,3.0
        -77.528142,43.127278,3.0
        -77.528075,43.127378,3.0
        -77.528072,43.127448,3.0
        -77.528153,43.127603,3.0
        -77.528208,43.127687,3.0
        -77.528270,43.127773,3.0
        -77.528335,43.127863,3.0
        -77.528397,43.127953,3.0
        -77.528468,43.128038,3.0
        -77.528543,43.128118,3.0
        -77.528607,43.128200,3.0
        -77.528668,43.128268,3.0
        -77.528708,43.128335,3.0
        -77.528735,43.128412,3.0
        -77.528743,43.128465,3.0
        -77.528740,43.128512,3.0
        -77.528695,43.128568,3.0
        -77.528630,43.128622,3.0
        -77.528538,43.128680,3.0
        -77.528412,43.128730,3.0
        -77.528268,43.128792,3.0
        -77.528105,43.128857,3.0
        -77.527927,43.128920,3.0
        -77.527740,43.128982,3.0
        -77.527542,43.129037,3.0
        -77.527343,43.129082,3.0
        -77.527150,43.129123,3.0
        -77.526958,43.129162,3.0
        -77.526773,43.129202,3.0
        -77.526580,43.129218,3.0
        -77.526393,43.129225,3.0
        -77.526210,43.129218,3.0
        -77.526033,43.129210,3.0
        -77.525867,43.129207,3.0
        -77.525725,43.129195,3.0
        -77.525588,43.129188,3.0
        -77.525433,43.129182,3.0
        -77.525252,43.129170,3.0
        -77.525048,43.129157,3.0
        -77.524822,43.129138,3.0
        -77.524592,43.129117,3.0
        -77.524367,43.129088,3.0
        -77.524143,43.129055,3.0
        -77.523920,43.129018,3.0
        -77.523693,43.128977,3.0
        -77.523467,43.128930,3.0
        -77.523238,43.128878,3.0
        -77.523008,43.128820,3.0
        -77.522785,43.128747,3.0
        -77.522575,43.128658,3.0
        -77.522368,43.128557,3.0
        -77.522173,43.128440,3.0
        -77.521990,43.128323,3.0
        -77.521822,43.128200,3.0
        -77.521670,43.128070,3.0
        -77.521530,43.127942,3.0
        -77.521408,43.127808,3.0
        -77.521293,43.127667,3.0
        -77.521180,43.127523,3.0
        -77.521065,43.127378,3.0
        -77.520942,43.127235,3.0
        -77.520813,43.127090,3.0
        -77.520682,43.126945,3.0
        -77.520550,43.126808,3.0
        -77.520430,43.126660,3.0
        -77.520308,43.126512,3.0
        -77.520185,43.126362,3.0
        -77.520068,43.126203,3.0
        -77.519947,43.126048,3.0
        -77.519817,43.125893,3.0
        -77.519680,43.125735,3.0
        -77.519545,43.125577,3.0
        -77.519398,43.125428,3.0
        -77.519247,43.125285,3.0
        -77.519095,43.125140,3.0
        -77.518935,43.124993,3.0
        -77.518768,43.124853,3.0
        -77.518593,43.124720,3.0
        -77.518412,43.124595,3.0
        -77.518223,43.124475,3.0
        -77.518028,43.124362,3.0
        -77.517830,43.124253,3.0
        -77.517628,43.124148,3.0
        -77.517417,43.124043,3.0
        -77.517203,43.123938,3.0
        -77.516980,43.123837,3.0
        -77.516755,43.123745,3.0
        -77.516520,43.123660,3.0
        -77.516278,43.123580,3.0
        -77.516020,43.123512,3.0
        -77.515748,43.123457,3.0
        -77.515467,43.123407,3.0
        -77.515170,43.123362,3.0
        -77.514863,43.123322,3.0
        -77.514550,43.123290,3.0
        -77.514237,43.123267,3.0
        -77.513923,43.123255,3.0
        -77.513618,43.123252,3.0
        -77.513327,43.123252,3.0
        -77.513038,43.123253,3.0
        -77.512755,43.123253,3.0
        -77.512473,43.123250,3.0
        -77.512192,43.123252,3.0
        -77.511910,43.123252,3.0
        -77.511632,43.123253,3.0
        -77.511355,43.123252,3.0
        -77.511080,43.123252,3.0
        -77.510803,43.123250,3.0
        -77.510523,43.123247,3.0
        -77.510237,43.123243,3.0
        -77.509945,43.123240,3.0
        -77.509652,43.123237,3.0
        -77.509362,43.123232,3.0
        -77.509068,43.123228,3.0
        -77.508775,43.123227,3.0
        -77.508475,43.123225,3.0
        -77.508167,43.123225,3.0
        -77.507852,43.123223,3.0
        -77.507528,43.123223,3.0
        -77.507210,43.123225,3.0
        -77.506902,43.123232,3.0
        -77.506597,43.123243,3.0
        -77.506288,43.123260,3.0
        -77.505978,43.123283,3.0
        -77.505667,43.123315,3.0
        -77.505355,43.123358,3.0
        -77.505042,43.123412,3.0
        -77.504723,43.123475,3.0
        -77.504403,43.123545,3.0
        -77.504085,43.123625,3.0
        -77.503767,43.123715,3.0
        -77.503447,43.123808,3.0
        -77.503133,43.123907,3.0
        -77.502837,43.124025,3.0
        -77.502550,43.124158,3.0
        -77.502255,43.124292,3.0
        -77.501965,43.124440,3.0
        -77.501677,43.124598,3.0
        -77.501410,43.124767,3.0
        -77.501155,43.124945,3.0
        -77.500903,43.125122,3.0
        -77.500645,43.125303,3.0
        -77.500382,43.125492,3.0
        -77.500120,43.125682,3.0
        -77.499862,43.125875,3.0
        -77.499603,43.126068,3.0
        -77.499338,43.126253,3.0
        -77.499065,43.126430,3.0
        -77.498782,43.126592,3.0
        -77.498487,43.126737,3.0
        -77.498185,43.126872,3.0
        -77.497868,43.126995,3.0
        -77.497548,43.127113,3.0
        -77.497218,43.127218,3.0
        -77.496870,43.127302,3.0
        -77.496510,43.127370,3.0
        -77.496142,43.127425,3.0
        -77.495763,43.127463,3.0
        -77.495382,43.127492,3.0
        -77.495003,43.127518,3.0
        -77.494630,43.127547,3.0
        -77.494263,43.127577,3.0
        -77.493902,43.127610,3.0
        -77.493545,43.127638,3.0
        -77.493195,43.127665,3.0
        -77.492848,43.127688,3.0
        -77.492505,43.127713,3.0
        -77.492163,43.127738,3.0
        -77.491828,43.127763,3.0
        -77.491498,43.127790,3.0
        -77.491170,43.127817,3.0
        -77.490842,43.127842,3.0
        -77.490517,43.127867,3.0
        -77.490188,43.127890,3.0
        -77.489858,43.127915,3.0
        -77.489533,43.127940,3.0
        -77.489212,43.127965,3.0
        -77.488897,43.127990,3.0
        -77.488582,43.128017,3.0
        -77.488273,43.128042,3.0
        -77.487973,43.128065,3.0
        -77.487683,43.128090,3.0
        -77.487400,43.128112,3.0
        -77.487127,43.128132,3.0
        -77.486860,43.128153,3.0
        -77.486602,43.128175,3.0
        -77.486348,43.128195,3.0
        -77.486098,43.128217,3.0
        -77.485853,43.128238,3.0
        -77.485617,43.128255,3.0
        -77.485383,43.128277,3.0
        -77.485155,43.128295,3.0
        -77.484928,43.128318,3.0
        -77.484707,43.128342,3.0
        -77.484492,43.128365,3.0
        -77.484285,43.128393,3.0
        -77.484080,43.128423,3.0
        -77.483873,43.128453,3.0
        -77.483668,43.128478,3.0
        -77.483465,43.128505,3.0
        -77.483267,43.128533,3.0
        -77.483068,43.128557,3.0
        -77.482873,43.128580,3.0
        -77.482680,43.128607,3.0
        -77.482487,43.128633,3.0
        -77.482292,43.128658,3.0
        -77.482098,43.128683,3.0
        -77.481905,43.128707,3.0
        -77.481717,43.128733,3.0
        -77.481535,43.128762,3.0
        -77.481353,43.128788,3.0
        -77.481177,43.128813,3.0
        -77.481007,43.128837,3.0
        -77.480832,43.128860,3.0
        -77.480657,43.128878,3.0
        -77.480482,43.128897,3.0
        -77.480308,43.128918,3.0
        -77.480132,43.128942,3.0
        -77.479955,43.128967,3.0
        -77.479778,43.128992,3.0
        -77.479605,43.129020,3.0
        -77.479430,43.129050,3.0
        -77.479262,43.129082,3.0
        -77.479090,43.129113,3.0
        -77.478922,43.129157,3.0
        -77.478742,43.129208,3.0
        -77.478550,43.129260,3.0
        -77.478343,43.129315,3.0
        -77.478125,43.129377,3.0
        -77.477897,43.129445,3.0
        -77.477673,43.129520,3.0
        -77.477455,43.129592,3.0
        -77.477232,43.129662,3.0
        -77.476997,43.129735,3.0
        -77.476753,43.129807,3.0
        -77.476515,43.129875,3.0
        -77.476275,43.129943,3.0
        -77.476045,43.130013,3.0
        -77.475820,43.130083,3.0
        -77.475598,43.130150,3.0
        -77.475383,43.130215,3.0
        -77.475170,43.130282,3.0
        -77.474970,43.130352,3.0
        -77.474782,43.130418,3.0
        -77.474597,43.130487,3.0
        -77.474415,43.130555,3.0
        -77.474235,43.130617,3.0
        -77.474057,43.130675,3.0
        -77.473877,43.130733,3.0
        -77.473693,43.130793,3.0
        -77.473503,43.130855,3.0
        -77.473313,43.130922,3.0
        -77.473122,43.130988,3.0
        -77.472925,43.131057,3.0
        -77.472720,43.131125,3.0
        -77.472512,43.131190,3.0
        -77.472297,43.131250,3.0
        -77.472082,43.131302,3.0
        -77.471862,43.131347,3.0
        -77.471638,43.131385,3.0
        -77.471413,43.131413,3.0
        -77.471185,43.131432,3.0
        -77.470948,43.131445,3.0
        -77.470712,43.131452,3.0
        -77.470473,43.131450,3.0
        -77.470238,43.131437,3.0
        -77.470005,43.131422,3.0
        -77.469772,43.131410,3.0
        -77.469540,43.131398,3.0
        -77.469307,43.131390,3.0
        -77.469075,43.131380,3.0
        -77.468845,43.131372,3.0
        -77.468613,43.131365,3.0
        -77.468385,43.131357,3.0
        -77.468158,43.131348,3.0
        -77.467933,43.131342,3.0
        -77.467713,43.131335,3.0
        -77.467488,43.131328,3.0
        -77.467258,43.131322,3.0
        -77.467033,43.131315,3.0
        -77.466810,43.131310,3.0
        -77.466588,43.131303,3.0
        -77.466372,43.131298,3.0
        -77.466162,43.131292,3.0
        -77.465955,43.131282,3.0
        -77.465755,43.131275,3.0
        -77.465562,43.131267,3.0
        -77.465375,43.131257,3.0
        -77.465190,43.131250,3.0
        -77.465000,43.131245,3.0
        -77.464810,43.131245,3.0
        -77.464618,43.131245,3.0
        -77.464433,43.131245,3.0
        -77.464273,43.131243,3.0
        -77.464158,43.131242,3.0
        -77.464073,43.131247,3.0
        -77.463992,43.131265,3.0
        -77.463927,43.131310,3.0
        -77.463890,43.131365,3.0
        -77.463873,43.131433,3.0
        -77.463877,43.131523,3.0
        -77.463870,43.131622,3.0
        -77.463867,43.131737,3.0
        -77.463860,43.131863,3.0
        -77.463848,43.131997,3.0
        -77.463843,43.132140,3.0
        -77.463843,43.132302,3.0
        -77.463842,43.132468,3.0
        -77.463838,43.132635,3.0
        -77.463837,43.132797,3.0
        -77.463835,43.132955,3.0
        -77.463837,43.133110,3.0
        -77.463838,43.133262,3.0
        -77.463840,43.133413,3.0
        -77.463843,43.133550,3.0
        -77.463842,43.133685,3.0
        -77.463843,43.133818,3.0
        -77.463843,43.133952,3.0
        -77.463843,43.134085,3.0
        -77.463842,43.134212,3.0
        -77.463838,43.134353,3.0
        -77.463830,43.134497,3.0
        -77.463827,43.134635,3.0
        -77.463827,43.134780,3.0
        -77.463828,43.134937,3.0
        -77.463827,43.135093,3.0
        -77.463827,43.135255,3.0
        -77.463832,43.135423,3.0
        -77.463832,43.135598,3.0
        -77.463832,43.135780,3.0
        -77.463828,43.135957,3.0
        -77.463823,43.136135,3.0
        -77.463818,43.136310,3.0
        -77.463817,43.136482,3.0
        -77.463815,43.136655,3.0
        -77.463817,43.136832,3.0
        -77.463818,43.137010,3.0
        -77.463817,43.137185,3.0
        -77.463817,43.137355,3.0
        -77.463812,43.137528,3.0
        -77.463807,43.137693,3.0
        -77.463800,43.137855,3.0
        -77.463795,43.138012,3.0
        -77.463792,43.138162,3.0
        -77.463787,43.138307,3.0
        -77.463785,43.138452,3.0
        -77.463778,43.138595,3.0
        -77.463773,43.138740,3.0
        -77.463768,43.138888,3.0
        -77.463758,43.139035,3.0
        -77.463755,43.139180,3.0
        -77.463757,43.139325,3.0
        -77.463755,43.139467,3.0
        -77.463750,43.139610,3.0
        -77.463747,43.139757,3.0
        -77.463745,43.139900,3.0
        -77.463743,43.140042,3.0
        -77.463737,43.140182,3.0
        -77.463730,43.140323,3.0
        -77.463725,43.140475,3.0
        -77.463718,43.140630,3.0
        -77.463705,43.140782,3.0
        -77.463697,43.140928,3.0
        -77.463688,43.141070,3.0
        -77.463685,43.141210,3.0
        -77.463680,43.141350,3.0
        -77.463675,43.141488,3.0
        -77.463667,43.141630,3.0
        -77.463663,43.141762,3.0
        -77.463657,43.141885,3.0
        -77.463658,43.141990,3.0
        -77.463663,43.142078,3.0
        -77.463638,43.142132,3.0
        -77.463605,43.142187,3.0
        -77.463512,43.142237,3.0
        -77.463435,43.142247,3.0
        -77.463168,43.142210,3.0
        -77.462993,43.142190,3.0
        -77.462800,43.142180,3.0
        -77.462593,43.142170,3.0
        -77.462373,43.142167,3.0
        -77.462142,43.142158,3.0
        -77.461908,43.142143,3.0
        -77.461670,43.142123,3.0
        -77.461435,43.142105,3.0
        -77.461197,43.142087,3.0
        -77.460950,43.142067,3.0
        -77.460698,43.142040,3.0
        -77.460442,43.142015,3.0
        -77.460187,43.141990,3.0
        -77.459942,43.141963,3.0
        -77.459708,43.141935,3.0
        -77.459480,43.141908,3.0
        -77.459257,43.141883,3.0
        -77.459035,43.141855,3.0
        -77.458815,43.141828,3.0
        -77.458597,43.141803,3.0
        -77.458377,43.141778,3.0
        -77.458160,43.141753,3.0
        -77.457942,43.141730,3.0
        -77.457725,43.141705,3.0
        -77.457505,43.141680,3.0
        -77.457285,43.141653,3.0
        -77.457063,43.141627,3.0
        -77.456840,43.141598,3.0
        -77.456615,43.141570,3.0
        -77.456392,43.141545,3.0
        -77.456170,43.141517,3.0
        -77.455947,43.141487,3.0
        -77.455725,43.141457,3.0
        -77.455502,43.141428,3.0
        -77.455278,43.141405,3.0
        -77.455063,43.141378,3.0
        -77.454852,43.141353,3.0
        -77.454638,43.141328,3.0
        -77.454428,43.141305,3.0
        -77.454220,43.141278,3.0
        -77.454013,43.141252,3.0
        -77.453813,43.141227,3.0
        -77.453618,43.141203,3.0
        -77.453422,43.141177,3.0
        -77.453225,43.141153,3.0
        -77.453028,43.141130,3.0
        -77.452837,43.141103,3.0
        -77.452640,43.141078,3.0
        -77.452442,43.141052,3.0
        -77.452237,43.141030,3.0
        -77.452028,43.141008,3.0
        -77.451820,43.140987,3.0
        -77.451610,43.140963,3.0
        -77.451402,43.140940,3.0
        -77.451188,43.140920,3.0
        -77.450968,43.140907,3.0
        -77.450743,43.140903,3.0
        -77.450515,43.140905,3.0
        -77.450285,43.140915,3.0
        -77.450052,43.140928,3.0
        -77.449817,43.140947,3.0
        -77.449582,43.140965,3.0
        -77.449350,43.140982,3.0
        -77.449127,43.140998,3.0
        -77.448915,43.141010,3.0
        -77.448708,43.141020,3.0
        -77.448510,43.141030,3.0
        -77.448315,43.141038,3.0
        -77.448122,43.141052,3.0
        -77.447930,43.141067,3.0
        -77.447743,43.141083,3.0
        -77.447557,43.141098,3.0
        -77.447368,43.141110,3.0
        -77.447177,43.141118,3.0
        -77.446982,43.141130,3.0
        -77.446787,43.141147,3.0
        -77.446593,43.141163,3.0
        -77.446400,43.141177,3.0
        -77.446213,43.141188,3.0
        -77.446033,43.141198,3.0
        -77.445853,43.141207,3.0
        -77.445672,43.141218,3.0
        -77.445493,43.141228,3.0
        -77.445312,43.141240,3.0
        -77.445130,43.141252,3.0
        -77.444943,43.141263,3.0
        -77.444757,43.141272,3.0
        -77.444573,43.141283,3.0
        -77.444388,43.141295,3.0
        -77.444203,43.141303,3.0
        -77.444018,43.141310,3.0
        -77.443833,43.141315,3.0
        -77.443653,43.141317,3.0
        -77.443478,43.141317,3.0
        -77.443302,43.141313,3.0
        -77.443128,43.141312,3.0
        -77.442953,43.141308,3.0
        -77.442767,43.141298,3.0
        -77.442568,43.141288,3.0
        -77.442358,43.141280,3.0
        -77.442137,43.141272,3.0
        -77.441908,43.141258,3.0
        -77.441673,43.141237,3.0
        -77.441435,43.141212,3.0
        -77.441202,43.141188,3.0
        -77.440972,43.141162,3.0
        -77.440748,43.141135,3.0
        -77.440525,43.141115,3.0
        -77.440310,43.141097,3.0
        -77.440103,43.141080,3.0
        -77.439908,43.141065,3.0
        -77.439728,43.141048,3.0
        -77.439570,43.141037,3.0
        -77.439438,43.141032,3.0
        -77.439337,43.141023,3.0
        -77.439278,43.140993,3.0
        -77.439278,43.140955,3.0
        -77.439338,43.140828,3.0
        -77.439413,43.140660,3.0
        -77.439475,43.140483,3.0
        -77.439503,43.140390,3.0
        -77.439528,43.140292,3.0
        -77.439550,43.140193,3.0
        -77.439572,43.140098,3.0
        -77.439593,43.140007,3.0
        -77.439610,43.139915,3.0
        -77.439633,43.139737,3.0
        -77.439618,43.139578,3.0
        -77.439590,43.139498,3.0
        -77.439550,43.139423,3.0
        -77.439437,43.139290,3.0
        -77.439367,43.139222,3.0
        -77.439285,43.139165,3.0
        -77.439197,43.139117,3.0
        -77.438992,43.139027,3.0
        -77.438792,43.138937,3.0
        -77.438600,43.138847,3.0
        -77.438408,43.138762,3.0
        -77.438195,43.138682,3.0
        -77.438087,43.138652,3.0
        -77.437910,43.138628,3.0
        -77.437843,43.138620,3.0
        -77.437793,43.138610,3.0
        -77.437738,43.138582,3.0
        -77.437723,43.138523,3.0
        -77.437728,43.138485,3.0
        -77.437755,43.138392,3.0
      </coordinates>
    </LineString>
  </Placemark>
  <Placemark>
    <name>Start</name>
    <description>Start time: 2025-05-06 02:16:03</description>
    <styleUrl>#startStyle</styleUrl>
    <Point>
      <coordinates>-77.676557,43.087668,3</coordinates>
    </Point>
  </Placemark>
  <Placemark>
    <name>End</name>
    <description>End time: 2025-05-06 02:42:04</description>
    <styleUrl>#endStyle</styleUrl>
    <Point>
      <coordinates>-77.437755,43.138392,3</coordinates>
    </Point>
  </Placemark>
  <Placemark>
    <name>Stop 1</name>
    <description>Duration: 26.0s</description>
    <styleUrl>#stopStyle</styleUrl>
    <Point>
      <coordinates>-77.675125,43.087658,3</coordinates>
    </Point>
  </Placemark>
  <Placemark>
    <name>Stop 2</name>
    <description>Duration: 4.6m</description>
    <styleUrl>#stopStyle</styleUrl>
    <Point>
      <coordinates>-77.638787,43.093738,3</coordinates>
    </Point>
  </Placemark>
  <Placemark>
    <name>Left Turn 1</name>
    <description>Angle: 0.0°</description>
    <styleUrl>#leftTurnStyle</styleUrl>
    <Point>
      <coordinates>-77.665842,43.092353,3</coordinates>
    </Point>
  </Placemark>
  <Placemark>
    <name>Left Turn 2</name>
    <description>Angle: 0.0°</description>
    <styleUrl>#leftTurnStyle</styleUrl>
    <Point>
      <coordinates>-77.576060,43.107008,3</coordinates>
    </Point>
  </Placemark>
  <Placemark>
    <name>Left Turn 3</name>
    <description>Angle: 0.0°</description>
    <styleUrl>#leftTurnStyle</styleUrl>
    <Point>
      <coordinates>-77.553397,43.116272,3</coordinates>
    </Point>
  </Placemark>
  <Placemark>
    <name>Left Turn 4</name>
    <description>Angle: 0.0°</description>
    <styleUrl>#leftTurnStyle</styleUrl>
    <Point>
      <coordinates>-77.528668,43.128268,3</coordinates>
    </Point>
  </Placemark>
  <Placemark>
    <name>Left Turn 5</name>
    <description>Angle: 0.0°</description>
    <styleUrl>#leftTurnStyle</styleUrl>
    <Point>
      <coordinates>-77.463658,43.141990,3</coordinates>
    </Point>
  </Placemark>
  <Placemark>
    <name>Left Turn 6</name>
    <description>Angle: 0.0°</description>
    <styleUrl>#leftTurnStyle</styleUrl>
    <Point>
      <coordinates>-77.439570,43.141037,3</coordinates>
    </Point>
  </Placemark>
  <Placemark>
    <name>Left Turn 7</name>
    <description>Angle: 0.0°</description>
    <styleUrl>#leftTurnStyle</styleUrl>
    <Point>
      <coordinates>-77.437843,43.138620,3</coordinates>
    </Point>
  </Placemark>
</Document>
</kml>